{"type":"FeatureCollection","features":[{"type":"Feature","geometry":{"type":"MultiLineString","coordinates":[[[97.10053,1.35668],[97.10053,1.35668]],[[97.11033,1.35668],[97.11033,1.35668]],[[97.15832,1.35669],[97.15832,1.35668]]]},"properties":{"year":1988,"certainty":"good"}},{"type":"Feature","geometry":{"type":"MultiLineString","coordinates":[[[97.10053,1.35668],[97.10054,1.35668]],[[97.11034,1.35668],[97.11034,1.35668]],[[97.15832,1.35669],[97.15832,1.35668]]]},"properties":{"year":1989,"certainty":"good"}},{"type":"Feature","geometry":{"type":"MultiLineString","coordinates":[[[97.10054,1.35668],[97.10054,1.35668]],[[97.11037,1.35668],[97.11037,1.35668]],[[97.15817,1.35669],[97.15818,1.35668]]]},"properties":{"year":1990,"certainty":"good"}},{"type":"Feature","geometry":{"type":"MultiLineString","coordinates":[[[97.10055,1.35668],[97.10055,1.35668]],[[97.11031,1.35668],[97.11032,1.35668]],[[97.15842,1.35669],[97.15843,1.35668]]]},"properties":{"year":1991,"certainty":"good"}},{"type":"Feature","geometry":{"type":"MultiLineString","coordinates":[[[97.1006,1.35668],[97.1006,1.35668]],[[97.11029,1.35668],[97.1103,1.35668]],[[97.15862,1.35669],[97.15864,1.35668]]]},"properties":{"year":1992,"certainty":"insufficient data"}},{"type":"Feature","geometry":{"type":"MultiLineString","coordinates":[[[97.10054,1.35668],[97.10055,1.35668]],[[97.15856,1.35669],[97.15857,1.35668]]]},"properties":{"year":1993,"certainty":"insufficient data"}},{"type":"Feature","geometry":{"type":"LineString","coordinates":[[97.11035,1.35668],[97.11035,1.35668]]},"properties":{"year":1994,"certainty":"insufficient data"}},{"type":"Feature","geometry":{"type":"MultiLineString","coordinates":[[[97.10057,1.35668],[97.10058,1.35668]],[[97.15839,1.35669],[97.1584,1.35668]]]},"properties":{"year":1994,"certainty":"good"}},{"type":"Feature","geometry":{"type":"MultiLineString","coordinates":[[[97.1006,1.35668],[97.1006,1.35668]],[[97.11035,1.35668],[97.11035,1.35668]],[[97.15833,1.35669],[97.15835,1.35668]]]},"properties":{"year":1995,"certainty":"good"}},{"type":"Feature","geometry":{"type":"LineString","coordinates":[[97.10064,1.35668],[97.10065,1.35668]]},"properties":{"year":1996,"certainty":"insufficient data"}},{"type":"Feature","geometry":{"type":"MultiLineString","coordinates":[[[97.11029,1.35668],[97.1103,1.35668]],[[97.15838,1.35669],[97.15839,1.35668]]]},"properties":{"year":1996,"certainty":"good"}},{"type":"Feature","geometry":{"type":"MultiLineString","coordinates":[[[97.10059,1.35668],[97.10059,1.35668]],[[97.11012,1.35668],[97.11012,1.35668]]]},"properties":{"year":1997,"certainty":"insufficient data"}},{"type":"Feature","geometry":{"type":"LineString","coordinates":[[97.15875,1.35669],[97.15876,1.35668]]},"properties":{"year":1997,"certainty":"good"}},{"type":"Feature","geometry":{"type":"MultiLineString","coordinates":[[[97.10061,1.35668],[97.10061,1.35668]],[[97.11016,1.35668],[97.11016,1.35668]],[[97.15875,1.35669],[97.15876,1.35668]]]},"properties":{"year":1998,"certainty":"insufficient data"}},{"type":"Feature","geometry":{"type":"MultiLineString","coordinates":[[[97.1006,1.35668],[97.1006,1.35668]],[[97.11022,1.35668],[97.11023,1.35668]]]},"properties":{"year":1999,"certainty":"good"}},{"type":"Feature","geometry":{"type":"LineString","coordinates":[[97.15845,1.35669],[97.15846,1.35668]]},"properties":{"year":1999,"certainty":"insufficient data"}},{"type":"Feature","geometry":{"type":"MultiLineString","coordinates":[[[97.10061,1.35668],[97.10061,1.35668]],[[97.11022,1.35668],[97.11023,1.35668]],[[97.15861,1.35669],[97.15862,1.35668]]]},"properties":{"year":2000,"certainty":"good"}},{"type":"Feature","geometry":{"type":"MultiLineString","coordinates":[[[97.10058,1.35668],[97.10058,1.35668]],[[97.11025,1.35668],[97.11025,1.35668]]]},"properties":{"year":2001,"certainty":"insufficient data"}},{"type":"Feature","geometry":{"type":"LineString","coordinates":[[97.15861,1.35669],[97.15862,1.35668]]},"properties":{"year":2001,"certainty":"good"}},{"type":"Feature","geometry":{"type":"LineString","coordinates":[[97.15869,1.35669],[97.1587,1.35668]]},"properties":{"year":2002,"certainty":"insufficient data"}},{"type":"Feature","geometry":{"type":"MultiLineString","coordinates":[[[97.0995,1.35668],[97.0995,1.35668]],[[97.11171,1.35668],[97.11171,1.35668]],[[97.15754,1.35669],[97.15756,1.35668]]]},"properties":{"year":2004,"certainty":"insufficient data"}},{"type":"Feature","geometry":{"type":"MultiLineString","coordinates":[[[97.09945,1.35668],[97.09945,1.35668]],[[97.11171,1.35668],[97.11171,1.35668]],[[97.15763,1.35669],[97.15766,1.35668]]]},"properties":{"year":2005,"certainty":"good"}},{"type":"Feature","geometry":{"type":"MultiLineString","coordinates":[[[97.09953,1.35668],[97.09953,1.35668]],[[97.1117,1.35668],[97.11171,1.35668]],[[97.15785,1.35669],[97.15786,1.35668]]]},"properties":{"year":2006,"certainty":"good"}},{"type":"Feature","geometry":{"type":"MultiLineString","coordinates":[[[97.09955,1.35668],[97.09956,1.35668]],[[97.11169,1.35668],[97.11169,1.35668]],[[97.158,1.35669],[97.15801,1.35668]]]},"properties":{"year":2007,"certainty":"good"}},{"type":"Feature","geometry":{"type":"MultiLineString","coordinates":[[[97.09956,1.35668],[97.09957,1.35668]],[[97.11165,1.35668],[97.11165,1.35668]],[[97.15801,1.35669],[97.15802,1.35668]]]},"properties":{"year":2008,"certainty":"good"}},{"type":"Feature","geometry":{"type":"MultiLineString","coordinates":[[[97.09956,1.35668],[97.09957,1.35668]],[[97.11165,1.35668],[97.11166,1.35668]],[[97.15799,1.35669],[97.158,1.35668]]]},"properties":{"year":2009,"certainty":"good"}},{"type":"Feature","geometry":{"type":"MultiLineString","coordinates":[[[97.0996,1.35668],[97.0996,1.35668]],[[97.11163,1.35668],[97.11164,1.35668]],[[97.15798,1.35669],[97.15799,1.35668]]]},"properties":{"year":2010,"certainty":"good"}},{"type":"Feature","geometry":{"type":"MultiLineString","coordinates":[[[97.09963,1.35668],[97.09963,1.35668]],[[97.11163,1.35668],[97.11164,1.35668]],[[97.15804,1.35669],[97.15805,1.35668]]]},"properties":{"year":2011,"certainty":"insufficient data"}},{"type":"Feature","geometry":{"type":"MultiLineString","coordinates":[[[97.09961,1.35668],[97.09961,1.35668]],[[97.11167,1.35668],[97.11167,1.35668]],[[97.15796,1.35669],[97.15797,1.35668]]]},"properties":{"year":2012,"certainty":"insufficient data"}},{"type":"Feature","geometry":{"type":"MultiLineString","coordinates":[[[97.0996,1.35668],[97.0996,1.35668]],[[97.11172,1.35668],[97.11172,1.35668]],[[97.15796,1.35669],[97.15797,1.35668]]]},"properties":{"year":2013,"certainty":"good"}},{"type":"Feature","geometry":{"type":"MultiLineString","coordinates":[[[97.09961,1.35668],[97.09961,1.35668]],[[97.11167,1.35668],[97.11167,1.35668]],[[97.15796,1.35669],[97.15797,1.35668]]]},"properties":{"year":2014,"certainty":"good"}},{"type":"Feature","geometry":{"type":"MultiLineString","coordinates":[[[97.09962,1.35668],[97.09962,1.35668]],[[97.11165,1.35668],[97.11165,1.35668]],[[97.15798,1.35669],[97.15799,1.35668]]]},"properties":{"year":2015,"certainty":"good"}},{"type":"Feature","geometry":{"type":"MultiLineString","coordinates":[[[97.09963,1.35668],[97.09964,1.35668]],[[97.11164,1.35668],[97.11165,1.35668]],[[97.15807,1.35669],[97.15808,1.35668]]]},"properties":{"year":2016,"certainty":"good"}},{"type":"Feature","geometry":{"type":"LineString","coordinates":[[97.09957,1.35668],[97.09957,1.35668]]},"properties":{"year":2017,"certainty":"unstable data"}},{"type":"Feature","geometry":{"type":"MultiLineString","coordinates":[[[97.11164,1.35668],[97.11164,1.35668]],[[97.15804,1.35669],[97.15806,1.35668]]]},"properties":{"year":2017,"certainty":"good"}},{"type":"Feature","geometry":{"type":"MultiLineString","coordinates":[[[97.11162,1.35668],[97.11162,1.35668]],[[97.15795,1.35669],[97.15796,1.35668]]]},"properties":{"year":2018,"certainty":"good"}},{"type":"Feature","geometry":{"type":"LineString","coordinates":[[97.09951,1.35668],[97.09951,1.35668]]},"properties":{"year":2018,"certainty":"unstable data"}},{"type":"Feature","geometry":{"type":"MultiLineString","coordinates":[[[97.09953,1.35668],[97.09954,1.35668]],[[97.11163,1.35668],[97.11163,1.35668]],[[97.15796,1.35669],[97.15797,1.35668]]]},"properties":{"year":2019,"certainty":"good"}},{"type":"Feature","geometry":{"type":"LineString","coordinates":[[97.1579,1.35669],[97.15792,1.35668]]},"properties":{"year":2020,"certainty":"unstable data"}},{"type":"Feature","geometry":{"type":"MultiLineString","coordinates":[[[97.09958,1.35668],[97.09959,1.35668]],[[97.11162,1.35668],[97.11163,1.35668]]]},"properties":{"year":2020,"certainty":"good"}},{"type":"Feature","geometry":{"type":"LineString","coordinates":[[97.15801,1.35669],[97.15802,1.35668]]},"properties":{"year":2021,"certainty":"unstable data"}},{"type":"Feature","geometry":{"type":"MultiLineString","coordinates":[[[97.09957,1.35668],[97.09957,1.35668]],[[97.1116,1.35668],[97.11161,1.35668]]]},"properties":{"year":2021,"certainty":"good"}},{"type":"Feature","geometry":{"type":"MultiLineString","coordinates":[[[97.1116,1.35668],[97.11161,1.35668]],[[97.15807,1.35669],[97.15809,1.35668]]]},"properties":{"year":2022,"certainty":"good"}},{"type":"Feature","geometry":{"type":"LineString","coordinates":[[97.09949,1.35668],[97.09949,1.35668]]},"properties":{"year":2022,"certainty":"unstable data"}},{"type":"Feature","geometry":{"type":"MultiLineString","coordinates":[[[97.09965,1.35668],[97.09965,1.35668]],[[97.11159,1.35668],[97.1116,1.35668]],[[97.15803,1.35669],[97.15804,1.35668]]]},"properties":{"year":2023,"certainty":"good"}},{"type":"Feature","geometry":{"type":"MultiLineString","coordinates":[[[97.09963,1.35668],[97.09963,1.35668]],[[97.11163,1.35668],[97.11163,1.35668]],[[97.15806,1.35669],[97.15807,1.35668]]]},"properties":{"year":2024,"certainty":"good"}},{"type":"Feature","geometry":{"type":"MultiLineString","coordinates":[[[97.09968,1.35668],[97.09968,1.35668]],[[97.11158,1.35668],[97.11158,1.35668]],[[97.15811,1.35669],[97.15812,1.35668]]]},"properties":{"year":2025,"certainty":"good"}}]}