{"type":"FeatureCollection","features":[{"id":"136","type":"Feature","properties":{"year":1990,"certainty":"good"},"geometry":{"type":"MultiLineString","coordinates":[[[104.52158,-1.7149],[104.52639,-1.71056],[104.49853,-1.6769],[104.46635,-1.61094],[104.44074,-1.50834],[104.44041,-1.48201],[104.45317,-1.44158],[104.45391,-1.43099],[104.45169,-1.42806],[104.45827,-1.41688],[104.45625,-1.35669]],[[104.45196,-1.42945],[104.45178,-1.42936],[104.45196,-1.42878],[104.45227,-1.42909],[104.45196,-1.42945]],[[104.45604,-1.42936],[104.45603,-1.42882],[104.45574,-1.42879],[104.45596,-1.42936],[104.45604,-1.42936]],[[104.45503,-1.42936],[104.45466,-1.42933],[104.45439,-1.42889],[104.45466,-1.42942],[104.45503,-1.42936]],[[104.45416,-1.43208],[104.45452,-1.43126],[104.45439,-1.43062],[104.454,-1.43153],[104.45416,-1.43208]],[[104.45389,-1.55909],[104.45382,-1.55624],[104.45274,-1.5525],[104.4526,-1.55557],[104.45389,-1.55909]],[[104.49913,-1.67662],[104.49883,-1.67635],[104.49883,-1.67585],[104.49858,-1.67608],[104.4991,-1.67683],[104.49913,-1.67662]],[[104.50648,-1.80469],[104.53143,-1.80056],[104.54502,-1.77868],[104.52199,-1.71544]],[[104.54276,-1.78105],[104.5427,-1.78031],[104.54303,-1.78015],[104.54301,-1.78086],[104.54276,-1.78105]],[[104.5428,-1.78547],[104.54327,-1.78438],[104.5433,-1.78331],[104.54268,-1.78466],[104.5428,-1.78547]],[[104.54335,-1.78683],[104.54418,-1.78601],[104.54384,-1.78425],[104.54409,-1.78574],[104.54335,-1.78683]],[[104.50399,-1.80904],[104.50311,-1.80458]]]}},{"id":"137","type":"Feature","properties":{"year":1990,"certainty":"unstable data"},"geometry":{"type":"LineString","coordinates":[[104.50473,-1.80328],[104.50648,-1.80469]]}},{"id":"146","type":"Feature","properties":{"year":1995,"certainty":"good"},"geometry":{"type":"MultiLineString","coordinates":[[[104.52147,-1.71486],[104.4703,-1.62206],[104.44148,-1.51567],[104.45655,-1.35669]],[[104.44035,-1.48307],[104.44033,-1.4831]],[[104.4548,-1.56316],[104.45473,-1.56262],[104.45463,-1.56234],[104.45452,-1.56289],[104.4548,-1.56316]],[[104.50473,-1.80328],[104.54573,-1.78551],[104.52194,-1.71544]],[[104.50383,-1.80904],[104.50311,-1.80453]]]}},{"id":"153","type":"Feature","properties":{"year":2000,"certainty":"good"},"geometry":{"type":"MultiLineString","coordinates":[[[104.52147,-1.71486],[104.4684,-1.62044],[104.43954,-1.51295],[104.45629,-1.35669]],[[104.50473,-1.80327],[104.54465,-1.78384],[104.52174,-1.71542]],[[104.50381,-1.80904],[104.50311,-1.80456]]]}},{"id":"160","type":"Feature","properties":{"year":2005,"certainty":"good"},"geometry":{"type":"MultiLineString","coordinates":[[[104.52147,-1.71487],[104.5033,-1.68083]],[[104.49669,-1.67242],[104.46747,-1.61107]],[[104.46581,-1.60512],[104.45334,-1.54769],[104.44076,-1.51024],[104.44035,-1.50481],[104.44172,-1.49477],[104.44062,-1.49341],[104.44237,-1.48663]],[[104.44225,-1.48568],[104.45182,-1.4499]],[[104.45155,-1.44949],[104.45155,-1.44929]],[[104.45155,-1.44892],[104.45155,-1.4489]],[[104.45182,-1.448],[104.45175,-1.44334]],[[104.45182,-1.44309],[104.45186,-1.4428]],[[104.45275,-1.43818],[104.4529,-1.43737]],[[104.45759,-1.4295],[104.45803,-1.42174]],[[104.45727,-1.40914],[104.457,-1.40589]],[[104.45447,-1.39639],[104.45376,-1.39476]],[[104.44872,-1.45506],[104.44889,-1.45596]],[[104.44153,-1.50372],[104.44116,-1.50324],[104.44065,-1.50372],[104.44089,-1.50389],[104.44153,-1.50372]],[[104.45445,-1.55909],[104.45415,-1.55991]],[[104.46163,-1.58836],[104.46109,-1.58775],[104.46109,-1.58746],[104.46182,-1.58759],[104.46163,-1.58836]],[[104.53049,-1.7992],[104.53103,-1.79847]],[[104.53806,-1.7894],[104.53837,-1.78913]],[[104.53858,-1.78892],[104.53863,-1.78886]],[[104.54533,-1.78513],[104.54466,-1.77936]],[[104.5448,-1.77421],[104.54473,-1.77231]],[[104.54353,-1.76932],[104.54131,-1.75276]],[[104.53795,-1.73974],[104.52201,-1.71551]],[[104.52946,-1.71789],[104.53039,-1.71734],[104.52929,-1.71571],[104.52874,-1.71707],[104.52946,-1.71789]]]}},{"id":"161","type":"Feature","properties":{"year":2005,"certainty":"insufficient data"},"geometry":{"type":"MultiLineString","coordinates":[[[104.5033,-1.68083],[104.49669,-1.67242]],[[104.46747,-1.61107],[104.46581,-1.60512]],[[104.44237,-1.48663],[104.44225,-1.48568]],[[104.45182,-1.4499],[104.45155,-1.44949]],[[104.45155,-1.44929],[104.45155,-1.44892]],[[104.45155,-1.4489],[104.45182,-1.448]],[[104.45175,-1.44334],[104.45182,-1.44309]],[[104.45186,-1.4428],[104.45275,-1.43818]],[[104.4529,-1.43737],[104.45759,-1.4295]],[[104.45803,-1.42174],[104.45727,-1.40914]],[[104.457,-1.40589],[104.45447,-1.39639]],[[104.45376,-1.39476],[104.45623,-1.35669]],[[104.50473,-1.80327],[104.53049,-1.7992]],[[104.53103,-1.79847],[104.53806,-1.7894]],[[104.53837,-1.78913],[104.53858,-1.78892]],[[104.53863,-1.78886],[104.54533,-1.78513]],[[104.54466,-1.77936],[104.5448,-1.77421]],[[104.54473,-1.77231],[104.54353,-1.76932]],[[104.54131,-1.75276],[104.53795,-1.73974]],[[104.50398,-1.80904],[104.50311,-1.80458]]]}},{"id":"169","type":"Feature","properties":{"year":2010,"certainty":"insufficient data"},"geometry":{"type":"MultiLineString","coordinates":[[[104.52147,-1.71483],[104.52248,-1.71449]],[[104.50813,-1.68663],[104.50166,-1.68125]],[[104.47729,-1.64011],[104.47525,-1.63604]],[[104.47282,-1.63034],[104.46982,-1.62383]],[[104.45889,-1.59261],[104.45474,-1.57606]],[[104.44749,-1.53724],[104.44351,-1.52937]],[[104.44075,-1.51773],[104.43921,-1.48975]],[[104.43944,-1.48676],[104.44239,-1.47102]],[[104.44884,-1.45094],[104.44996,-1.44768]],[[104.45683,-1.42977],[104.45708,-1.42597]],[[104.4573,-1.42326],[104.45714,-1.41647]],[[104.4569,-1.41349],[104.45681,-1.41294]],[[104.45672,-1.41213],[104.45658,-1.40724]],[[104.45645,-1.40697],[104.456,-1.40426]],[[104.52323,-1.71622],[104.52201,-1.71561]]]}},{"id":"170","type":"Feature","properties":{"year":2010,"certainty":"good"},"geometry":{"type":"MultiLineString","coordinates":[[[104.52248,-1.71449],[104.50813,-1.68663]],[[104.50166,-1.68125],[104.47729,-1.64011]],[[104.47525,-1.63604],[104.47282,-1.63034]],[[104.46982,-1.62383],[104.45889,-1.59261]],[[104.45474,-1.57606],[104.44749,-1.53724]],[[104.44351,-1.52937],[104.44075,-1.51773]],[[104.43921,-1.48975],[104.43944,-1.48676]],[[104.44239,-1.47102],[104.44884,-1.45094]],[[104.44996,-1.44768],[104.45683,-1.42977]],[[104.45708,-1.42597],[104.4573,-1.42326]],[[104.45714,-1.41647],[104.4569,-1.41349]],[[104.45681,-1.41294],[104.45672,-1.41213]],[[104.45658,-1.40724],[104.45645,-1.40697]],[[104.456,-1.40426],[104.45621,-1.35669]],[[104.50473,-1.80335],[104.54387,-1.78411],[104.52323,-1.71622]],[[104.50384,-1.80904],[104.50311,-1.80456]]]}},{"id":"178","type":"Feature","properties":{"year":2015,"certainty":"unstable data"},"geometry":{"type":"MultiLineString","coordinates":[[[104.44103,-1.47913],[104.44126,-1.47889]],[[104.4413,-1.47874],[104.44211,-1.47418]],[[104.45371,-1.43953],[104.45389,-1.43954]],[[104.45398,-1.43961],[104.45393,-1.43927]],[[104.45398,-1.43907],[104.45641,-1.4333]],[[104.45641,-1.43327],[104.45663,-1.43248]],[[104.45668,-1.43233],[104.45677,-1.43194]],[[104.45405,-1.37956],[104.45628,-1.36083]]]}},{"id":"179","type":"Feature","properties":{"year":2015,"certainty":"good"},"geometry":{"type":"MultiLineString","coordinates":[[[104.52147,-1.71479],[104.46592,-1.61555],[104.43873,-1.51203],[104.44103,-1.47913]],[[104.44126,-1.47889],[104.4413,-1.47874]],[[104.44211,-1.47418],[104.45371,-1.43953]],[[104.45389,-1.43954],[104.45398,-1.43961]],[[104.45393,-1.43927],[104.45398,-1.43907]],[[104.45641,-1.4333],[104.45641,-1.43327]],[[104.45663,-1.43248],[104.45668,-1.43233]],[[104.45677,-1.43194],[104.45087,-1.38648],[104.45405,-1.37956]],[[104.45628,-1.36083],[104.45728,-1.35669]],[[104.45257,-1.38512],[104.45342,-1.38431],[104.45332,-1.38403],[104.45264,-1.38431],[104.45257,-1.38512]],[[104.43951,-1.51078],[104.43954,-1.51051],[104.43896,-1.51078],[104.43927,-1.51091],[104.43951,-1.51078]],[[104.45372,-1.56534],[104.45382,-1.56503],[104.45315,-1.56534],[104.45328,-1.56549],[104.45372,-1.56534]],[[104.50473,-1.80331],[104.54457,-1.78221],[104.52201,-1.7155]],[[104.50394,-1.80904],[104.50311,-1.8045]]]}},{"id":"187","type":"Feature","properties":{"year":2020,"certainty":"good"},"geometry":{"type":"MultiLineString","coordinates":[[[104.52147,-1.71483],[104.4679,-1.62152],[104.43846,-1.51216],[104.4566,-1.35669]],[[104.45442,-1.44266],[104.45453,-1.44212],[104.45466,-1.44182],[104.45431,-1.44212],[104.45442,-1.44266]],[[104.45265,-1.4451],[104.45369,-1.44375],[104.45385,-1.44286],[104.45331,-1.4432],[104.45265,-1.4451]],[[104.50473,-1.80323],[104.54408,-1.78357],[104.52174,-1.7154]],[[104.50377,-1.80904],[104.50311,-1.80452]]]}},{"id":"194","type":"Feature","properties":{"year":2025,"certainty":"good"},"geometry":{"type":"MultiLineString","coordinates":[[[104.48932,-1.66604],[104.46163,-1.6039],[104.45921,-1.57965],[104.45428,-1.57321],[104.43813,-1.51268],[104.45082,-1.44578]],[[104.45486,-1.44063],[104.45498,-1.44063]],[[104.45552,-1.44035],[104.45179,-1.38689]],[[104.45574,-1.36979],[104.45589,-1.36911]],[[104.45598,-1.36843],[104.45694,-1.35669]],[[104.45519,-1.56615],[104.45489,-1.56529],[104.45463,-1.56536],[104.45484,-1.56615],[104.45519,-1.56615]],[[104.45599,-1.56886],[104.4557,-1.56871],[104.45539,-1.56805],[104.45519,-1.56886],[104.45599,-1.56886]],[[104.45847,-1.57619],[104.4584,-1.57395],[104.45732,-1.57099],[104.45784,-1.57592],[104.45847,-1.57619]],[[104.45666,-1.57728],[104.45705,-1.57811]],[[104.52147,-1.71478],[104.4969,-1.67133]],[[104.49681,-1.67119],[104.49675,-1.67106]],[[104.49573,-1.66978],[104.48993,-1.66615]],[[104.50473,-1.80323],[104.54474,-1.78276],[104.52174,-1.71539]],[[104.5299,-1.7206],[104.52983,-1.71873],[104.52902,-1.71815],[104.52902,-1.719],[104.5299,-1.7206]],[[104.50378,-1.80904],[104.50311,-1.80454]]]}},{"id":"195","type":"Feature","properties":{"year":2025,"certainty":"unstable data"},"geometry":{"type":"MultiLineString","coordinates":[[[104.45082,-1.44578],[104.45486,-1.44063]],[[104.45498,-1.44063],[104.45552,-1.44035]],[[104.45179,-1.38689],[104.45609,-1.37752],[104.45574,-1.36979]],[[104.45589,-1.36911],[104.45598,-1.36843]],[[104.457,-1.37508],[104.4571,-1.3741],[104.45629,-1.37438],[104.45669,-1.37508],[104.457,-1.37508]],[[104.45386,-1.37949],[104.45353,-1.38105]],[[104.4969,-1.67133],[104.49681,-1.67119]],[[104.49675,-1.67106],[104.49573,-1.66978]]]}}]}