{"type":"FeatureCollection","features":[{"id":"6","type":"Feature","properties":{"year":1990,"certainty":"good"},"geometry":{"type":"MultiLineString","coordinates":[[[104.52158,-1.7149],[104.52639,-1.71056],[104.49853,-1.6769],[104.46635,-1.61094],[104.44074,-1.50834],[104.44041,-1.48201],[104.45317,-1.44158],[104.45391,-1.43099],[104.45169,-1.42806],[104.45827,-1.41688],[104.45625,-1.35669]],[[104.45196,-1.42945],[104.45178,-1.42936],[104.45196,-1.42878],[104.45227,-1.42909],[104.45196,-1.42945]],[[104.45604,-1.42936],[104.45603,-1.42882],[104.45574,-1.42879],[104.45596,-1.42936],[104.45604,-1.42936]],[[104.45503,-1.42936],[104.45466,-1.42933],[104.45439,-1.42889],[104.45466,-1.42942],[104.45503,-1.42936]],[[104.45416,-1.43208],[104.45452,-1.43126],[104.45439,-1.43062],[104.454,-1.43153],[104.45416,-1.43208]],[[104.45389,-1.55909],[104.45382,-1.55624],[104.45274,-1.5525],[104.4526,-1.55557],[104.45389,-1.55909]],[[104.49913,-1.67662],[104.49883,-1.67635],[104.49883,-1.67585],[104.49858,-1.67608],[104.4991,-1.67683],[104.49913,-1.67662]],[[104.50648,-1.80469],[104.53143,-1.80056],[104.54502,-1.77868],[104.52199,-1.71544]],[[104.54276,-1.78105],[104.5427,-1.78031],[104.54303,-1.78015],[104.54301,-1.78086],[104.54276,-1.78105]],[[104.5428,-1.78547],[104.54327,-1.78438],[104.5433,-1.78331],[104.54268,-1.78466],[104.5428,-1.78547]],[[104.54335,-1.78683],[104.54418,-1.78601],[104.54384,-1.78425],[104.54409,-1.78574],[104.54335,-1.78683]],[[104.50399,-1.80904],[104.50311,-1.80458]]]}},{"id":"7","type":"Feature","properties":{"year":1990,"certainty":"insufficient data"},"geometry":{"type":"MultiLineString","coordinates":[[[104.60638,-1.96317],[104.61596,-1.95521]],[[104.46364,-1.91884],[104.46459,-1.91233]],[[104.65048,-1.96525],[104.6459,-1.9675]],[[104.64556,-1.96775],[104.6432,-1.96882]],[[104.64315,-1.96883],[104.64158,-1.96955]],[[104.64141,-1.96964],[104.64131,-1.96971]],[[104.63733,-1.97263],[104.63107,-1.97806]],[[104.63106,-1.97807],[104.63055,-1.9786]],[[104.63052,-1.97864],[104.63032,-1.97887]],[[104.62971,-1.98102],[104.63119,-1.98314]],[[104.61177,-1.98613],[104.6171,-1.98077]],[[104.61687,-1.97697],[104.61489,-1.96991]],[[104.6138,-1.96867],[104.60719,-1.96504]],[[104.63065,-1.98428],[104.62229,-1.99461]],[[104.61999,-1.99692],[104.61976,-1.99705]],[[104.61887,-1.99787],[104.6035,-2.01048]],[[104.57548,-1.99932],[104.58411,-2.00123]],[[104.58843,-2.00213],[104.61087,-1.98769]],[[104.57846,-2.0083],[104.57282,-2.00247]],[[104.60328,-2.01075],[104.59787,-2.00822]],[[104.58835,-2.00763],[104.58144,-2.00858]]]}},{"id":"8","type":"Feature","properties":{"year":1990,"certainty":"unstable data"},"geometry":{"type":"MultiLineString","coordinates":[[[104.46731,-1.86321],[104.46951,-1.86076]],[[104.5332,-1.88792],[104.53073,-1.89376]],[[104.53042,-1.89417],[104.53019,-1.89441]],[[104.52997,-1.89471],[104.52965,-1.89514]],[[104.52962,-1.89525],[104.52799,-1.90014]],[[104.52645,-1.90583],[104.52587,-1.90809]],[[104.47051,-1.90528],[104.47651,-1.90043]],[[104.47668,-1.90012],[104.47678,-1.89991]],[[104.47692,-1.89958],[104.47705,-1.89929]],[[104.47712,-1.89904],[104.47732,-1.89859]],[[104.46463,-1.92346],[104.4646,-1.92291]],[[104.46448,-1.92237],[104.4644,-1.9221]],[[104.46437,-1.92202],[104.46416,-1.92156]],[[104.46413,-1.92129],[104.46369,-1.91939]],[[104.49698,-1.94803],[104.49617,-1.94029]],[[104.49616,-1.93948],[104.49619,-1.93924]],[[104.4962,-1.93894],[104.49636,-1.93758]],[[104.49649,-1.93677],[104.49551,-1.92862]],[[104.49539,-1.92836],[104.49385,-1.92428]],[[104.49377,-1.9241],[104.49357,-1.92374]],[[104.4935,-1.92365],[104.49323,-1.9232]],[[104.49323,-1.92319],[104.4928,-1.92265]],[[104.49269,-1.92251],[104.48163,-1.91223]],[[104.48109,-1.9121],[104.48029,-1.91212]],[[104.48002,-1.91231],[104.4757,-1.91351]],[[104.52166,-1.9266],[104.52041,-1.92619]],[[104.5202,-1.92607],[104.5198,-1.92592]],[[104.51947,-1.92592],[104.5167,-1.92535]],[[104.50363,-1.93595],[104.50348,-1.93608]],[[104.50337,-1.93623],[104.50085,-1.94722]]]}},{"id":"9","type":"Feature","properties":{"year":1990,"certainty":"good"},"geometry":{"type":"MultiLineString","coordinates":[[[104.48345,-1.83214],[104.50399,-1.80907]],[[104.47262,-1.85045],[104.48295,-1.83268]],[[104.46709,-1.86334],[104.46731,-1.86321]],[[104.46951,-1.86076],[104.47181,-1.85146]],[[104.61596,-1.95521],[104.64447,-1.92201],[104.59588,-1.87195],[104.54895,-1.85386],[104.5332,-1.88792]],[[104.53073,-1.89376],[104.53042,-1.89417]],[[104.53019,-1.89441],[104.52997,-1.89471]],[[104.52965,-1.89514],[104.52962,-1.89525]],[[104.52799,-1.90014],[104.52645,-1.90583]],[[104.52587,-1.90809],[104.52709,-1.91142]],[[104.47249,-1.8704],[104.46803,-1.86556]],[[104.47422,-1.88743],[104.47342,-1.87123]],[[104.46262,-1.90746],[104.47051,-1.90528]],[[104.47651,-1.90043],[104.47668,-1.90012]],[[104.47678,-1.89991],[104.47692,-1.89958]],[[104.47705,-1.89929],[104.47712,-1.89904]],[[104.47732,-1.89859],[104.47449,-1.88814]],[[104.46455,-1.92604],[104.46463,-1.92346]],[[104.4646,-1.92291],[104.46448,-1.92237]],[[104.4644,-1.9221],[104.46437,-1.92202]],[[104.46416,-1.92156],[104.46413,-1.92129]],[[104.46369,-1.91939],[104.46364,-1.91884]],[[104.46459,-1.91233],[104.46289,-1.90984]],[[104.52729,-1.91167],[104.52223,-1.92542]],[[104.49617,-1.94029],[104.49616,-1.93948]],[[104.49619,-1.93924],[104.4962,-1.93894]],[[104.49636,-1.93758],[104.49649,-1.93677]],[[104.49551,-1.92862],[104.49539,-1.92836]],[[104.49385,-1.92428],[104.49377,-1.9241]],[[104.49357,-1.92374],[104.4935,-1.92365]],[[104.49323,-1.9232],[104.49323,-1.92319]],[[104.4928,-1.92265],[104.49269,-1.92251]],[[104.48163,-1.91223],[104.48109,-1.9121]],[[104.48029,-1.91212],[104.48002,-1.91231]],[[104.4757,-1.91351],[104.46831,-1.92631]],[[104.52041,-1.92619],[104.5202,-1.92607]],[[104.5198,-1.92592],[104.51947,-1.92592]],[[104.5167,-1.92535],[104.50363,-1.93595]],[[104.50348,-1.93608],[104.50337,-1.93623]],[[104.65373,-1.96334],[104.65048,-1.96525]],[[104.6459,-1.9675],[104.64556,-1.96775]],[[104.6432,-1.96882],[104.64315,-1.96883]],[[104.64158,-1.96955],[104.64141,-1.96964]],[[104.64131,-1.96971],[104.63733,-1.97263]],[[104.63107,-1.97806],[104.63106,-1.97807]],[[104.63055,-1.9786],[104.63052,-1.97864]],[[104.63032,-1.97887],[104.62971,-1.98102]],[[104.6171,-1.98077],[104.61687,-1.97697]],[[104.61489,-1.96991],[104.6138,-1.96867]],[[104.62229,-1.99461],[104.61999,-1.99692]],[[104.61976,-1.99705],[104.61887,-1.99787]],[[104.57184,-1.99856],[104.57548,-1.99932]],[[104.58411,-2.00123],[104.58843,-2.00213]],[[104.57282,-2.00247],[104.57103,-2.00162]],[[104.59787,-2.00822],[104.58835,-2.00763]]]}},{"id":"25","type":"Feature","properties":{"year":1995,"certainty":"good"},"geometry":{"type":"MultiLineString","coordinates":[[[104.48348,-1.83214],[104.50389,-1.80907]],[[104.47262,-1.85053],[104.48304,-1.83268]],[[104.46722,-1.8634],[104.4719,-1.8514]],[[104.60638,-1.96321],[104.61892,-1.95346]],[[104.62023,-1.95227],[104.62027,-1.95221]],[[104.62043,-1.952],[104.64235,-1.91821],[104.55709,-1.85536]],[[104.55475,-1.85415],[104.53973,-1.86296]],[[104.53883,-1.87442],[104.53266,-1.88955]],[[104.53111,-1.89308],[104.531,-1.89319]],[[104.53089,-1.89335],[104.53073,-1.8936]],[[104.53057,-1.89389],[104.53046,-1.89405]],[[104.5304,-1.89417],[104.53019,-1.8944]],[[104.52942,-1.89634],[104.52938,-1.89652]],[[104.52934,-1.89661],[104.52911,-1.89721]],[[104.52809,-1.89986],[104.52644,-1.90475]],[[104.52623,-1.90556],[104.52344,-1.91261]],[[104.52452,-1.91397],[104.52115,-1.92076]],[[104.47252,-1.8704],[104.46803,-1.86524]],[[104.47422,-1.88735],[104.4749,-1.88714]],[[104.475,-1.88709],[104.47517,-1.88704]],[[104.47625,-1.88651],[104.47333,-1.87094]],[[104.46815,-1.90607],[104.47085,-1.90509]],[[104.47624,-1.90094],[104.47624,-1.90093]],[[104.47651,-1.90045],[104.47669,-1.90012]],[[104.47678,-1.89996],[104.47879,-1.89306]],[[104.47463,-1.88808],[104.47449,-1.88811]],[[104.4639,-1.9202],[104.46381,-1.91966]],[[104.46372,-1.91884],[104.46356,-1.91824]],[[104.46356,-1.91802],[104.46358,-1.91749]],[[104.46362,-1.9164],[104.46439,-1.91369]],[[104.497,-1.94803],[104.49683,-1.93297]],[[104.49282,-1.92238],[104.49247,-1.92157]],[[104.48541,-1.91315],[104.4846,-1.91281]],[[104.47337,-1.9126],[104.47078,-1.91505]],[[104.46924,-1.92047],[104.4689,-1.92237]],[[104.51859,-1.9258],[104.51589,-1.92527]],[[104.50806,-1.9287],[104.50076,-1.94722]],[[104.65373,-1.96299],[104.6343,-1.97486]],[[104.63107,-1.97806],[104.63119,-1.98309]],[[104.61177,-1.98608],[104.60719,-1.96498]],[[104.63065,-1.98414],[104.62269,-1.99415]],[[104.61881,-1.99787],[104.60351,-2.01048]],[[104.57157,-1.99925],[104.5825,-2.00092]],[[104.59113,-2.00219],[104.61096,-1.98768]],[[104.58215,-2.00206],[104.58223,-2.00202]],[[104.58223,-2.00187],[104.58215,-2.00206]],[[104.57853,-2.00831],[104.57103,-2.00158]],[[104.60331,-2.01075],[104.58357,-2.00559]],[[104.5833,-2.00551],[104.58319,-2.00546]],[[104.58284,-2.00546],[104.58141,-2.00858]]]}},{"id":"26","type":"Feature","properties":{"year":1995,"certainty":"insufficient data"},"geometry":{"type":"MultiLineString","coordinates":[[[104.61892,-1.95346],[104.62023,-1.95227]],[[104.62027,-1.95221],[104.62043,-1.952]],[[104.55709,-1.85536],[104.55475,-1.85415]],[[104.53973,-1.86296],[104.53883,-1.87442]],[[104.53266,-1.88955],[104.53111,-1.89308]],[[104.531,-1.89319],[104.53089,-1.89335]],[[104.53073,-1.8936],[104.53057,-1.89389]],[[104.53046,-1.89405],[104.5304,-1.89417]],[[104.53019,-1.8944],[104.52942,-1.89634]],[[104.52938,-1.89652],[104.52934,-1.89661]],[[104.52911,-1.89721],[104.52809,-1.89986]],[[104.52644,-1.90475],[104.52623,-1.90556]],[[104.52344,-1.91261],[104.52452,-1.91397]],[[104.52115,-1.92076],[104.52223,-1.92541]],[[104.4749,-1.88714],[104.475,-1.88709]],[[104.47517,-1.88704],[104.47625,-1.88651]],[[104.46262,-1.90747],[104.46815,-1.90607]],[[104.47085,-1.90509],[104.47624,-1.90094]],[[104.47624,-1.90093],[104.47651,-1.90045]],[[104.47669,-1.90012],[104.47678,-1.89996]],[[104.47879,-1.89306],[104.47463,-1.88808]],[[104.46464,-1.92604],[104.4639,-1.9202]],[[104.46381,-1.91966],[104.46372,-1.91884]],[[104.46356,-1.91824],[104.46356,-1.91802]],[[104.46358,-1.91749],[104.46362,-1.9164]],[[104.46439,-1.91369],[104.46289,-1.9098]],[[104.49683,-1.93297],[104.49282,-1.92238]],[[104.49247,-1.92157],[104.48541,-1.91315]],[[104.4846,-1.91281],[104.47337,-1.9126]],[[104.47078,-1.91505],[104.46924,-1.92047]],[[104.4689,-1.92237],[104.46839,-1.92631]],[[104.52169,-1.92643],[104.51859,-1.9258]],[[104.51589,-1.92527],[104.50806,-1.9287]],[[104.6343,-1.97486],[104.63107,-1.97806]],[[104.62269,-1.99415],[104.61881,-1.99787]],[[104.5825,-2.00092],[104.59113,-2.00219]],[[104.58223,-2.00202],[104.58223,-2.00187]],[[104.58357,-2.00559],[104.5833,-2.00551]],[[104.58319,-2.00546],[104.58284,-2.00546]]]}},{"id":"27","type":"Feature","properties":{"year":1995,"certainty":"good"},"geometry":{"type":"MultiLineString","coordinates":[[[104.52147,-1.71486],[104.4703,-1.62206],[104.44148,-1.51567],[104.45655,-1.35669]],[[104.44035,-1.48307],[104.44033,-1.4831]],[[104.4548,-1.56316],[104.45473,-1.56262],[104.45463,-1.56234],[104.45452,-1.56289],[104.4548,-1.56316]],[[104.50473,-1.80328],[104.54573,-1.78551],[104.52194,-1.71544]],[[104.50383,-1.80904],[104.50311,-1.80453]]]}},{"id":"43","type":"Feature","properties":{"year":2000,"certainty":"good"},"geometry":{"type":"MultiLineString","coordinates":[[[104.52147,-1.71486],[104.4684,-1.62044],[104.43954,-1.51295],[104.45629,-1.35669]],[[104.50473,-1.80327],[104.54465,-1.78384],[104.52174,-1.71542]],[[104.50381,-1.80904],[104.50311,-1.80456]]]}},{"id":"44","type":"Feature","properties":{"year":2000,"certainty":"good"},"geometry":{"type":"MultiLineString","coordinates":[[[104.48352,-1.83214],[104.5038,-1.80907]],[[104.47262,-1.85037],[104.48305,-1.83268]],[[104.46722,-1.86341],[104.47181,-1.85141]],[[104.60638,-1.96311],[104.64303,-1.93368],[104.61845,-1.89527]],[[104.60794,-1.88577],[104.60552,-1.8836]],[[104.60222,-1.88063],[104.60219,-1.88061]],[[104.60195,-1.88044],[104.6006,-1.87925]],[[104.59736,-1.87674],[104.56014,-1.8573]],[[104.54881,-1.85451],[104.54866,-1.85454]],[[104.54855,-1.85458],[104.53993,-1.86106]],[[104.54072,-1.86646],[104.54057,-1.86838]],[[104.5256,-1.91284],[104.52579,-1.91262]],[[104.47247,-1.8704],[104.46803,-1.86531]],[[104.47422,-1.88744],[104.4733,-1.87094]],[[104.46356,-1.90697],[104.47449,-1.8881]],[[104.46466,-1.92291],[104.46468,-1.92264]],[[104.49706,-1.94803],[104.48689,-1.91427],[104.46821,-1.92604]],[[104.52587,-1.91305],[104.52524,-1.91398]],[[104.52384,-1.91506],[104.52369,-1.91533]],[[104.52098,-1.92157],[104.52074,-1.9232]],[[104.50634,-1.92998],[104.50591,-1.93082]],[[104.50564,-1.93156],[104.50564,-1.93184]],[[104.50563,-1.93188],[104.50085,-1.94722]],[[104.61177,-1.9861],[104.61599,-1.98565]],[[104.61677,-1.97805],[104.60719,-1.96507]],[[104.65373,-1.96417],[104.63572,-1.97344]],[[104.63137,-1.97778],[104.63133,-1.97784]],[[104.63109,-1.97806],[104.6302,-1.98186]],[[104.6257,-1.98972],[104.62511,-1.99081]],[[104.62446,-1.99217],[104.62431,-1.99229]],[[104.62418,-1.99244],[104.62342,-1.99325]],[[104.62089,-1.99597],[104.61136,-2.00546]],[[104.61135,-2.00546],[104.61109,-2.00558]],[[104.61087,-2.00573],[104.61082,-2.00578]],[[104.60327,-2.008],[104.60355,-2.01048]],[[104.57683,-1.99988],[104.5771,-1.99988]],[[104.61136,-1.99172],[104.61096,-1.98761]],[[104.57184,-1.9986],[104.57454,-1.9997]],[[104.57494,-2.00376],[104.57423,-2.00328]],[[104.57239,-2.00138],[104.57103,-2.0016]],[[104.60333,-2.01075],[104.59275,-2.00822]],[[104.58142,-2.00817],[104.58138,-2.00844]]]}},{"id":"45","type":"Feature","properties":{"year":2000,"certainty":"insufficient data"},"geometry":{"type":"MultiLineString","coordinates":[[[104.61845,-1.89527],[104.60794,-1.88577]],[[104.60552,-1.8836],[104.60222,-1.88063]],[[104.60219,-1.88061],[104.60195,-1.88044]],[[104.6006,-1.87925],[104.59736,-1.87674]],[[104.56014,-1.8573],[104.54881,-1.85451]],[[104.54866,-1.85454],[104.54855,-1.85458]],[[104.53993,-1.86106],[104.54072,-1.86646]],[[104.54057,-1.86838],[104.5256,-1.91284]],[[104.52579,-1.91262],[104.52709,-1.91138]],[[104.46257,-1.90731],[104.46356,-1.90697]],[[104.46459,-1.92604],[104.46466,-1.92291]],[[104.46468,-1.92264],[104.46289,-1.90964]],[[104.52711,-1.91167],[104.52587,-1.91305]],[[104.52524,-1.91398],[104.52384,-1.91506]],[[104.52369,-1.91533],[104.52098,-1.92157]],[[104.52074,-1.9232],[104.52223,-1.92532]],[[104.52169,-1.92649],[104.50634,-1.92998]],[[104.50591,-1.93082],[104.50564,-1.93156]],[[104.50564,-1.93184],[104.50563,-1.93188]],[[104.61599,-1.98565],[104.61677,-1.97805]],[[104.63572,-1.97344],[104.63137,-1.97778]],[[104.63133,-1.97784],[104.63109,-1.97806]],[[104.6302,-1.98186],[104.63119,-1.98314]],[[104.63065,-1.9842],[104.6257,-1.98972]],[[104.62511,-1.99081],[104.62446,-1.99217]],[[104.62431,-1.99229],[104.62418,-1.99244]],[[104.62342,-1.99325],[104.62089,-1.99597]],[[104.61136,-2.00546],[104.61135,-2.00546]],[[104.61109,-2.00558],[104.61087,-2.00573]],[[104.61082,-2.00578],[104.60327,-2.008]],[[104.57553,-1.99962],[104.57683,-1.99988]],[[104.5771,-1.99988],[104.61136,-1.99172]],[[104.6102,-2.00017],[104.61187,-1.99746],[104.61069,-1.99568],[104.60891,-1.9999],[104.6102,-2.00017]],[[104.57535,-2.00077],[104.57589,-2.00035]],[[104.57405,-2.00125],[104.57454,-2.00099],[104.57454,-2.00092],[104.57427,-2.00073],[104.57405,-2.00125]],[[104.57843,-2.0083],[104.57494,-2.00376]],[[104.57423,-2.00328],[104.57239,-2.00138]],[[104.57629,-2.0026],[104.57634,-2.00206],[104.57535,-2.00165],[104.57562,-2.00284],[104.57629,-2.0026]],[[104.57616,-2.00342],[104.57644,-2.00315],[104.57643,-2.00305],[104.57543,-2.00315],[104.57616,-2.00342]],[[104.59275,-2.00822],[104.58142,-2.00817]],[[104.58138,-2.00844],[104.58134,-2.00858]]]}},{"id":"56","type":"Feature","properties":{"year":2005,"certainty":"unstable data"},"geometry":{"type":"MultiLineString","coordinates":[[[104.64309,-1.92052],[104.64159,-1.91868]],[[104.63593,-1.91266],[104.63465,-1.91156]],[[104.62831,-1.90505],[104.62788,-1.9045]],[[104.62784,-1.90447],[104.62568,-1.90253]]]}},{"id":"57","type":"Feature","properties":{"year":2005,"certainty":"good"},"geometry":{"type":"MultiLineString","coordinates":[[[104.62788,-1.9045],[104.62784,-1.90447]],[[104.60951,-1.88713],[104.6095,-1.88712]],[[104.609,-1.88659],[104.60842,-1.88625]],[[104.60815,-1.88567],[104.60815,-1.88557]],[[104.60808,-1.8855],[104.60788,-1.88546]],[[104.47617,-1.90093],[104.47786,-1.89645]]]}},{"id":"58","type":"Feature","properties":{"year":2005,"certainty":"insufficient data"},"geometry":{"type":"MultiLineString","coordinates":[[[104.48348,-1.83214],[104.50388,-1.80907]],[[104.47262,-1.85066],[104.483,-1.83268]],[[104.46722,-1.86341],[104.47186,-1.8514]],[[104.60766,-1.96299],[104.6091,-1.95973],[104.61257,-1.9562],[104.62124,-1.95105],[104.62662,-1.9398],[104.63579,-1.93531],[104.64199,-1.93609],[104.64309,-1.92052]],[[104.64159,-1.91868],[104.63593,-1.91266]],[[104.63465,-1.91156],[104.62831,-1.90505]],[[104.62568,-1.90253],[104.60951,-1.88713]],[[104.6095,-1.88712],[104.609,-1.88659]],[[104.60842,-1.88625],[104.60815,-1.88567]],[[104.60815,-1.88557],[104.60808,-1.8855]],[[104.60788,-1.88546],[104.58179,-1.86554],[104.58339,-1.86365],[104.57771,-1.85984],[104.56001,-1.85648],[104.55748,-1.85224],[104.55125,-1.85197],[104.52358,-1.91245]],[[104.56084,-1.85224],[104.56055,-1.85192],[104.55989,-1.85197],[104.56028,-1.85235],[104.56084,-1.85224]],[[104.55499,-1.85251],[104.55568,-1.85278]],[[104.56763,-1.85713],[104.56763,-1.85686],[104.56783,-1.8563],[104.56708,-1.85658],[104.56763,-1.85713]],[[104.58075,-1.86283],[104.58186,-1.86379]],[[104.58568,-1.86473],[104.58536,-1.86469],[104.58424,-1.86392],[104.58455,-1.86454],[104.58536,-1.86479],[104.58568,-1.86473]],[[104.47257,-1.8704],[104.46803,-1.86538]],[[104.47422,-1.88745],[104.47323,-1.87094]],[[104.46262,-1.90746],[104.47617,-1.90093]],[[104.47786,-1.89645],[104.47449,-1.88812]],[[104.46472,-1.92604],[104.46289,-1.90971]],[[104.47252,-1.91274],[104.4737,-1.91193],[104.47368,-1.9113],[104.47178,-1.91274],[104.47252,-1.91274]],[[104.49708,-1.94803],[104.4877,-1.91432],[104.46774,-1.92616]],[[104.5225,-1.91731],[104.52213,-1.92551]],[[104.46564,-1.92359],[104.46531,-1.92313],[104.46489,-1.92332],[104.46531,-1.92381],[104.46564,-1.92359]],[[104.52169,-1.92645],[104.50073,-1.94722]],[[104.63149,-1.93884],[104.63093,-1.93849],[104.63085,-1.93857],[104.6312,-1.93887],[104.63149,-1.93884]],[[104.61177,-1.98619],[104.60783,-1.96326]],[[104.65373,-1.96296],[104.63119,-1.98325]],[[104.63065,-1.98416],[104.62776,-1.9847]],[[104.62766,-1.98525],[104.62139,-1.99556]],[[104.61234,-1.99094],[104.61089,-1.98769]],[[104.61488,-1.98986],[104.61527,-1.98962],[104.61527,-1.98953],[104.615,-1.98947],[104.61473,-1.99004],[104.61488,-1.98986]],[[104.57346,-1.99891],[104.61042,-1.99429]],[[104.62094,-1.99614],[104.60349,-2.01048]],[[104.57481,-2.00226],[104.57481,-2.00187]],[[104.57887,-2.00613],[104.57562,-2.00447]],[[104.60325,-2.01075],[104.58139,-2.00858]]]}},{"id":"59","type":"Feature","properties":{"year":2005,"certainty":"insufficient data"},"geometry":{"type":"MultiLineString","coordinates":[[[104.5033,-1.68083],[104.49669,-1.67242]],[[104.46747,-1.61107],[104.46581,-1.60512]],[[104.44237,-1.48663],[104.44225,-1.48568]],[[104.45182,-1.4499],[104.45155,-1.44949]],[[104.45155,-1.44929],[104.45155,-1.44892]],[[104.45155,-1.4489],[104.45182,-1.448]],[[104.45175,-1.44334],[104.45182,-1.44309]],[[104.45186,-1.4428],[104.45275,-1.43818]],[[104.4529,-1.43737],[104.45759,-1.4295]],[[104.45803,-1.42174],[104.45727,-1.40914]],[[104.457,-1.40589],[104.45447,-1.39639]],[[104.45376,-1.39476],[104.45623,-1.35669]],[[104.50473,-1.80327],[104.53049,-1.7992]],[[104.53103,-1.79847],[104.53806,-1.7894]],[[104.53837,-1.78913],[104.53858,-1.78892]],[[104.53863,-1.78886],[104.54533,-1.78513]],[[104.54466,-1.77936],[104.5448,-1.77421]],[[104.54473,-1.77231],[104.54353,-1.76932]],[[104.54131,-1.75276],[104.53795,-1.73974]],[[104.50398,-1.80904],[104.50311,-1.80458]]]}},{"id":"74","type":"Feature","properties":{"year":2010,"certainty":"good"},"geometry":{"type":"MultiLineString","coordinates":[[[104.48341,-1.83221],[104.50383,-1.80907]],[[104.47262,-1.85051],[104.4831,-1.83268]],[[104.46722,-1.86355],[104.46773,-1.86321]],[[104.47332,-1.8529],[104.47181,-1.85146]],[[104.62297,-1.94409],[104.62531,-1.9406]],[[104.63511,-1.93468],[104.6335,-1.91137]],[[104.62919,-1.90687],[104.62514,-1.90255]],[[104.62082,-1.89853],[104.61975,-1.89757]],[[104.47194,-1.86524],[104.46803,-1.86535]],[[104.47858,-1.88167],[104.47706,-1.87111]],[[104.65373,-1.96438],[104.65291,-1.9647]],[[104.65281,-1.96476],[104.65264,-1.9649]]]}},{"id":"75","type":"Feature","properties":{"year":2010,"certainty":"insufficient data"},"geometry":{"type":"MultiLineString","coordinates":[[[104.55542,-1.85085],[104.53943,-1.8734]],[[104.46773,-1.86321],[104.47332,-1.8529]],[[104.57592,-1.8606],[104.56729,-1.85625]],[[104.61679,-1.97412],[104.607,-1.96434],[104.62297,-1.94409]],[[104.62531,-1.9406],[104.63511,-1.93468]],[[104.6335,-1.91137],[104.62919,-1.90687]],[[104.62514,-1.90255],[104.62082,-1.89853]],[[104.61975,-1.89757],[104.57808,-1.86162]],[[104.47277,-1.8704],[104.47194,-1.86524]],[[104.47422,-1.88741],[104.47858,-1.88167]],[[104.47706,-1.87111],[104.4732,-1.87094]],[[104.46289,-1.90799],[104.47449,-1.8881]],[[104.52998,-1.89484],[104.53006,-1.89659]],[[104.52838,-1.89946],[104.52728,-1.90244]],[[104.52223,-1.90245],[104.51976,-1.90434]],[[104.47624,-1.90596],[104.47611,-1.90568],[104.47584,-1.90541],[104.47557,-1.90541],[104.47624,-1.90596]],[[104.47208,-1.90677],[104.47071,-1.90585],[104.47045,-1.90595],[104.47098,-1.90661],[104.47208,-1.90677]],[[104.4675,-1.90785],[104.46704,-1.90758],[104.46667,-1.90753],[104.46667,-1.90778],[104.4675,-1.90785]],[[104.50159,-1.93717],[104.4877,-1.91447],[104.47287,-1.91301],[104.46693,-1.92152],[104.46396,-1.91994],[104.46289,-1.90968]],[[104.4734,-1.9122],[104.47386,-1.91165],[104.47341,-1.91136],[104.47264,-1.91193],[104.4734,-1.9122]],[[104.52412,-1.91143],[104.52223,-1.92547]],[[104.46559,-1.91491],[104.46532,-1.91464],[104.46531,-1.91389],[104.46507,-1.91409],[104.4653,-1.91464],[104.46559,-1.91491]],[[104.46475,-1.91572],[104.46483,-1.91545],[104.46477,-1.91516],[104.46448,-1.91572],[104.46475,-1.91572]],[[104.46643,-1.91762],[104.46673,-1.91735],[104.46597,-1.91735],[104.46612,-1.91738],[104.46643,-1.91762]],[[104.4645,-1.92195],[104.46418,-1.92088],[104.46477,-1.9204],[104.46547,-1.92115],[104.4645,-1.92195]],[[104.46801,-1.92218],[104.46734,-1.92197],[104.46747,-1.92119],[104.46836,-1.92142],[104.46801,-1.92218]],[[104.52163,-1.9266],[104.51629,-1.92524]],[[104.51225,-1.92657],[104.50287,-1.93718]],[[104.50354,-1.92822],[104.50469,-1.92756]],[[104.65291,-1.9647],[104.65281,-1.96476]],[[104.65264,-1.9649],[104.63906,-1.97114]],[[104.62742,-1.97429],[104.62721,-1.97683]],[[104.62964,-1.98009],[104.63119,-1.9832]],[[104.63065,-1.98429],[104.6262,-1.9885]]]}},{"id":"76","type":"Feature","properties":{"year":2010,"certainty":"good"},"geometry":{"type":"MultiLineString","coordinates":[[[104.52248,-1.71449],[104.50813,-1.68663]],[[104.50166,-1.68125],[104.47729,-1.64011]],[[104.47525,-1.63604],[104.47282,-1.63034]],[[104.46982,-1.62383],[104.45889,-1.59261]],[[104.45474,-1.57606],[104.44749,-1.53724]],[[104.44351,-1.52937],[104.44075,-1.51773]],[[104.43921,-1.48975],[104.43944,-1.48676]],[[104.44239,-1.47102],[104.44884,-1.45094]],[[104.44996,-1.44768],[104.45683,-1.42977]],[[104.45708,-1.42597],[104.4573,-1.42326]],[[104.45714,-1.41647],[104.4569,-1.41349]],[[104.45681,-1.41294],[104.45672,-1.41213]],[[104.45658,-1.40724],[104.45645,-1.40697]],[[104.456,-1.40426],[104.45621,-1.35669]],[[104.50473,-1.80335],[104.54387,-1.78411],[104.52323,-1.71622]],[[104.50384,-1.80904],[104.50311,-1.80456]]]}},{"id":"89","type":"Feature","properties":{"year":2015,"certainty":"good"},"geometry":{"type":"MultiLineString","coordinates":[[[104.48348,-1.83214],[104.50395,-1.80907]],[[104.47262,-1.85049],[104.47922,-1.85154]],[[104.47923,-1.85154],[104.47949,-1.85141]],[[104.47978,-1.85127],[104.48003,-1.85101]],[[104.48004,-1.851],[104.48308,-1.83268]],[[104.46722,-1.86348],[104.47181,-1.85142]],[[104.60642,-1.96326],[104.61326,-1.95743]],[[104.6137,-1.95715],[104.6138,-1.95702]],[[104.61394,-1.95688],[104.61434,-1.95661]],[[104.61435,-1.95661],[104.64345,-1.92201],[104.5568,-1.85482]],[[104.54947,-1.85427],[104.54063,-1.86811]],[[104.53619,-1.87951],[104.52666,-1.90475]],[[104.52656,-1.90638],[104.52641,-1.90704]],[[104.52574,-1.90855],[104.5256,-1.90872]],[[104.52554,-1.90882],[104.52709,-1.91136]],[[104.47256,-1.8704],[104.46803,-1.86531]],[[104.47422,-1.88744],[104.47327,-1.87094]],[[104.46262,-1.90746],[104.47449,-1.88801]],[[104.46424,-1.92129],[104.46289,-1.90968]],[[104.47303,-1.91193],[104.47348,-1.91138],[104.47341,-1.91115],[104.47265,-1.91165],[104.47303,-1.91193]],[[104.5272,-1.91167],[104.52223,-1.92547]],[[104.49626,-1.94165],[104.49624,-1.94111]],[[104.49539,-1.92818],[104.48285,-1.91235],[104.46919,-1.92047]],[[104.52169,-1.92659],[104.5057,-1.9327]],[[104.50074,-1.94247],[104.50073,-1.94274]],[[104.65373,-1.96303],[104.63942,-1.97029]],[[104.63903,-1.97073],[104.63888,-1.97107]],[[104.63879,-1.97127],[104.63861,-1.97155]],[[104.63837,-1.97181],[104.63834,-1.97184]],[[104.63827,-1.97209],[104.6378,-1.97253]],[[104.61177,-1.98626],[104.61352,-1.98705]],[[104.61716,-1.98294],[104.61704,-1.98022]],[[104.61377,-1.96828],[104.60719,-1.965]],[[104.62629,-1.9881],[104.6258,-1.98972]],[[104.61712,-2.00058],[104.61703,-2.00065]],[[104.61217,-2.00517],[104.60785,-2.0073]],[[104.60327,-2.01029],[104.60346,-2.01048]],[[104.59625,-2.00207],[104.59868,-2.00202]],[[104.59927,-2.00193],[104.59949,-2.00192]],[[104.61244,-1.98882],[104.61096,-1.98762]],[[104.6034,-2.01075],[104.603,-2.01041]]]}},{"id":"90","type":"Feature","properties":{"year":2015,"certainty":"good"},"geometry":{"type":"MultiLineString","coordinates":[[[104.52147,-1.71479],[104.46592,-1.61555],[104.43873,-1.51203],[104.44103,-1.47913]],[[104.44126,-1.47889],[104.4413,-1.47874]],[[104.44211,-1.47418],[104.45371,-1.43953]],[[104.45389,-1.43954],[104.45398,-1.43961]],[[104.45393,-1.43927],[104.45398,-1.43907]],[[104.45641,-1.4333],[104.45641,-1.43327]],[[104.45663,-1.43248],[104.45668,-1.43233]],[[104.45677,-1.43194],[104.45087,-1.38648],[104.45405,-1.37956]],[[104.45628,-1.36083],[104.45728,-1.35669]],[[104.45257,-1.38512],[104.45342,-1.38431],[104.45332,-1.38403],[104.45264,-1.38431],[104.45257,-1.38512]],[[104.43951,-1.51078],[104.43954,-1.51051],[104.43896,-1.51078],[104.43927,-1.51091],[104.43951,-1.51078]],[[104.45372,-1.56534],[104.45382,-1.56503],[104.45315,-1.56534],[104.45328,-1.56549],[104.45372,-1.56534]],[[104.50473,-1.80331],[104.54457,-1.78221],[104.52201,-1.7155]],[[104.50394,-1.80904],[104.50311,-1.8045]]]}},{"id":"91","type":"Feature","properties":{"year":2015,"certainty":"unstable data"},"geometry":{"type":"MultiLineString","coordinates":[[[104.47922,-1.85154],[104.47923,-1.85154]],[[104.47949,-1.85141],[104.47978,-1.85127]],[[104.48003,-1.85101],[104.48004,-1.851]],[[104.61326,-1.95743],[104.6137,-1.95715]],[[104.6138,-1.95702],[104.61394,-1.95688]],[[104.61434,-1.95661],[104.61435,-1.95661]],[[104.5568,-1.85482],[104.54947,-1.85427]],[[104.52666,-1.90475],[104.52656,-1.90638]],[[104.52641,-1.90704],[104.52574,-1.90855]],[[104.5256,-1.90872],[104.52554,-1.90882]]]}},{"id":"92","type":"Feature","properties":{"year":2015,"certainty":"insufficient data"},"geometry":{"type":"MultiLineString","coordinates":[[[104.54063,-1.86811],[104.53619,-1.87951]],[[104.46477,-1.92186],[104.46424,-1.92129]],[[104.497,-1.94803],[104.49626,-1.94165]],[[104.49624,-1.94111],[104.49539,-1.92818]],[[104.46919,-1.92047],[104.46829,-1.92631]],[[104.46778,-1.92197],[104.46787,-1.92169],[104.46754,-1.92142],[104.46715,-1.92142],[104.46778,-1.92197]],[[104.46475,-1.92604],[104.46513,-1.92197]],[[104.5057,-1.9327],[104.50074,-1.94247]],[[104.50073,-1.94274],[104.50089,-1.94722]],[[104.63942,-1.97029],[104.63903,-1.97073]],[[104.63888,-1.97107],[104.63879,-1.97127]],[[104.63861,-1.97155],[104.63837,-1.97181]],[[104.63834,-1.97184],[104.63827,-1.97209]],[[104.6378,-1.97253],[104.63119,-1.98314]],[[104.61352,-1.98705],[104.61716,-1.98294]],[[104.61704,-1.98022],[104.61377,-1.96828]],[[104.63065,-1.98427],[104.62629,-1.9881]],[[104.6258,-1.98972],[104.61712,-2.00058]],[[104.61703,-2.00065],[104.61217,-2.00517]],[[104.60785,-2.0073],[104.60327,-2.01029]],[[104.57184,-1.99846],[104.59625,-2.00207]],[[104.59868,-2.00202],[104.59927,-2.00193]],[[104.59949,-2.00192],[104.61244,-1.98882]],[[104.57616,-2.00472],[104.57103,-2.00159]],[[104.603,-2.01041],[104.58143,-2.00858]],[[104.5937,-2.00614],[104.59315,-2.0053],[104.59288,-2.00517],[104.59281,-2.00532],[104.5937,-2.00614]],[[104.57962,-2.00858],[104.57859,-2.00559]]]}},{"id":"109","type":"Feature","properties":{"year":2020,"certainty":"good"},"geometry":{"type":"MultiLineString","coordinates":[[[104.48343,-1.83214],[104.50376,-1.80907]],[[104.47262,-1.85048],[104.48306,-1.83268]],[[104.46722,-1.86348],[104.47181,-1.85146]],[[104.60643,-1.96326],[104.64315,-1.92255],[104.55313,-1.8535]],[[104.54018,-1.86078],[104.53586,-1.88175]],[[104.53428,-1.88358],[104.53424,-1.88363]],[[104.53411,-1.88385],[104.53343,-1.8845]],[[104.53296,-1.88467],[104.52223,-1.92548]],[[104.47257,-1.8704],[104.46803,-1.86526]],[[104.47422,-1.88744],[104.47326,-1.87094]],[[104.46388,-1.9069],[104.47449,-1.88802]],[[104.46469,-1.92604],[104.46359,-1.91762],[104.46464,-1.91179]],[[104.46709,-1.91599],[104.46969,-1.91355],[104.47098,-1.91091],[104.46647,-1.91247],[104.46709,-1.91599]],[[104.49708,-1.94803],[104.48655,-1.91437],[104.46828,-1.92612]],[[104.46532,-1.91654],[104.46602,-1.91627],[104.46607,-1.91599],[104.46506,-1.91627],[104.46532,-1.91654]],[[104.46462,-1.92007],[104.46509,-1.91952],[104.4645,-1.91918],[104.46425,-1.91952],[104.46462,-1.92007]],[[104.52168,-1.9266],[104.50725,-1.92966]],[[104.50634,-1.93026],[104.50622,-1.93053]],[[104.5063,-1.9308],[104.50618,-1.93117]],[[104.50601,-1.93134],[104.50591,-1.93145]],[[104.50587,-1.93161],[104.50564,-1.93319]],[[104.50537,-1.93405],[104.50067,-1.94722]],[[104.50033,-1.93487],[104.50051,-1.93489]],[[104.61177,-1.98619],[104.60719,-1.96511]],[[104.65373,-1.96463],[104.62998,-1.97946]],[[104.62971,-1.98116],[104.62978,-1.98131]],[[104.62998,-1.98166],[104.63119,-1.98315]],[[104.63065,-1.98426],[104.61872,-1.99868]],[[104.61817,-1.99949],[104.61756,-2.00048]],[[104.61748,-2.00058],[104.6173,-2.00073]],[[104.61622,-2.0015],[104.616,-2.00166]],[[104.61224,-2.00519],[104.60357,-2.01048]],[[104.57103,-2.00024],[104.57117,-2.00044]],[[104.5744,-1.99912],[104.57521,-1.99923]],[[104.58411,-2.0012],[104.5941,-2.00221]],[[104.59895,-2.002],[104.61028,-1.99461]],[[104.61116,-1.99325],[104.61133,-1.99271]],[[104.58046,-2.00858],[104.58044,-2.00573]],[[104.57872,-2.00412],[104.5787,-2.0041]],[[104.57843,-2.0041],[104.57251,-2.00212]],[[104.60332,-2.01075],[104.59113,-2.00773]],[[104.59104,-2.00763],[104.59086,-2.00759]],[[104.5908,-2.00546],[104.58903,-2.00492]],[[104.58249,-2.00561],[104.58075,-2.00858]]]}},{"id":"110","type":"Feature","properties":{"year":2020,"certainty":"unstable data"},"geometry":{"type":"MultiLineString","coordinates":[[[104.55313,-1.8535],[104.54018,-1.86078]],[[104.53586,-1.88175],[104.53428,-1.88358]],[[104.53424,-1.88363],[104.53411,-1.88385]],[[104.53343,-1.8845],[104.53296,-1.88467]],[[104.49742,-1.91899],[104.49741,-1.91831],[104.49687,-1.9181],[104.49649,-1.91872],[104.49742,-1.91899]],[[104.50725,-1.92966],[104.50634,-1.93026]],[[104.50622,-1.93053],[104.5063,-1.9308]],[[104.50618,-1.93117],[104.50601,-1.93134]],[[104.50591,-1.93145],[104.50587,-1.93161]],[[104.50564,-1.93319],[104.50537,-1.93405]],[[104.62998,-1.97946],[104.62971,-1.98116]],[[104.62978,-1.98131],[104.62998,-1.98166]],[[104.58358,-2.00115],[104.58411,-2.0012]],[[104.59113,-2.00773],[104.59104,-2.00763]],[[104.59086,-2.00759],[104.5908,-2.00546]],[[104.58903,-2.00492],[104.58802,-2.00731],[104.58249,-2.00561]],[[104.58816,-2.00586],[104.58874,-2.00559],[104.5872,-2.00532],[104.58749,-2.00611],[104.58816,-2.00586]]]}},{"id":"111","type":"Feature","properties":{"year":2020,"certainty":"insufficient data"},"geometry":{"type":"MultiLineString","coordinates":[[[104.46262,-1.90749],[104.46388,-1.9069]],[[104.46464,-1.91179],[104.46289,-1.90963]],[[104.50175,-1.93283],[104.50129,-1.93202],[104.50087,-1.93202],[104.50065,-1.93267],[104.50175,-1.93283]],[[104.50075,-1.93473],[104.50033,-1.93487]],[[104.50051,-1.93489],[104.50075,-1.93473]],[[104.61872,-1.99868],[104.61817,-1.99949]],[[104.61756,-2.00048],[104.61748,-2.00058]],[[104.6173,-2.00073],[104.61622,-2.0015]],[[104.616,-2.00166],[104.61224,-2.00519]],[[104.57117,-2.00044],[104.5744,-1.99912]],[[104.57521,-1.99923],[104.58358,-2.00115]],[[104.5941,-2.00221],[104.59895,-2.002]],[[104.61028,-1.99461],[104.61116,-1.99325]],[[104.61133,-1.99271],[104.61096,-1.98768]],[[104.57682,-2.00125],[104.57751,-2.00112],[104.57852,-2.00043],[104.57697,-2.00028],[104.57682,-2.00125]],[[104.58044,-2.00573],[104.58317,-2.00169],[104.57956,-2.00125],[104.57983,-2.00315],[104.57872,-2.00412]],[[104.5787,-2.0041],[104.57843,-2.0041]],[[104.57251,-2.00212],[104.57103,-2.0016]],[[104.5781,-2.00342],[104.57872,-2.00315],[104.57641,-2.00315],[104.57643,-2.00344],[104.5781,-2.00342]],[[104.57993,-2.004],[104.57941,-2.00369],[104.57966,-2.00343],[104.58028,-2.00369],[104.57993,-2.004]]]}},{"id":"112","type":"Feature","properties":{"year":2020,"certainty":"good"},"geometry":{"type":"MultiLineString","coordinates":[[[104.52147,-1.71483],[104.4679,-1.62152],[104.43846,-1.51216],[104.4566,-1.35669]],[[104.45442,-1.44266],[104.45453,-1.44212],[104.45466,-1.44182],[104.45431,-1.44212],[104.45442,-1.44266]],[[104.45265,-1.4451],[104.45369,-1.44375],[104.45385,-1.44286],[104.45331,-1.4432],[104.45265,-1.4451]],[[104.50473,-1.80323],[104.54408,-1.78357],[104.52174,-1.7154]],[[104.50377,-1.80904],[104.50311,-1.80452]]]}},{"id":"129","type":"Feature","properties":{"year":2025,"certainty":"good"},"geometry":{"type":"MultiLineString","coordinates":[[[104.48932,-1.66604],[104.46163,-1.6039],[104.45921,-1.57965],[104.45428,-1.57321],[104.43813,-1.51268],[104.45082,-1.44578]],[[104.45486,-1.44063],[104.45498,-1.44063]],[[104.45552,-1.44035],[104.45179,-1.38689]],[[104.45574,-1.36979],[104.45589,-1.36911]],[[104.45598,-1.36843],[104.45694,-1.35669]],[[104.45519,-1.56615],[104.45489,-1.56529],[104.45463,-1.56536],[104.45484,-1.56615],[104.45519,-1.56615]],[[104.45599,-1.56886],[104.4557,-1.56871],[104.45539,-1.56805],[104.45519,-1.56886],[104.45599,-1.56886]],[[104.45847,-1.57619],[104.4584,-1.57395],[104.45732,-1.57099],[104.45784,-1.57592],[104.45847,-1.57619]],[[104.45666,-1.57728],[104.45705,-1.57811]],[[104.52147,-1.71478],[104.4969,-1.67133]],[[104.49681,-1.67119],[104.49675,-1.67106]],[[104.49573,-1.66978],[104.48993,-1.66615]],[[104.50473,-1.80323],[104.54474,-1.78276],[104.52174,-1.71539]],[[104.5299,-1.7206],[104.52983,-1.71873],[104.52902,-1.71815],[104.52902,-1.719],[104.5299,-1.7206]],[[104.50378,-1.80904],[104.50311,-1.80454]]]}},{"id":"130","type":"Feature","properties":{"year":2025,"certainty":"unstable data"},"geometry":{"type":"MultiLineString","coordinates":[[[104.59024,-1.86894],[104.57498,-1.86065]],[[104.56122,-1.85474],[104.55286,-1.85289]],[[104.55178,-1.85324],[104.54705,-1.85536]],[[104.65373,-1.96465],[104.64621,-1.96747]]]}},{"id":"131","type":"Feature","properties":{"year":2025,"certainty":"good"},"geometry":{"type":"MultiLineString","coordinates":[[[104.48347,-1.83214],[104.5038,-1.80907]],[[104.47262,-1.85049],[104.48305,-1.83268]],[[104.46722,-1.86349],[104.47181,-1.85143]],[[104.60638,-1.96323],[104.64325,-1.9231],[104.59024,-1.86894]],[[104.57498,-1.86065],[104.56351,-1.85696],[104.56122,-1.85474]],[[104.55286,-1.85289],[104.55178,-1.85324]],[[104.54168,-1.85807],[104.53711,-1.87815]],[[104.53694,-1.87819],[104.5367,-1.87843]],[[104.53635,-1.87924],[104.52223,-1.92551]],[[104.56436,-1.85631],[104.56432,-1.85615],[104.56366,-1.85577],[104.56378,-1.85641],[104.56436,-1.85631]],[[104.47258,-1.8704],[104.46803,-1.86526]],[[104.47422,-1.88741],[104.47325,-1.87094]],[[104.46262,-1.90751],[104.47449,-1.88799]],[[104.46467,-1.92604],[104.46418,-1.92129]],[[104.46373,-1.91911],[104.46289,-1.90962]],[[104.47333,-1.91138],[104.47341,-1.91107],[104.47286,-1.91111],[104.47314,-1.91147],[104.47333,-1.91138]],[[104.49702,-1.94803],[104.4897,-1.91682],[104.46963,-1.91885]],[[104.46912,-1.92102],[104.46828,-1.92631]],[[104.48879,-1.91573],[104.48878,-1.91504],[104.48797,-1.91454],[104.48836,-1.91573],[104.48879,-1.91573]],[[104.52166,-1.9266],[104.50084,-1.94722]],[[104.61177,-1.98617],[104.60719,-1.96495]],[[104.64621,-1.96747],[104.63119,-1.98318]],[[104.63065,-1.98427],[104.60111,-2.00874]],[[104.59652,-2.00819],[104.59534,-2.00844]],[[104.59519,-2.00844],[104.58735,-2.00713]],[[104.58729,-2.00709],[104.58681,-2.00685]],[[104.58169,-2.00698],[104.58145,-2.00858]],[[104.57184,-1.99837],[104.60286,-2.00135],[104.61093,-1.98769]],[[104.57849,-2.00831],[104.57103,-2.00161]]]}},{"id":"132","type":"Feature","properties":{"year":2025,"certainty":"insufficient data"},"geometry":{"type":"MultiLineString","coordinates":[[[104.54705,-1.85536],[104.54168,-1.85807]],[[104.53711,-1.87815],[104.53694,-1.87819]],[[104.5367,-1.87843],[104.53635,-1.87924]],[[104.46418,-1.92129],[104.46373,-1.91911]],[[104.46963,-1.91885],[104.46912,-1.92102]],[[104.60111,-2.00874],[104.59652,-2.00819]],[[104.59534,-2.00844],[104.59519,-2.00844]],[[104.58735,-2.00713],[104.58729,-2.00709]],[[104.58681,-2.00685],[104.58169,-2.00698]]]}}]}