{"type":"FeatureCollection","features":[{"id":"133","type":"Feature","properties":{"year":1988,"certainty":"insufficient data"},"geometry":{"type":"MultiLineString","coordinates":[[[104.51918,-1.69914],[104.51909,-1.69902]],[[104.51891,-1.6988],[104.51868,-1.69848]],[[104.51865,-1.69838],[104.51813,-1.69766]],[[104.51811,-1.69763],[104.51793,-1.69739]],[[104.51784,-1.69725],[104.51777,-1.69712]],[[104.48413,-1.64994],[104.48068,-1.64364]],[[104.4727,-1.62709],[104.46692,-1.61433]],[[104.45868,-1.58963],[104.45691,-1.58215]],[[104.44959,-1.53806],[104.44787,-1.53344]],[[104.43812,-1.49409],[104.4382,-1.49083]],[[104.44065,-1.47428],[104.44096,-1.47021]],[[104.44343,-1.46152],[104.44346,-1.46144]],[[104.44349,-1.46125],[104.44785,-1.44809],[104.44984,-1.44809],[104.44904,-1.44442]],[[104.44991,-1.4428],[104.44994,-1.44258]],[[104.44997,-1.44252],[104.45183,-1.43548]],[[104.45442,-1.42434],[104.45594,-1.42421],[104.45641,-1.4219]],[[104.45749,-1.41942],[104.45798,-1.41729]],[[104.45827,-1.41267],[104.45408,-1.38499]],[[104.45399,-1.38468],[104.45364,-1.37956]],[[104.45365,-1.37929],[104.45319,-1.3706]],[[104.50471,-1.80337],[104.50958,-1.80681],[104.51403,-1.80595]],[[104.51484,-1.80567],[104.52078,-1.80333]],[[104.52082,-1.80324],[104.52105,-1.80308]],[[104.52132,-1.80306],[104.52631,-1.80027],[104.53017,-1.8008]],[[104.53615,-1.7965],[104.54262,-1.78045]],[[104.54284,-1.78276],[104.54297,-1.78194],[104.54276,-1.78114],[104.54249,-1.78295],[104.54284,-1.78276]],[[104.50385,-1.80904],[104.50311,-1.80447]]]}},{"id":"134","type":"Feature","properties":{"year":1988,"certainty":"good"},"geometry":{"type":"MultiLineString","coordinates":[[[104.52151,-1.7149],[104.52425,-1.71408],[104.52511,-1.71137],[104.51918,-1.69914]],[[104.51909,-1.69902],[104.51891,-1.6988]],[[104.51868,-1.69848],[104.51865,-1.69838]],[[104.51813,-1.69766],[104.51811,-1.69763]],[[104.51793,-1.69739],[104.51784,-1.69725]],[[104.51777,-1.69712],[104.51123,-1.68761],[104.49924,-1.67825],[104.49436,-1.66658],[104.48413,-1.64994]],[[104.48068,-1.64364],[104.4727,-1.62709]],[[104.46692,-1.61433],[104.45868,-1.58963]],[[104.45691,-1.58215],[104.45413,-1.56832],[104.45185,-1.56425],[104.45179,-1.54389],[104.44959,-1.53806]],[[104.44787,-1.53344],[104.44344,-1.51729],[104.44048,-1.51567],[104.4398,-1.51349],[104.43837,-1.50562],[104.44007,-1.50454],[104.43868,-1.50264],[104.43812,-1.49409]],[[104.4382,-1.49083],[104.44065,-1.47428]],[[104.44096,-1.47021],[104.44343,-1.46152]],[[104.44346,-1.46144],[104.44349,-1.46125]],[[104.44904,-1.44442],[104.44991,-1.4428]],[[104.44994,-1.44258],[104.44997,-1.44252]],[[104.45183,-1.43548],[104.45164,-1.42828],[104.45442,-1.42434]],[[104.45641,-1.4219],[104.45749,-1.41942]],[[104.45798,-1.41729],[104.45827,-1.41267]],[[104.45408,-1.38499],[104.45399,-1.38468]],[[104.45364,-1.37956],[104.45365,-1.37929]],[[104.45319,-1.3706],[104.45642,-1.35669]],[[104.46384,-1.60306],[104.46379,-1.60247],[104.46325,-1.60187],[104.46312,-1.60279],[104.46384,-1.60306]],[[104.52653,-1.71029],[104.52633,-1.71001],[104.52564,-1.71001],[104.52579,-1.71034],[104.52653,-1.71029]],[[104.51403,-1.80595],[104.51484,-1.80567]],[[104.52078,-1.80333],[104.52082,-1.80324]],[[104.52105,-1.80308],[104.52132,-1.80306]],[[104.53017,-1.8008],[104.53615,-1.7965]],[[104.54262,-1.78045],[104.54261,-1.77678],[104.54443,-1.77678],[104.54291,-1.77027],[104.54386,-1.76729],[104.53525,-1.73499],[104.52771,-1.71951],[104.52417,-1.71538],[104.52174,-1.71539]]]}},{"id":"135","type":"Feature","properties":{"year":1989,"certainty":"good"},"geometry":{"type":"MultiLineString","coordinates":[[[104.52158,-1.7149],[104.52427,-1.71408],[104.5267,-1.71029],[104.51155,-1.68775],[104.50036,-1.67961],[104.49319,-1.6636],[104.47753,-1.63685],[104.4681,-1.61365],[104.46637,-1.61256],[104.46379,-1.60241],[104.45909,-1.59248],[104.45957,-1.58759],[104.45193,-1.56308],[104.45149,-1.54525],[104.45351,-1.54444],[104.45086,-1.54146],[104.44487,-1.52598],[104.44433,-1.51947],[104.44113,-1.51431],[104.44186,-1.51295],[104.43964,-1.51132],[104.44196,-1.51187],[104.44101,-1.50888],[104.43896,-1.50861],[104.44121,-1.50725],[104.44011,-1.48744],[104.44284,-1.4736],[104.44191,-1.46817],[104.44424,-1.46546],[104.44684,-1.4546],[104.45164,-1.44727],[104.4522,-1.44266],[104.45065,-1.44212],[104.45331,-1.43939],[104.45265,-1.43018],[104.45385,-1.4257],[104.45692,-1.42746],[104.45843,-1.41579],[104.45321,-1.37291],[104.45658,-1.35669]],[[104.50471,-1.80337],[104.51147,-1.80703],[104.52631,-1.80027],[104.5317,-1.80048],[104.54098,-1.78927],[104.5433,-1.7775],[104.54467,-1.77679],[104.54201,-1.75806],[104.53576,-1.73551],[104.52745,-1.71924],[104.52417,-1.71534],[104.5218,-1.71544]],[[104.54283,-1.78547],[104.54357,-1.78507],[104.54387,-1.78438],[104.5433,-1.78335],[104.54283,-1.78547]],[[104.54365,-1.78656],[104.54411,-1.78608],[104.54411,-1.78586],[104.54351,-1.78656],[104.54365,-1.78656]],[[104.50396,-1.80904],[104.50311,-1.80447]]]}},{"id":"136","type":"Feature","properties":{"year":1990,"certainty":"good"},"geometry":{"type":"MultiLineString","coordinates":[[[104.52158,-1.7149],[104.52424,-1.71408],[104.52639,-1.71056],[104.51194,-1.6883],[104.49853,-1.6769],[104.49426,-1.66522],[104.48408,-1.64867],[104.46635,-1.61094],[104.45819,-1.58216],[104.45534,-1.57728],[104.45474,-1.56805],[104.45168,-1.56425],[104.45267,-1.54471],[104.4536,-1.54444],[104.44466,-1.52579],[104.44421,-1.51919],[104.44074,-1.50834],[104.44041,-1.48201],[104.44608,-1.45759],[104.45114,-1.4489],[104.45317,-1.44158],[104.45218,-1.4299],[104.45358,-1.43128],[104.45391,-1.43099],[104.45359,-1.42855],[104.45169,-1.42806],[104.45358,-1.42482],[104.45412,-1.42677],[104.4571,-1.42746],[104.45827,-1.41688],[104.45844,-1.40955],[104.45295,-1.3721],[104.45383,-1.36395],[104.45642,-1.36097],[104.45625,-1.35669]],[[104.45196,-1.42945],[104.45178,-1.42936],[104.45196,-1.42878],[104.45227,-1.42909],[104.45196,-1.42945]],[[104.45604,-1.42936],[104.45603,-1.42882],[104.45574,-1.42879],[104.45596,-1.42936],[104.45604,-1.42936]],[[104.45503,-1.42936],[104.45466,-1.42933],[104.45439,-1.42889],[104.45466,-1.42942],[104.45503,-1.42936]],[[104.45416,-1.43208],[104.45452,-1.43126],[104.45439,-1.43062],[104.454,-1.43153],[104.45416,-1.43208]],[[104.45389,-1.55909],[104.45382,-1.55624],[104.45274,-1.5525],[104.4526,-1.55557],[104.45389,-1.55909]],[[104.49913,-1.67662],[104.49883,-1.67635],[104.49883,-1.67585],[104.49858,-1.67608],[104.4991,-1.67683],[104.49913,-1.67662]],[[104.50648,-1.80469],[104.51147,-1.80705],[104.52631,-1.80025],[104.53143,-1.80056],[104.54087,-1.78936],[104.54249,-1.78095],[104.54222,-1.78382],[104.54337,-1.78248],[104.54384,-1.77663],[104.54411,-1.77985],[104.54502,-1.77868],[104.54213,-1.75779],[104.5363,-1.74137],[104.53576,-1.73551],[104.52767,-1.71979],[104.52417,-1.71534],[104.52199,-1.71544]],[[104.54276,-1.78105],[104.5427,-1.78031],[104.54303,-1.78015],[104.54301,-1.78086],[104.54276,-1.78105]],[[104.5428,-1.78547],[104.54327,-1.78438],[104.5433,-1.78331],[104.54268,-1.78466],[104.5428,-1.78547]],[[104.54335,-1.78683],[104.54418,-1.78601],[104.54384,-1.78425],[104.54409,-1.78574],[104.54335,-1.78683]],[[104.50399,-1.80904],[104.50311,-1.80458]]]}},{"id":"137","type":"Feature","properties":{"year":1990,"certainty":"unstable data"},"geometry":{"type":"LineString","coordinates":[[104.50473,-1.80328],[104.50648,-1.80469]]}},{"id":"138","type":"Feature","properties":{"year":1991,"certainty":"insufficient data"},"geometry":{"type":"MultiLineString","coordinates":[[[104.52161,-1.7149],[104.52673,-1.71164],[104.52715,-1.71029],[104.52592,-1.71012]],[[104.52498,-1.70798],[104.52272,-1.70445]],[[104.52269,-1.70442],[104.52249,-1.70418]],[[104.47237,-1.62464],[104.47227,-1.62446]],[[104.47217,-1.62437],[104.46941,-1.61677]],[[104.46829,-1.61351],[104.46623,-1.61256],[104.46385,-1.60578],[104.4649,-1.60429]],[[104.46148,-1.5937],[104.45901,-1.59058],[104.46018,-1.58746]],[[104.46015,-1.58742],[104.46004,-1.58719]],[[104.45907,-1.58197],[104.45712,-1.58189],[104.45772,-1.57945],[104.45488,-1.57456],[104.45598,-1.5728]],[[104.45341,-1.56339],[104.45332,-1.5633]],[[104.45322,-1.5633],[104.45166,-1.56453],[104.45287,-1.56186]],[[104.52606,-1.71125],[104.52579,-1.71088],[104.52579,-1.71053],[104.52613,-1.71083],[104.52606,-1.71125]],[[104.53799,-1.74598],[104.53553,-1.73539]],[[104.53318,-1.72996],[104.5266,-1.71812],[104.52434,-1.71544],[104.52201,-1.71553]]]}},{"id":"139","type":"Feature","properties":{"year":1991,"certainty":"unstable data"},"geometry":{"type":"LineString","coordinates":[[104.50096,-1.67947],[104.50035,-1.67947]]}},{"id":"140","type":"Feature","properties":{"year":1991,"certainty":"good"},"geometry":{"type":"MultiLineString","coordinates":[[[104.52592,-1.71012],[104.52498,-1.70798]],[[104.52272,-1.70445],[104.52269,-1.70442]],[[104.52249,-1.70418],[104.50644,-1.67988],[104.50557,-1.67929],[104.508,-1.68379],[104.50341,-1.67915],[104.50096,-1.67947]],[[104.50035,-1.67947],[104.49157,-1.65952],[104.48406,-1.64867],[104.47237,-1.62464]],[[104.47227,-1.62446],[104.47217,-1.62437]],[[104.46941,-1.61677],[104.46829,-1.61351]],[[104.4649,-1.60429],[104.46148,-1.5937]],[[104.46018,-1.58746],[104.46015,-1.58742]],[[104.46004,-1.58719],[104.45907,-1.58197]],[[104.45598,-1.5728],[104.45389,-1.56615],[104.45491,-1.56452],[104.45341,-1.56339]],[[104.45332,-1.5633],[104.45322,-1.5633]],[[104.45287,-1.56186],[104.45452,-1.56181],[104.45223,-1.54552],[104.45328,-1.54362],[104.45053,-1.54118],[104.44466,-1.52584],[104.44414,-1.51919],[104.4419,-1.51431],[104.44304,-1.51378],[104.44292,-1.51214],[104.4415,-1.51132],[104.44169,-1.50826],[104.44058,-1.50888],[104.44182,-1.50671],[104.4402,-1.49612],[104.44072,-1.48147],[104.44981,-1.44999],[104.44831,-1.4451],[104.45088,-1.44724],[104.45342,-1.43723],[104.45288,-1.428],[104.4552,-1.42637],[104.45703,-1.42746],[104.45851,-1.41579],[104.45307,-1.37264],[104.45426,-1.3702],[104.45332,-1.36699],[104.45427,-1.3664],[104.45413,-1.36813],[104.45615,-1.36585],[104.45672,-1.35669]],[[104.44196,-1.51247],[104.44205,-1.51349]],[[104.45457,-1.56262],[104.4549,-1.56237],[104.4549,-1.56198],[104.454,-1.56262],[104.45457,-1.56262]],[[104.50473,-1.80337],[104.51174,-1.807],[104.52631,-1.8002],[104.53143,-1.80044],[104.53609,-1.79632],[104.54141,-1.7882],[104.54357,-1.78013],[104.54465,-1.78105],[104.54446,-1.78058],[104.54546,-1.77997],[104.54493,-1.78058],[104.54574,-1.78167],[104.54223,-1.75579],[104.53799,-1.74598]],[[104.53553,-1.73539],[104.53318,-1.72996]],[[104.54446,-1.78194],[104.54477,-1.7814],[104.54438,-1.78119],[104.54407,-1.78167],[104.54446,-1.78194]],[[104.54285,-1.7852],[104.54337,-1.78411],[104.5433,-1.78333],[104.54237,-1.78493],[104.54285,-1.7852]],[[104.54392,-1.78547],[104.54441,-1.78466],[104.54411,-1.7837],[104.54344,-1.78493],[104.54392,-1.78547]],[[104.5442,-1.7871],[104.54438,-1.78601],[104.54384,-1.78575],[104.54342,-1.78628],[104.5442,-1.7871]],[[104.54304,-1.7871],[104.54327,-1.78683],[104.54303,-1.78634],[104.54276,-1.78729],[104.54304,-1.7871]],[[104.54234,-1.78818],[104.5426,-1.78791],[104.54249,-1.78755],[104.54222,-1.78829],[104.54234,-1.78818]],[[104.50397,-1.80904],[104.50311,-1.80455]]]}},{"id":"141","type":"Feature","properties":{"year":1992,"certainty":"good"},"geometry":{"type":"MultiLineString","coordinates":[[[104.52147,-1.7149],[104.52457,-1.71381],[104.52763,-1.71001],[104.52202,-1.70388],[104.52122,-1.6997],[104.51288,-1.6883],[104.50746,-1.68205],[104.50624,-1.68291]],[[104.50612,-1.68273],[104.50603,-1.68273]],[[104.50472,-1.68273],[104.50163,-1.68002]],[[104.50193,-1.67983],[104.50247,-1.67975]],[[104.50274,-1.67967],[104.50285,-1.67947]],[[104.50058,-1.67968],[104.50028,-1.67947]],[[104.49638,-1.67025],[104.48423,-1.64717]],[[104.48414,-1.64705],[104.48408,-1.6469]],[[104.48171,-1.64249],[104.47996,-1.64137],[104.48111,-1.64107],[104.48023,-1.63915],[104.47201,-1.62459]],[[104.46723,-1.61596],[104.46675,-1.61357],[104.46814,-1.61256],[104.4651,-1.60415],[104.46298,-1.60491],[104.4619,-1.5992],[104.46049,-1.59899],[104.45913,-1.59221],[104.46165,-1.59139],[104.46195,-1.59004],[104.45974,-1.58907],[104.46055,-1.58771],[104.45832,-1.58922],[104.45895,-1.58705],[104.45782,-1.58651],[104.4592,-1.58664],[104.45982,-1.58624],[104.45947,-1.5842]],[[104.4561,-1.58089],[104.4561,-1.58078]],[[104.45617,-1.58067],[104.45673,-1.57836],[104.4541,-1.57294],[104.45518,-1.56724],[104.45442,-1.56506],[104.45269,-1.56588],[104.45153,-1.56289],[104.45247,-1.55912],[104.45382,-1.5616],[104.45554,-1.56181],[104.45396,-1.55964],[104.45494,-1.55611],[104.4522,-1.55916],[104.45109,-1.55448],[104.45358,-1.54959],[104.45134,-1.55095],[104.45085,-1.54417],[104.45328,-1.54394],[104.45436,-1.54738],[104.4542,-1.54417],[104.45113,-1.54172],[104.44579,-1.52964]],[[104.44425,-1.5237],[104.43896,-1.50874]],[[104.43887,-1.50467],[104.43836,-1.50047],[104.44008,-1.50118],[104.44131,-1.49911],[104.44104,-1.4964],[104.43846,-1.49601],[104.43824,-1.48635],[104.43927,-1.48237],[104.4417,-1.48283],[104.439,-1.48147],[104.43927,-1.4793],[104.43954,-1.47814],[104.44008,-1.4776],[104.44144,-1.48174],[104.44346,-1.47464]],[[104.4455,-1.46939],[104.44569,-1.46654],[104.4433,-1.4641],[104.44573,-1.45189],[104.44764,-1.44603],[104.4498,-1.44728],[104.45237,-1.44185],[104.45401,-1.43262],[104.4526,-1.43126],[104.45601,-1.43224],[104.45644,-1.42991],[104.45447,-1.42801],[104.45724,-1.42665],[104.45477,-1.42556],[104.45742,-1.42041],[104.45805,-1.41444],[104.45668,-1.39897],[104.45344,-1.38702],[104.45285,-1.37386]],[[104.45508,-1.36387],[104.4566,-1.35669]],[[104.45442,-1.55475],[104.45409,-1.5541],[104.45339,-1.55448],[104.45436,-1.55486],[104.45442,-1.55475]],[[104.45605,-1.57076],[104.45597,-1.57049],[104.4557,-1.57006],[104.45561,-1.57076],[104.45605,-1.57076]],[[104.50598,-1.6807],[104.50601,-1.68015],[104.50557,-1.68002],[104.50549,-1.68043],[104.50598,-1.6807]],[[104.50473,-1.80332],[104.51174,-1.80698],[104.52604,-1.80023],[104.53089,-1.80043],[104.53613,-1.79578],[104.54001,-1.78791],[104.54141,-1.78809],[104.53995,-1.7871],[104.54147,-1.78384],[104.54303,-1.78243],[104.54303,-1.7846],[104.54462,-1.78357],[104.54411,-1.78713],[104.5463,-1.78384],[104.54244,-1.75507],[104.53762,-1.74503],[104.53795,-1.74123],[104.53145,-1.72462],[104.52444,-1.71541],[104.52185,-1.71544]],[[104.50399,-1.80904],[104.50311,-1.80453]]]}},{"id":"142","type":"Feature","properties":{"year":1992,"certainty":"insufficient data"},"geometry":{"type":"MultiLineString","coordinates":[[[104.50624,-1.68291],[104.50612,-1.68273]],[[104.50603,-1.68273],[104.50472,-1.68273]],[[104.50163,-1.68002],[104.50193,-1.67983]],[[104.50247,-1.67975],[104.50274,-1.67967]],[[104.50285,-1.67947],[104.50058,-1.67968]],[[104.50028,-1.67947],[104.50084,-1.67717],[104.49638,-1.67025]],[[104.48423,-1.64717],[104.48414,-1.64705]],[[104.48408,-1.6469],[104.48171,-1.64249]],[[104.47201,-1.62459],[104.47159,-1.62125],[104.46998,-1.6191],[104.46937,-1.62044],[104.46723,-1.61596]],[[104.45947,-1.5842],[104.45739,-1.58406],[104.45761,-1.58081],[104.4561,-1.58089]],[[104.4561,-1.58078],[104.45617,-1.58067]],[[104.44579,-1.52964],[104.44425,-1.5237]],[[104.43896,-1.50874],[104.43887,-1.50467]],[[104.44346,-1.47464],[104.4455,-1.46939]],[[104.45285,-1.37386],[104.45305,-1.36667],[104.45508,-1.36387]]]}},{"id":"143","type":"Feature","properties":{"year":1993,"certainty":"good"},"geometry":{"type":"MultiLineString","coordinates":[[[104.52147,-1.71485],[104.52417,-1.71408],[104.52778,-1.71001],[104.52454,-1.70893],[104.51974,-1.69861],[104.51096,-1.68652],[104.5055,-1.68151],[104.50017,-1.67979],[104.48697,-1.65308],[104.48082,-1.64188],[104.47888,-1.64086],[104.48013,-1.64079],[104.47322,-1.62579],[104.46994,-1.62234],[104.4711,-1.62125],[104.4675,-1.61691],[104.46816,-1.61392],[104.46441,-1.60252],[104.46082,-1.59815],[104.463,-1.59764],[104.46023,-1.59438],[104.46107,-1.59058],[104.46028,-1.58723],[104.45891,-1.58786],[104.46003,-1.58596],[104.4584,-1.57976],[104.45705,-1.57904],[104.45705,-1.58083],[104.45624,-1.57969],[104.45753,-1.57674],[104.45651,-1.57701],[104.45502,-1.57131],[104.45576,-1.56805],[104.45324,-1.56479],[104.45451,-1.56452],[104.45274,-1.56208],[104.45478,-1.56127],[104.45323,-1.56072],[104.45437,-1.55882],[104.45306,-1.55774],[104.45436,-1.55624],[104.45529,-1.55774],[104.45532,-1.55557],[104.45299,-1.55312],[104.45367,-1.55095],[104.45122,-1.55095],[104.45084,-1.54661],[104.4531,-1.54444],[104.45309,-1.54227],[104.44789,-1.53504],[104.44208,-1.51702],[104.44053,-1.50807],[104.44175,-1.50834],[104.44143,-1.50372],[104.44007,-1.50399],[104.44091,-1.4964],[104.43845,-1.4926],[104.43884,-1.4888],[104.44092,-1.48771],[104.44158,-1.48473],[104.43897,-1.4831],[104.44148,-1.48391],[104.44576,-1.46681],[104.4442,-1.46356],[104.44685,-1.46057],[104.44656,-1.45937],[104.44413,-1.46141],[104.44494,-1.45557],[104.44548,-1.45353],[104.44808,-1.45324],[104.45053,-1.4432],[104.45256,-1.44157],[104.4518,-1.43859],[104.45419,-1.43343],[104.45282,-1.4318],[104.45537,-1.43099],[104.45471,-1.42855],[104.45682,-1.42782],[104.45824,-1.41688],[104.45681,-1.39897],[104.45344,-1.38702],[104.45425,-1.37861],[104.45285,-1.37182],[104.45386,-1.36877],[104.45524,-1.3721],[104.45686,-1.35669]],[[104.45682,-1.42314],[104.45655,-1.42457]],[[104.4527,-1.55068],[104.45309,-1.55041],[104.45301,-1.54977],[104.45217,-1.55014],[104.4527,-1.55068]],[[104.46255,-1.59899],[104.46302,-1.59872],[104.46298,-1.59857],[104.46229,-1.59899],[104.46255,-1.59899]],[[104.50473,-1.80329],[104.51174,-1.80695],[104.52604,-1.80019],[104.53062,-1.80036],[104.53684,-1.79442],[104.54249,-1.78424],[104.54463,-1.7833],[104.54249,-1.78681],[104.54301,-1.7871],[104.54578,-1.78547],[104.54225,-1.75507],[104.5384,-1.74829],[104.53792,-1.74211],[104.53145,-1.72462],[104.52444,-1.71542],[104.52192,-1.71544]],[[104.50395,-1.80904],[104.50311,-1.80453]]]}},{"id":"144","type":"Feature","properties":{"year":1994,"certainty":"good"},"geometry":{"type":"MultiLineString","coordinates":[[[104.5212,-1.71461],[104.52394,-1.71381],[104.52471,-1.71024],[104.5273,-1.7092],[104.52386,-1.70811],[104.51996,-1.69943],[104.51096,-1.68668],[104.50737,-1.6845],[104.50451,-1.68015],[104.50017,-1.67987],[104.49883,-1.67841],[104.49277,-1.66617]],[[104.49202,-1.664],[104.48184,-1.64622],[104.48081,-1.64188],[104.47915,-1.64167],[104.47564,-1.63496],[104.47655,-1.63374],[104.47141,-1.62261],[104.46971,-1.62239],[104.47053,-1.62125],[104.46765,-1.61609],[104.46765,-1.61121],[104.46184,-1.59818],[104.46274,-1.59709],[104.46021,-1.58814],[104.45893,-1.58767],[104.45987,-1.58624],[104.45836,-1.58434],[104.45832,-1.57972],[104.45611,-1.57972],[104.45741,-1.57674],[104.45627,-1.57158],[104.45502,-1.57131],[104.45643,-1.57104],[104.45597,-1.56805],[104.45324,-1.56479],[104.45394,-1.56181],[104.45557,-1.56127],[104.45323,-1.55936],[104.45434,-1.55937],[104.45409,-1.55697],[104.45571,-1.55732],[104.45382,-1.54997],[104.45229,-1.54905],[104.45349,-1.54878],[104.4512,-1.54824],[104.45328,-1.54789],[104.45303,-1.54227],[104.44789,-1.53507],[104.44306,-1.51729],[104.44108,-1.51567],[104.44238,-1.51377],[104.43881,-1.4888],[104.439,-1.48732],[104.44095,-1.48744],[104.44158,-1.48473],[104.439,-1.4832],[104.44171,-1.48364],[104.44557,-1.46464],[104.44418,-1.46356],[104.44657,-1.46111],[104.44629,-1.4598],[104.44494,-1.46184],[104.44423,-1.46003],[104.44494,-1.45812],[104.44741,-1.45786],[104.45075,-1.4432],[104.45258,-1.44157],[104.4536,-1.43153],[104.45574,-1.43147],[104.45601,-1.42867],[104.45742,-1.42909],[104.45645,-1.42638],[104.45819,-1.41362],[104.45688,-1.40032],[104.45305,-1.38603],[104.45402,-1.37861],[104.45268,-1.37128],[104.45313,-1.36911],[104.455,-1.36911],[104.45658,-1.35669]],[[104.45536,-1.3721],[104.45557,-1.37182],[104.45548,-1.37148],[104.45514,-1.37182],[104.45536,-1.3721]],[[104.45653,-1.56018],[104.45612,-1.55991],[104.45571,-1.5587],[104.45597,-1.56019],[104.45653,-1.56018]],[[104.50473,-1.80327],[104.51174,-1.80696],[104.52604,-1.80009],[104.53062,-1.80027],[104.53533,-1.79632],[104.5398,-1.78625],[104.54384,-1.78301],[104.54487,-1.7833],[104.54252,-1.78656],[104.54546,-1.78545],[104.54627,-1.7817],[104.54257,-1.7643],[104.54225,-1.75507],[104.53792,-1.74779],[104.53792,-1.74215],[104.53199,-1.72714],[104.53279,-1.72576],[104.53064,-1.72523],[104.52414,-1.71544],[104.52196,-1.71544]],[[104.50395,-1.80904],[104.50311,-1.80456]]]}},{"id":"145","type":"Feature","properties":{"year":1994,"certainty":"unstable data"},"geometry":{"type":"LineString","coordinates":[[104.49277,-1.66617],[104.49202,-1.664]]}},{"id":"146","type":"Feature","properties":{"year":1995,"certainty":"good"},"geometry":{"type":"MultiLineString","coordinates":[[[104.52147,-1.71486],[104.52471,-1.71355],[104.52789,-1.7092],[104.52454,-1.70893],[104.51983,-1.69943],[104.50855,-1.6845],[104.50325,-1.68015],[104.50012,-1.67988],[104.4703,-1.62206],[104.45347,-1.56316],[104.45553,-1.56127],[104.45478,-1.55991],[104.45324,-1.56045],[104.45436,-1.55613],[104.45457,-1.55692],[104.45545,-1.55801],[104.45271,-1.54932],[104.45311,-1.54308],[104.44762,-1.53483],[104.44148,-1.51567],[104.44089,-1.50067],[104.43919,-1.49477],[104.44026,-1.48418],[104.44116,-1.48349],[104.44226,-1.47875],[104.44499,-1.46274],[104.45394,-1.43425],[104.45257,-1.43235],[104.45585,-1.43126],[104.4554,-1.42936],[104.45754,-1.42855],[104.45701,-1.40168],[104.45277,-1.38567],[104.45302,-1.36965],[104.4544,-1.37149],[104.45655,-1.35669]],[[104.44035,-1.48307],[104.44033,-1.4831]],[[104.4548,-1.56316],[104.45473,-1.56262],[104.45463,-1.56234],[104.45452,-1.56289],[104.4548,-1.56316]],[[104.50473,-1.80328],[104.51147,-1.80692],[104.51713,-1.80383],[104.52005,-1.80392],[104.52577,-1.80005],[104.53005,-1.80039],[104.53473,-1.7966],[104.54371,-1.78357],[104.54281,-1.78683],[104.54573,-1.78551],[104.54172,-1.75426],[104.5388,-1.74937],[104.53635,-1.73797],[104.5318,-1.72576],[104.52417,-1.7153],[104.52194,-1.71544]],[[104.50383,-1.80904],[104.50311,-1.80453]]]}},{"id":"147","type":"Feature","properties":{"year":1996,"certainty":"insufficient data"},"geometry":{"type":"MultiLineString","coordinates":[[[104.45454,-1.36952],[104.45452,-1.36843]],[[104.45454,-1.3684],[104.45454,-1.36823]],[[104.45508,-1.36548],[104.45618,-1.35669]]]}},{"id":"148","type":"Feature","properties":{"year":1996,"certainty":"good"},"geometry":{"type":"MultiLineString","coordinates":[[[104.52147,-1.71487],[104.52444,-1.71386],[104.52727,-1.70974],[104.52405,-1.70811],[104.51017,-1.68694],[104.49826,-1.67771],[104.49403,-1.66685],[104.46968,-1.62288],[104.45458,-1.57104],[104.45515,-1.56832],[104.45434,-1.56588],[104.45492,-1.56561],[104.45317,-1.56316],[104.45409,-1.56164],[104.45551,-1.56262],[104.45279,-1.54498],[104.44663,-1.53304],[104.43977,-1.51295],[104.43986,-1.48744],[104.44247,-1.47061],[104.45142,-1.44185],[104.45307,-1.43425],[104.45142,-1.4336],[104.45331,-1.43351],[104.45304,-1.43121],[104.45767,-1.42828],[104.45693,-1.40168],[104.45275,-1.38784],[104.45285,-1.38282]],[[104.45275,-1.38064],[104.45287,-1.37902]],[[104.45296,-1.37576],[104.45454,-1.36952]],[[104.45452,-1.36843],[104.45454,-1.3684]],[[104.45454,-1.36823],[104.45508,-1.36548]],[[104.45409,-1.5672],[104.45435,-1.56847]],[[104.50473,-1.80333],[104.51147,-1.80695],[104.51713,-1.80382],[104.52002,-1.80392],[104.52577,-1.79998],[104.53008,-1.80032],[104.53469,-1.7966],[104.5417,-1.78547],[104.54492,-1.78315],[104.54333,-1.78601],[104.54535,-1.78574],[104.54156,-1.75904]],[[104.54149,-1.75819],[104.54147,-1.75792]],[[104.54143,-1.75765],[104.53246,-1.72711],[104.52423,-1.71544],[104.52201,-1.71546]],[[104.50386,-1.80904],[104.50311,-1.80448]]]}},{"id":"149","type":"Feature","properties":{"year":1996,"certainty":"unstable data"},"geometry":{"type":"MultiLineString","coordinates":[[[104.45285,-1.38282],[104.45275,-1.38064]],[[104.45287,-1.37902],[104.45296,-1.37576]],[[104.54156,-1.75904],[104.54149,-1.75819]],[[104.54147,-1.75792],[104.54143,-1.75765]]]}},{"id":"150","type":"Feature","properties":{"year":1997,"certainty":"good"},"geometry":{"type":"MultiLineString","coordinates":[[[104.52147,-1.71488],[104.5266,-1.7108],[104.51098,-1.68803],[104.49775,-1.67743],[104.49385,-1.66712],[104.46783,-1.61877],[104.45447,-1.57348],[104.45075,-1.54281],[104.4394,-1.51268],[104.44006,-1.47794],[104.44062,-1.47976],[104.45212,-1.42963],[104.45639,-1.42855],[104.45769,-1.42339],[104.4567,-1.40087],[104.45229,-1.38675],[104.45264,-1.37427],[104.4544,-1.37097],[104.45635,-1.35669]],[[104.45316,-1.56045],[104.45368,-1.56018],[104.45355,-1.55944],[104.45292,-1.56018],[104.45316,-1.56045]],[[104.45332,-1.56126],[104.4538,-1.56099],[104.45382,-1.56067],[104.45329,-1.56099],[104.45332,-1.56126]],[[104.50473,-1.80331],[104.51147,-1.8069],[104.51713,-1.80376],[104.51983,-1.80399],[104.5255,-1.8],[104.52981,-1.80036],[104.53498,-1.79578],[104.5422,-1.78086],[104.54411,-1.78242],[104.54377,-1.77081],[104.53613,-1.73879],[104.53103,-1.72521],[104.52393,-1.71544],[104.52201,-1.71544]],[[104.50382,-1.80904],[104.50311,-1.80448]]]}},{"id":"151","type":"Feature","properties":{"year":1998,"certainty":"good"},"geometry":{"type":"MultiLineString","coordinates":[[[104.52147,-1.71488],[104.52429,-1.71381],[104.52579,-1.71001],[104.51109,-1.6883],[104.49773,-1.67744],[104.49384,-1.66739],[104.46945,-1.62288],[104.45759,-1.58635],[104.4534,-1.56724],[104.45135,-1.56452],[104.45275,-1.55882],[104.45076,-1.54362],[104.43945,-1.51268],[104.44003,-1.47957],[104.4471,-1.45542],[104.45215,-1.4299],[104.45601,-1.4278],[104.4574,-1.42421],[104.45687,-1.40249],[104.45219,-1.38675],[104.45261,-1.37454],[104.45625,-1.35669]],[[104.50473,-1.80328],[104.51147,-1.80686],[104.51713,-1.80367],[104.51983,-1.80387],[104.5255,-1.79994],[104.52981,-1.8003],[104.53479,-1.79578],[104.54142,-1.78239],[104.54384,-1.78194],[104.54416,-1.77353],[104.54142,-1.75903],[104.53343,-1.73064],[104.52498,-1.71659],[104.52196,-1.71544]],[[104.50381,-1.80904],[104.50311,-1.80452]]]}},{"id":"152","type":"Feature","properties":{"year":1999,"certainty":"good"},"geometry":{"type":"MultiLineString","coordinates":[[[104.52147,-1.71486],[104.5243,-1.71381],[104.52633,-1.71011],[104.51116,-1.6883],[104.49748,-1.67698],[104.49314,-1.66875],[104.49371,-1.66739],[104.46891,-1.62125],[104.45732,-1.58516],[104.4534,-1.56724],[104.45143,-1.56452],[104.45278,-1.55882],[104.45079,-1.54389],[104.43949,-1.51268],[104.4395,-1.48635],[104.44116,-1.4831],[104.44149,-1.47278],[104.45249,-1.43099],[104.45682,-1.42694],[104.45736,-1.42438],[104.45667,-1.40168],[104.45215,-1.38648],[104.45255,-1.37508],[104.45541,-1.36694],[104.45638,-1.35669]],[[104.49974,-1.67771],[104.49977,-1.67717],[104.49937,-1.67709],[104.49941,-1.67744],[104.49974,-1.67771]],[[104.50473,-1.80328],[104.51174,-1.80679],[104.5257,-1.79985],[104.53008,-1.80014],[104.53508,-1.79524],[104.54142,-1.78246],[104.54369,-1.78303],[104.54415,-1.77353],[104.53601,-1.7377],[104.53102,-1.72521],[104.52499,-1.71653],[104.52191,-1.71544]],[[104.5038,-1.80904],[104.50311,-1.80454]]]}},{"id":"153","type":"Feature","properties":{"year":2000,"certainty":"good"},"geometry":{"type":"MultiLineString","coordinates":[[[104.52147,-1.71486],[104.52633,-1.71155],[104.52594,-1.70947],[104.51109,-1.6883],[104.50045,-1.67988],[104.49586,-1.67337],[104.4684,-1.62044],[104.45729,-1.58542],[104.45343,-1.56724],[104.45136,-1.56452],[104.45276,-1.55909],[104.4507,-1.54362],[104.43954,-1.51295],[104.43954,-1.48395],[104.44096,-1.48228],[104.44154,-1.47278],[104.44691,-1.45732],[104.45027,-1.4394],[104.45313,-1.43398],[104.45269,-1.43099],[104.45709,-1.42668],[104.45771,-1.42258],[104.45653,-1.40114],[104.45194,-1.38648],[104.45629,-1.35669]],[[104.50473,-1.80327],[104.51039,-1.80696],[104.51794,-1.80335],[104.51983,-1.80383],[104.52577,-1.79979],[104.52981,-1.80023],[104.53529,-1.7947],[104.54142,-1.78371],[104.54465,-1.78384],[104.54048,-1.75263],[104.53441,-1.73283],[104.52499,-1.71653],[104.52174,-1.71542]],[[104.50381,-1.80904],[104.50311,-1.80456]]]}},{"id":"154","type":"Feature","properties":{"year":2001,"certainty":"insufficient data"},"geometry":{"type":"MultiLineString","coordinates":[[[104.52147,-1.71486],[104.52667,-1.71137],[104.51944,-1.69983]],[[104.51396,-1.69196],[104.5007,-1.67934],[104.4937,-1.66996],[104.49367,-1.66767],[104.46988,-1.62424],[104.46338,-1.6033]],[[104.46269,-1.59994],[104.46257,-1.59982]],[[104.46245,-1.59913],[104.4623,-1.59886]],[[104.46165,-1.59641],[104.45859,-1.58909]],[[104.45723,-1.58529],[104.45416,-1.57117]],[[104.45146,-1.56466],[104.45269,-1.55679]],[[104.45234,-1.5524],[104.449,-1.53887]],[[104.44859,-1.53779],[104.4456,-1.5308]],[[104.44479,-1.52883],[104.44261,-1.51987]],[[104.44042,-1.50847],[104.43872,-1.50427],[104.44008,-1.49789]],[[104.44009,-1.4854],[104.4416,-1.47211]],[[104.45299,-1.43058],[104.45291,-1.43046]],[[104.45291,-1.43043],[104.45439,-1.42761],[104.45599,-1.42828],[104.4572,-1.42407]],[[104.45798,-1.41674],[104.45673,-1.40426]],[[104.45248,-1.37657],[104.45604,-1.3611]],[[104.50473,-1.80326],[104.51039,-1.80698],[104.51862,-1.80338]],[[104.53232,-1.79754],[104.5369,-1.79022]],[[104.5375,-1.78912],[104.54182,-1.78333]],[[104.54441,-1.77936],[104.5429,-1.76895]],[[104.5429,-1.76837],[104.54041,-1.75249]],[[104.53408,-1.73186],[104.52568,-1.71775]],[[104.52553,-1.71748],[104.52174,-1.71536]],[[104.50384,-1.80904],[104.50311,-1.80461]]]}},{"id":"155","type":"Feature","properties":{"year":2001,"certainty":"good"},"geometry":{"type":"MultiLineString","coordinates":[[[104.51944,-1.69983],[104.51396,-1.69196]],[[104.46338,-1.6033],[104.46269,-1.59994]],[[104.46257,-1.59982],[104.46245,-1.59913]],[[104.4623,-1.59886],[104.46165,-1.59641]],[[104.45859,-1.58909],[104.45723,-1.58529]],[[104.45416,-1.57117],[104.45146,-1.56466]],[[104.45269,-1.55679],[104.45234,-1.5524]],[[104.449,-1.53887],[104.44859,-1.53779]],[[104.4456,-1.5308],[104.44479,-1.52883]],[[104.44261,-1.51987],[104.43952,-1.51349],[104.44042,-1.50847]],[[104.44008,-1.49789],[104.44009,-1.4854]],[[104.4416,-1.47211],[104.45299,-1.43058]],[[104.45291,-1.43046],[104.45291,-1.43043]],[[104.4572,-1.42407],[104.45798,-1.41674]],[[104.45673,-1.40426],[104.45195,-1.38757],[104.45248,-1.37657]],[[104.45604,-1.3611],[104.45632,-1.35669]],[[104.51862,-1.80338],[104.52577,-1.79975],[104.52981,-1.8002],[104.53232,-1.79754]],[[104.5369,-1.79022],[104.5375,-1.78912]],[[104.54182,-1.78333],[104.5444,-1.78411],[104.54441,-1.77936]],[[104.5429,-1.76895],[104.5429,-1.76837]],[[104.54041,-1.75249],[104.53408,-1.73186]],[[104.52568,-1.71775],[104.52553,-1.71748]]]}},{"id":"156","type":"Feature","properties":{"year":2002,"certainty":"insufficient data"},"geometry":{"type":"MultiLineString","coordinates":[[[104.45175,-1.38621],[104.45593,-1.35669]],[[104.52336,-1.71408],[104.52575,-1.71191],[104.52498,-1.70882],[104.5111,-1.6883],[104.4962,-1.67445],[104.46837,-1.62066],[104.45708,-1.58515],[104.45343,-1.56724],[104.45134,-1.56452],[104.45275,-1.56208],[104.45247,-1.55421],[104.45008,-1.54172],[104.43951,-1.51349],[104.43868,-1.48961],[104.44058,-1.47414],[104.44595,-1.45759],[104.44786,-1.44564],[104.4498,-1.44017],[104.45007,-1.44345],[104.45108,-1.43995],[104.44986,-1.4394],[104.45158,-1.43099],[104.45311,-1.43072],[104.45439,-1.42743],[104.45606,-1.42801],[104.45785,-1.42258],[104.4567,-1.40222],[104.45467,-1.39683]],[[104.52733,-1.72033],[104.52336,-1.71574]],[[104.50473,-1.80326],[104.51039,-1.80699],[104.51687,-1.80359],[104.51983,-1.80378],[104.52577,-1.79974],[104.52981,-1.80019],[104.53438,-1.79578],[104.54122,-1.78384],[104.54492,-1.78402],[104.539,-1.74844],[104.53091,-1.72576]],[[104.50382,-1.80904],[104.50311,-1.80461]]]}},{"id":"157","type":"Feature","properties":{"year":2003,"certainty":"insufficient data"},"geometry":{"type":"MultiLineString","coordinates":[[[104.45374,-1.39164],[104.45298,-1.38974]],[[104.44385,-1.52203],[104.44094,-1.50969],[104.44218,-1.4869],[104.44591,-1.466],[104.44986,-1.4565],[104.44938,-1.45297],[104.45088,-1.44948],[104.45277,-1.44972],[104.45145,-1.44619],[104.45413,-1.43533],[104.45304,-1.43398],[104.45412,-1.43452],[104.45439,-1.43224],[104.45482,-1.43805],[104.45654,-1.43995],[104.4579,-1.43506],[104.45872,-1.42421],[104.45638,-1.40222]],[[104.45747,-1.56398],[104.45507,-1.55448]],[[104.46041,-1.58488],[104.46433,-1.59197],[104.45881,-1.57321]],[[104.4592,-1.58565],[104.46001,-1.58802],[104.46066,-1.58786],[104.45976,-1.58515]],[[104.48706,-1.65464],[104.47802,-1.63781],[104.4781,-1.63618],[104.47407,-1.62885],[104.47176,-1.62315],[104.4729,-1.62288],[104.47052,-1.61844],[104.47033,-1.62044],[104.467,-1.60659],[104.46161,-1.59438],[104.46162,-1.59085],[104.4585,-1.58596]],[[104.47608,-1.62966],[104.47596,-1.62885],[104.47564,-1.62879],[104.47586,-1.62966],[104.47608,-1.62966]],[[104.47935,-1.63509],[104.47887,-1.63374],[104.47645,-1.6294],[104.47778,-1.63319],[104.47935,-1.63509]],[[104.49738,-1.67282],[104.4935,-1.67011],[104.48845,-1.65762]],[[104.52147,-1.7148],[104.53065,-1.71137],[104.52443,-1.70703],[104.50988,-1.68734]],[[104.53132,-1.71409],[104.53137,-1.71327],[104.53118,-1.71287],[104.53066,-1.71354],[104.53132,-1.71409]],[[104.52938,-1.71789],[104.53118,-1.71539],[104.52822,-1.71501],[104.52898,-1.71789],[104.52938,-1.71789]],[[104.53552,-1.73444],[104.52687,-1.71854],[104.52182,-1.71544]],[[104.53524,-1.72332],[104.53527,-1.72304],[104.53523,-1.7225],[104.53509,-1.72304],[104.53524,-1.72332]],[[104.53901,-1.74639],[104.53806,-1.74069]],[[104.50473,-1.80323],[104.51147,-1.80688],[104.52556,-1.79985],[104.52973,-1.80012],[104.54021,-1.78601],[104.54222,-1.78739],[104.54276,-1.78547],[104.54721,-1.78466],[104.54463,-1.77977],[104.54548,-1.77081],[104.54274,-1.76946],[104.5414,-1.76104],[104.5428,-1.76159],[104.54331,-1.75587],[104.5414,-1.75236]],[[104.54108,-1.78764],[104.54073,-1.7871],[104.54061,-1.78666],[104.54034,-1.78764],[104.54108,-1.78764]],[[104.50408,-1.80904],[104.50311,-1.80455]]]}},{"id":"158","type":"Feature","properties":{"year":2004,"certainty":"insufficient data"},"geometry":{"type":"MultiLineString","coordinates":[[[104.45479,-1.37725],[104.45437,-1.37237],[104.45701,-1.3626],[104.45634,-1.35669]],[[104.45278,-1.38223],[104.45314,-1.38051]],[[104.52147,-1.71487],[104.527,-1.7119]],[[104.52781,-1.7119],[104.53065,-1.71164],[104.52835,-1.70934]],[[104.52835,-1.70974],[104.52835,-1.70976]],[[104.52824,-1.70988],[104.52814,-1.70988]],[[104.52593,-1.70804],[104.52578,-1.70798]],[[104.52566,-1.70781],[104.52553,-1.70771]],[[104.52539,-1.70759],[104.52526,-1.70744]],[[104.52485,-1.70726],[104.52462,-1.70716]],[[104.52377,-1.70611],[104.52375,-1.70608]],[[104.5235,-1.70571],[104.52335,-1.70554]],[[104.52323,-1.70541],[104.52297,-1.70499]],[[104.52296,-1.70499],[104.52243,-1.70418]],[[104.52242,-1.70415],[104.5223,-1.70391]],[[104.52215,-1.70365],[104.52214,-1.70363]],[[104.52152,-1.70228],[104.51757,-1.69681]],[[104.51721,-1.69631],[104.49964,-1.675],[104.49347,-1.66984],[104.49099,-1.66169],[104.48387,-1.64883]],[[104.47497,-1.63034],[104.46888,-1.6146]],[[104.46806,-1.61134],[104.46567,-1.60401]],[[104.46021,-1.58664],[104.46033,-1.58664]],[[104.46392,-1.5911],[104.46398,-1.5899]],[[104.46177,-1.58404],[104.46036,-1.57959]],[[104.45875,-1.57416],[104.45826,-1.57394]],[[104.45816,-1.57389],[104.45732,-1.57003],[104.45597,-1.57187],[104.45484,-1.57049],[104.45558,-1.56452],[104.45771,-1.56507],[104.45425,-1.55312],[104.45423,-1.54498],[104.45328,-1.54322],[104.45355,-1.54677],[104.4522,-1.5428],[104.45167,-1.54281],[104.45263,-1.54607],[104.45179,-1.54634],[104.45121,-1.54118],[104.44602,-1.53195],[104.44602,-1.52734],[104.44291,-1.51919],[104.44344,-1.51567],[104.44141,-1.51132],[104.44119,-1.50725],[104.44253,-1.5059],[104.44085,-1.50182],[104.44444,-1.4717],[104.4499,-1.4565],[104.44943,-1.4527],[104.45115,-1.44978],[104.45277,-1.44972],[104.45158,-1.44592],[104.45196,-1.44041],[104.45326,-1.43968],[104.45231,-1.43859],[104.45413,-1.43533],[104.45304,-1.43398],[104.45412,-1.43452],[104.45439,-1.43224],[104.45475,-1.43805],[104.45654,-1.43902],[104.45889,-1.42855],[104.45733,-1.40575],[104.45221,-1.38784],[104.45296,-1.38485]],[[104.45709,-1.44022],[104.45681,-1.43985],[104.45633,-1.43995],[104.45681,-1.43997],[104.45709,-1.44022]],[[104.44248,-1.51567],[104.4425,-1.51572]],[[104.47608,-1.62966],[104.47591,-1.62898],[104.47564,-1.62895],[104.47586,-1.62966],[104.47608,-1.62966]],[[104.47718,-1.63116],[104.47645,-1.62961],[104.4767,-1.63089]],[[104.47686,-1.63111],[104.4769,-1.63116]],[[104.53131,-1.71409],[104.53136,-1.71327],[104.53118,-1.71296],[104.53066,-1.71354],[104.53131,-1.71409]],[[104.50473,-1.80327],[104.51147,-1.80687],[104.5257,-1.79958],[104.52969,-1.80012],[104.53737,-1.78985],[104.54114,-1.78764],[104.53962,-1.78683],[104.54088,-1.78498],[104.54195,-1.78737],[104.54292,-1.78547],[104.5471,-1.78466],[104.54461,-1.77977],[104.54546,-1.7722],[104.54215,-1.76403],[104.54317,-1.75561],[104.53846,-1.74666],[104.53769,-1.73797],[104.52721,-1.71911]],[[104.52687,-1.71856],[104.52201,-1.71546]],[[104.52962,-1.71789],[104.53091,-1.71624],[104.52916,-1.71569]],[[104.52883,-1.71558],[104.52872,-1.71558]],[[104.52864,-1.71612],[104.52962,-1.71789]],[[104.50398,-1.80904],[104.50311,-1.80458]]]}},{"id":"159","type":"Feature","properties":{"year":2004,"certainty":"good"},"geometry":{"type":"MultiLineString","coordinates":[[[104.527,-1.7119],[104.52781,-1.7119]],[[104.52835,-1.70934],[104.52835,-1.70974]],[[104.52835,-1.70976],[104.52824,-1.70988]],[[104.52814,-1.70988],[104.52593,-1.70804]],[[104.52578,-1.70798],[104.52566,-1.70781]],[[104.52553,-1.70771],[104.52539,-1.70759]],[[104.52526,-1.70744],[104.52485,-1.70726]],[[104.52462,-1.70716],[104.52377,-1.70611]],[[104.52375,-1.70608],[104.5235,-1.70571]],[[104.52335,-1.70554],[104.52323,-1.70541]],[[104.52297,-1.70499],[104.52296,-1.70499]],[[104.52243,-1.70418],[104.52242,-1.70415]],[[104.5223,-1.70391],[104.52215,-1.70365]],[[104.52214,-1.70363],[104.52152,-1.70228]],[[104.51757,-1.69681],[104.51721,-1.69631]],[[104.48387,-1.64883],[104.47497,-1.63034]],[[104.46888,-1.6146],[104.46806,-1.61134]],[[104.46567,-1.60401],[104.46021,-1.58664]],[[104.46033,-1.58664],[104.46392,-1.5911]],[[104.46398,-1.5899],[104.46177,-1.58404]],[[104.46036,-1.57959],[104.45875,-1.57416]],[[104.45826,-1.57394],[104.45816,-1.57389]],[[104.47731,-1.63129],[104.47718,-1.63116]],[[104.4767,-1.63089],[104.47686,-1.63111]],[[104.4769,-1.63116],[104.47731,-1.63129]],[[104.4781,-1.63292],[104.47782,-1.63211],[104.47753,-1.63186],[104.4778,-1.63306],[104.4781,-1.63292]],[[104.47921,-1.63509],[104.47888,-1.63406],[104.47834,-1.63374],[104.47834,-1.63409],[104.47921,-1.63509]],[[104.52721,-1.71911],[104.52687,-1.71856]],[[104.52916,-1.71569],[104.52883,-1.71558]],[[104.52872,-1.71558],[104.52864,-1.71612]]]}},{"id":"160","type":"Feature","properties":{"year":2005,"certainty":"good"},"geometry":{"type":"MultiLineString","coordinates":[[[104.52147,-1.71487],[104.52908,-1.71001],[104.52471,-1.70756],[104.51285,-1.6908],[104.5033,-1.68083]],[[104.49669,-1.67242],[104.49316,-1.66982],[104.48659,-1.65382],[104.47725,-1.63726],[104.46747,-1.61107]],[[104.46581,-1.60512],[104.45991,-1.58868],[104.46028,-1.58691],[104.46244,-1.58987],[104.45935,-1.57755],[104.4572,-1.57104],[104.45624,-1.57009],[104.4557,-1.57178],[104.45489,-1.56995],[104.45587,-1.56805],[104.45439,-1.56045],[104.45503,-1.56099],[104.45595,-1.55801],[104.45381,-1.55367],[104.45391,-1.54987],[104.45214,-1.54851],[104.45334,-1.54769],[104.45274,-1.54655],[104.45159,-1.54769],[104.4506,-1.54091],[104.44432,-1.52788],[104.44525,-1.52734],[104.44076,-1.51024],[104.44035,-1.50481],[104.44172,-1.49477],[104.44062,-1.49341],[104.44237,-1.48663]],[[104.44225,-1.48568],[104.44526,-1.466],[104.44981,-1.4565],[104.4492,-1.45243],[104.45088,-1.44921],[104.45182,-1.4499]],[[104.45155,-1.44949],[104.45155,-1.44929]],[[104.45155,-1.44892],[104.45155,-1.4489]],[[104.45182,-1.448],[104.45069,-1.44592],[104.45202,-1.44565],[104.45175,-1.44334]],[[104.45182,-1.44309],[104.45186,-1.4428]],[[104.45275,-1.43818],[104.4529,-1.43737]],[[104.45759,-1.4295],[104.45803,-1.42174]],[[104.45727,-1.40914],[104.457,-1.40589]],[[104.45447,-1.39639],[104.45376,-1.39476]],[[104.44872,-1.45506],[104.44889,-1.45596]],[[104.44153,-1.50372],[104.44116,-1.50324],[104.44065,-1.50372],[104.44089,-1.50389],[104.44153,-1.50372]],[[104.45445,-1.55909],[104.45415,-1.55991]],[[104.46163,-1.58836],[104.46109,-1.58775],[104.46109,-1.58746],[104.46182,-1.58759],[104.46163,-1.58836]],[[104.53049,-1.7992],[104.53103,-1.79847]],[[104.53806,-1.7894],[104.53837,-1.78913]],[[104.53858,-1.78892],[104.53863,-1.78886]],[[104.54533,-1.78513],[104.54466,-1.77936]],[[104.5448,-1.77421],[104.54473,-1.77231]],[[104.54353,-1.76932],[104.54186,-1.76159],[104.54256,-1.75399],[104.54131,-1.75276]],[[104.53795,-1.73974],[104.52712,-1.71897],[104.52201,-1.71551]],[[104.52946,-1.71789],[104.53039,-1.71734],[104.52929,-1.71571],[104.52874,-1.71707],[104.52946,-1.71789]]]}},{"id":"161","type":"Feature","properties":{"year":2005,"certainty":"insufficient data"},"geometry":{"type":"MultiLineString","coordinates":[[[104.5033,-1.68083],[104.49669,-1.67242]],[[104.46747,-1.61107],[104.46581,-1.60512]],[[104.44237,-1.48663],[104.44225,-1.48568]],[[104.45182,-1.4499],[104.45155,-1.44949]],[[104.45155,-1.44929],[104.45155,-1.44892]],[[104.45155,-1.4489],[104.45182,-1.448]],[[104.45175,-1.44334],[104.45182,-1.44309]],[[104.45186,-1.4428],[104.45275,-1.43818]],[[104.4529,-1.43737],[104.45304,-1.43397],[104.45412,-1.43449],[104.45439,-1.43223],[104.45513,-1.43506],[104.45759,-1.4295]],[[104.45803,-1.42174],[104.45727,-1.40914]],[[104.457,-1.40589],[104.45447,-1.39639]],[[104.45376,-1.39476],[104.45156,-1.38404],[104.45664,-1.36233],[104.45623,-1.35669]],[[104.50473,-1.80327],[104.51147,-1.80687],[104.5257,-1.79958],[104.53049,-1.7992]],[[104.53103,-1.79847],[104.53806,-1.7894]],[[104.53837,-1.78913],[104.53858,-1.78892]],[[104.53863,-1.78886],[104.54088,-1.78505],[104.54114,-1.78671],[104.54533,-1.78513]],[[104.54466,-1.77936],[104.5448,-1.77421]],[[104.54473,-1.77231],[104.54353,-1.76932]],[[104.54131,-1.75276],[104.53822,-1.74584],[104.53795,-1.73974]],[[104.50398,-1.80904],[104.50311,-1.80458]]]}},{"id":"162","type":"Feature","properties":{"year":2006,"certainty":"good"},"geometry":{"type":"MultiLineString","coordinates":[[[104.52147,-1.71487],[104.52744,-1.71001],[104.51219,-1.69047],[104.49316,-1.6705],[104.47474,-1.63374],[104.4635,-1.60306],[104.45831,-1.58732],[104.45867,-1.58496],[104.46032,-1.58596],[104.45867,-1.57939],[104.4584,-1.58144],[104.45718,-1.58026],[104.45687,-1.57836],[104.45818,-1.57782],[104.45651,-1.57175],[104.45468,-1.56995],[104.45361,-1.55611],[104.45043,-1.54308],[104.44381,-1.52951],[104.43954,-1.51399],[104.44083,-1.48568]],[[104.44302,-1.47292],[104.45102,-1.43615],[104.45439,-1.43237],[104.45437,-1.43452],[104.45548,-1.43343],[104.45768,-1.42421],[104.45586,-1.40168],[104.45134,-1.38756],[104.45613,-1.35669]],[[104.50473,-1.80327],[104.50891,-1.80635]],[[104.54371,-1.7849],[104.54397,-1.78235]],[[104.54419,-1.77339],[104.54161,-1.76213],[104.54189,-1.75561],[104.53757,-1.74503],[104.53657,-1.73793],[104.52714,-1.71956],[104.52201,-1.71555]],[[104.50377,-1.80904],[104.50311,-1.80456]]]}},{"id":"163","type":"Feature","properties":{"year":2006,"certainty":"insufficient data"},"geometry":{"type":"MultiLineString","coordinates":[[[104.44083,-1.48568],[104.44302,-1.47292]],[[104.50891,-1.80635],[104.51174,-1.80667],[104.51713,-1.8032],[104.51956,-1.80344],[104.5255,-1.79946],[104.52954,-1.80001],[104.5398,-1.78482],[104.54371,-1.7849]],[[104.54397,-1.78235],[104.54419,-1.77339]]]}},{"id":"164","type":"Feature","properties":{"year":2007,"certainty":"insufficient data"},"geometry":{"type":"MultiLineString","coordinates":[[[104.50891,-1.80633],[104.51147,-1.80669],[104.51713,-1.80317],[104.51956,-1.80342],[104.5255,-1.79945],[104.53018,-1.79917]],[[104.53049,-1.79892],[104.53051,-1.7989]],[[104.53103,-1.79822],[104.53661,-1.7894]],[[104.5436,-1.77963],[104.54366,-1.77393]]]}},{"id":"165","type":"Feature","properties":{"year":2007,"certainty":"good"},"geometry":{"type":"MultiLineString","coordinates":[[[104.52147,-1.71486],[104.52691,-1.71029],[104.5115,-1.6898],[104.49316,-1.6709],[104.4738,-1.63265],[104.46043,-1.59574],[104.45843,-1.58108],[104.45759,-1.58197],[104.45559,-1.57429],[104.45678,-1.57444],[104.45255,-1.56398],[104.45333,-1.55611],[104.45194,-1.54987],[104.44316,-1.52788],[104.43946,-1.51404],[104.43883,-1.50725],[104.4418,-1.47224],[104.44879,-1.45026],[104.45021,-1.44022],[104.45331,-1.43405],[104.45385,-1.43535],[104.4557,-1.43316],[104.45737,-1.42611],[104.45609,-1.40358],[104.45123,-1.38648],[104.45612,-1.35669]],[[104.50473,-1.80325],[104.50891,-1.80633]],[[104.53018,-1.79917],[104.53049,-1.79892]],[[104.53051,-1.7989],[104.53103,-1.79822]],[[104.53661,-1.7894],[104.53983,-1.78465],[104.54465,-1.78386],[104.5436,-1.77963]],[[104.54366,-1.77393],[104.54143,-1.75616],[104.53603,-1.73685],[104.52714,-1.71965],[104.52201,-1.71555]],[[104.50377,-1.80904],[104.50311,-1.80454]]]}},{"id":"166","type":"Feature","properties":{"year":2008,"certainty":"good"},"geometry":{"type":"MultiLineString","coordinates":[[[104.52147,-1.71485],[104.52447,-1.71354],[104.52614,-1.71001],[104.51299,-1.69183],[104.49292,-1.67092],[104.46801,-1.61854],[104.45881,-1.59193],[104.45822,-1.58406],[104.45208,-1.56506],[104.45298,-1.55747],[104.44987,-1.54308],[104.4431,-1.52788],[104.43948,-1.51404],[104.43936,-1.4888],[104.44132,-1.47577],[104.451,-1.43913],[104.45266,-1.43533],[104.45466,-1.43563],[104.45628,-1.43288],[104.45756,-1.42448],[104.45603,-1.40358],[104.45122,-1.38648],[104.45421,-1.37535],[104.45608,-1.35669]],[[104.45376,-1.43669],[104.45358,-1.436],[104.45284,-1.43615],[104.45331,-1.43682],[104.45376,-1.43669]],[[104.45899,-1.58488],[104.45867,-1.58325],[104.4584,-1.5831],[104.45854,-1.58434],[104.45899,-1.58488]],[[104.50473,-1.80329],[104.51039,-1.8069],[104.5255,-1.79945],[104.52954,-1.79997],[104.5393,-1.7852],[104.54419,-1.78384],[104.54129,-1.75643],[104.53605,-1.73689],[104.52694,-1.71951],[104.52201,-1.71556]],[[104.50377,-1.80904],[104.50311,-1.80454]]]}},{"id":"167","type":"Feature","properties":{"year":2009,"certainty":"good"},"geometry":{"type":"MultiLineString","coordinates":[[[104.52147,-1.71485],[104.52552,-1.7128],[104.52606,-1.71008],[104.51339,-1.69237],[104.49977,-1.67931]],[[104.49554,-1.67432],[104.47585,-1.63726],[104.4654,-1.61233],[104.45913,-1.59356],[104.45825,-1.58461],[104.45618,-1.58135],[104.45288,-1.56669],[104.45104,-1.56561],[104.45283,-1.56262],[104.44986,-1.54335],[104.44303,-1.52788],[104.44055,-1.51702],[104.442,-1.51648],[104.43978,-1.51485],[104.43844,-1.50779],[104.43927,-1.4888],[104.44269,-1.47007],[104.44511,-1.46193],[104.44687,-1.46084],[104.44576,-1.45976],[104.45108,-1.44076],[104.45492,-1.43642],[104.45358,-1.4359],[104.45358,-1.43516],[104.45493,-1.43598],[104.4563,-1.43452],[104.45742,-1.42719],[104.45662,-1.40738],[104.45161,-1.38974],[104.45209,-1.38187],[104.45358,-1.38187],[104.45473,-1.37644],[104.45386,-1.37291],[104.45575,-1.37089],[104.45633,-1.35669]],[[104.44866,-1.4546],[104.44865,-1.45433],[104.44813,-1.45406],[104.44811,-1.45433],[104.44866,-1.4546]],[[104.44937,-1.45433],[104.44955,-1.45406],[104.44879,-1.45406],[104.44899,-1.45452],[104.44937,-1.45433]],[[104.50473,-1.80335],[104.51039,-1.80696],[104.52523,-1.79956],[104.52954,-1.79997],[104.53845,-1.78626],[104.54389,-1.78411],[104.54127,-1.75643],[104.53631,-1.73689],[104.52693,-1.71951],[104.52201,-1.71557]],[[104.50385,-1.80904],[104.50311,-1.80453]]]}},{"id":"168","type":"Feature","properties":{"year":2009,"certainty":"insufficient data"},"geometry":{"type":"LineString","coordinates":[[104.49977,-1.67931],[104.49554,-1.67432]]}},{"id":"169","type":"Feature","properties":{"year":2010,"certainty":"insufficient data"},"geometry":{"type":"MultiLineString","coordinates":[[[104.52147,-1.71483],[104.52248,-1.71449]],[[104.50813,-1.68663],[104.50166,-1.68125]],[[104.47729,-1.64011],[104.47525,-1.63604]],[[104.47282,-1.63034],[104.46982,-1.62383]],[[104.45889,-1.59261],[104.45474,-1.57606]],[[104.44749,-1.53724],[104.44351,-1.52937]],[[104.44075,-1.51773],[104.44212,-1.51648],[104.43962,-1.51458],[104.43817,-1.50589],[104.43819,-1.50416],[104.44036,-1.50399],[104.44023,-1.50128],[104.43866,-1.50264],[104.43921,-1.48975]],[[104.43944,-1.48676],[104.4425,-1.4812],[104.44132,-1.48038],[104.44307,-1.47631],[104.4414,-1.47604],[104.44239,-1.47102]],[[104.44884,-1.45094],[104.44996,-1.44768]],[[104.45683,-1.42977],[104.45708,-1.42597]],[[104.4573,-1.42326],[104.45714,-1.41647]],[[104.4569,-1.41349],[104.45681,-1.41294]],[[104.45672,-1.41213],[104.45658,-1.40724]],[[104.45645,-1.40697],[104.456,-1.40426]],[[104.52323,-1.71622],[104.52201,-1.71561]]]}},{"id":"170","type":"Feature","properties":{"year":2010,"certainty":"good"},"geometry":{"type":"MultiLineString","coordinates":[[[104.52248,-1.71449],[104.52633,-1.71136],[104.50813,-1.68663]],[[104.50166,-1.68125],[104.4996,-1.67717],[104.49296,-1.67119],[104.47729,-1.64011]],[[104.47525,-1.63604],[104.47282,-1.63034]],[[104.46982,-1.62383],[104.45889,-1.59261]],[[104.45474,-1.57606],[104.4523,-1.56615],[104.45096,-1.56561],[104.45221,-1.55611],[104.44749,-1.53724]],[[104.44351,-1.52937],[104.44075,-1.51773]],[[104.43921,-1.48975],[104.43944,-1.48676]],[[104.44239,-1.47102],[104.44449,-1.46247],[104.447,-1.46084],[104.44596,-1.45921],[104.44726,-1.45921],[104.44884,-1.45094]],[[104.44996,-1.44768],[104.45167,-1.43859],[104.45392,-1.43642],[104.45265,-1.43588],[104.45467,-1.4356],[104.45683,-1.42977]],[[104.45708,-1.42597],[104.4573,-1.42326]],[[104.45714,-1.41647],[104.4569,-1.41349]],[[104.45681,-1.41294],[104.45672,-1.41213]],[[104.45658,-1.40724],[104.45645,-1.40697]],[[104.456,-1.40426],[104.45116,-1.38512],[104.45169,-1.38187],[104.45365,-1.38132],[104.45311,-1.37752],[104.4547,-1.37644],[104.45346,-1.37372],[104.45373,-1.37155],[104.45557,-1.37074],[104.45388,-1.36938],[104.45621,-1.35669]],[[104.50473,-1.80335],[104.51039,-1.807],[104.52523,-1.7995],[104.52954,-1.79997],[104.53926,-1.78523],[104.54387,-1.78411],[104.54119,-1.75589],[104.53682,-1.73987],[104.53069,-1.72576],[104.52323,-1.71622]],[[104.50384,-1.80904],[104.50311,-1.80456]]]}},{"id":"171","type":"Feature","properties":{"year":2011,"certainty":"insufficient data"},"geometry":{"type":"MultiLineString","coordinates":[[[104.45253,-1.38621],[104.45098,-1.38458],[104.45617,-1.35669]],[[104.44449,-1.47088],[104.44228,-1.4698],[104.44332,-1.46573],[104.44733,-1.4584],[104.45064,-1.44755],[104.45069,-1.44103],[104.45331,-1.43577],[104.45412,-1.4365],[104.45686,-1.42719],[104.45705,-1.41444],[104.4548,-1.39951]],[[104.44103,-1.49097],[104.43872,-1.4907],[104.43902,-1.48717],[104.44224,-1.48203]],[[104.44084,-1.48907],[104.44107,-1.48853],[104.44089,-1.48847],[104.44051,-1.4888],[104.44084,-1.48907]],[[104.5028,-1.68205],[104.49964,-1.67672],[104.49309,-1.67147],[104.49305,-1.66875],[104.47583,-1.63781],[104.46642,-1.61582],[104.45755,-1.58949],[104.4523,-1.56615],[104.45101,-1.56561],[104.45199,-1.55556],[104.44792,-1.53792]],[[104.49411,-1.66875],[104.4937,-1.66836],[104.4933,-1.66875],[104.4937,-1.66856],[104.49411,-1.66875]],[[104.50985,-1.68613],[104.50907,-1.68519],[104.50884,-1.68531],[104.50881,-1.68613],[104.50985,-1.68613]],[[104.52152,-1.7149],[104.52586,-1.71273],[104.5251,-1.70947],[104.50692,-1.68533]],[[104.50473,-1.80329],[104.51039,-1.80703],[104.52523,-1.79942],[104.52954,-1.79997],[104.53839,-1.78601],[104.54308,-1.78276],[104.54075,-1.75697],[104.53493,-1.73499],[104.52724,-1.72006],[104.52201,-1.71562]],[[104.50385,-1.80904],[104.50311,-1.80456]]]}},{"id":"172","type":"Feature","properties":{"year":2012,"certainty":"good"},"geometry":{"type":"MultiLineString","coordinates":[[[104.52147,-1.71487],[104.52552,-1.71396],[104.52714,-1.71148],[104.50914,-1.68748],[104.49272,-1.66984],[104.49564,-1.6674],[104.49398,-1.66522],[104.49106,-1.66685],[104.46917,-1.62288],[104.46044,-1.59791],[104.45963,-1.59139],[104.45775,-1.58922],[104.45874,-1.58732],[104.45297,-1.56615],[104.45484,-1.56452],[104.45309,-1.56262],[104.45072,-1.54661],[104.44587,-1.53231]],[[104.44358,-1.52449],[104.44152,-1.52137],[104.4399,-1.50807],[104.43954,-1.49531],[104.44118,-1.49042],[104.43994,-1.48988],[104.44175,-1.48486]],[[104.44184,-1.48463],[104.44186,-1.48459]],[[104.44319,-1.47723],[104.44319,-1.47704]],[[104.44295,-1.47672],[104.44498,-1.46871],[104.44369,-1.46953],[104.44404,-1.4679],[104.44648,-1.46003],[104.44845,-1.45834],[104.44746,-1.45732],[104.44915,-1.45569],[104.44787,-1.45514],[104.44943,-1.45433],[104.44857,-1.4527],[104.45,-1.45243],[104.44891,-1.45053],[104.45102,-1.4489],[104.45191,-1.44402],[104.45304,-1.44443],[104.45242,-1.43995],[104.45672,-1.43886],[104.45627,-1.44073],[104.45547,-1.43983],[104.45439,-1.44116],[104.45412,-1.44498],[104.45654,-1.44312],[104.45802,-1.43452],[104.45765,-1.41009],[104.45212,-1.39028],[104.45629,-1.372],[104.4551,-1.36395],[104.456,-1.35669]],[[104.45469,-1.44646],[104.45454,-1.44538],[104.45439,-1.44515],[104.45433,-1.44592],[104.45469,-1.44646]],[[104.45745,-1.57212],[104.4576,-1.57104],[104.45732,-1.57043],[104.45696,-1.57104],[104.45745,-1.57212]],[[104.45873,-1.57484],[104.45851,-1.57321],[104.45813,-1.57251],[104.45804,-1.57484],[104.45873,-1.57484]],[[104.45885,-1.57728],[104.45898,-1.57565],[104.45867,-1.57512],[104.45837,-1.57701],[104.45885,-1.57728]],[[104.45943,-1.57945],[104.45964,-1.57864],[104.45921,-1.57662],[104.45921,-1.57965],[104.45943,-1.57945]],[[104.46056,-1.58189],[104.46074,-1.58081],[104.46028,-1.58012],[104.46028,-1.58162],[104.46056,-1.58189]],[[104.46136,-1.58434],[104.46136,-1.58333],[104.46109,-1.58317],[104.46109,-1.58439],[104.46136,-1.58434]],[[104.50473,-1.80328],[104.51039,-1.80692],[104.5255,-1.79926],[104.52927,-1.79992],[104.53899,-1.78514],[104.54576,-1.78248],[104.54465,-1.77097],[104.54167,-1.7624],[104.54311,-1.7624],[104.54223,-1.75384],[104.53176,-1.72766],[104.52714,-1.7196],[104.52201,-1.71552]],[[104.52941,-1.71897],[104.52902,-1.71706],[104.52768,-1.71668],[104.52829,-1.71816],[104.52941,-1.71897]],[[104.52888,-1.71979],[104.52902,-1.71933],[104.52795,-1.71887],[104.52831,-1.71979],[104.52888,-1.71979]],[[104.50384,-1.80904],[104.5032,-1.80446]]]}},{"id":"173","type":"Feature","properties":{"year":2012,"certainty":"insufficient data"},"geometry":{"type":"MultiLineString","coordinates":[[[104.44587,-1.53231],[104.44293,-1.52679],[104.44358,-1.52449]],[[104.44175,-1.48486],[104.44184,-1.48463]],[[104.44186,-1.48459],[104.44319,-1.47723]],[[104.44319,-1.47704],[104.44295,-1.47672]]]}},{"id":"174","type":"Feature","properties":{"year":2012,"certainty":"unstable data"},"geometry":{"type":"LineString","coordinates":[[104.49642,-1.66197],[104.49829,-1.66348]]}},{"id":"175","type":"Feature","properties":{"year":2013,"certainty":"unstable data"},"geometry":{"type":"MultiLineString","coordinates":[[[104.4964,-1.66137],[104.49546,-1.66171]],[[104.49534,-1.66156],[104.49531,-1.66156]],[[104.49789,-1.6689],[104.50018,-1.66777]]]}},{"id":"176","type":"Feature","properties":{"year":2013,"certainty":"good"},"geometry":{"type":"MultiLineString","coordinates":[[[104.49546,-1.66171],[104.49534,-1.66156]],[[104.49531,-1.66156],[104.49112,-1.66685],[104.46839,-1.62152],[104.45802,-1.58895],[104.45877,-1.58732],[104.45747,-1.58624],[104.45445,-1.56805],[104.45295,-1.56642],[104.45493,-1.56561],[104.45296,-1.56208],[104.45274,-1.55204],[104.44001,-1.51567],[104.43954,-1.49531],[104.4434,-1.47251],[104.45007,-1.45337],[104.44953,-1.4489],[104.45142,-1.44778],[104.4524,-1.44293],[104.45385,-1.4419],[104.45314,-1.44049],[104.45574,-1.43899],[104.45403,-1.44348],[104.45492,-1.44729],[104.45807,-1.43452],[104.45743,-1.40928],[104.45212,-1.39001],[104.45633,-1.3721],[104.45685,-1.35669]],[[104.45307,-1.44456],[104.45299,-1.44402],[104.45251,-1.44402],[104.45261,-1.44456],[104.45307,-1.44456]],[[104.44122,-1.51648],[104.44115,-1.5158],[104.44088,-1.51587],[104.44086,-1.51621],[104.44122,-1.51648]],[[104.45826,-1.57456],[104.45833,-1.57429],[104.45813,-1.57327],[104.45813,-1.57472],[104.45826,-1.57456]],[[104.45879,-1.57728],[104.45867,-1.57663],[104.4584,-1.57617],[104.45837,-1.57701],[104.45879,-1.57728]],[[104.45931,-1.57945],[104.4595,-1.57809],[104.45921,-1.57693],[104.45921,-1.57958],[104.45931,-1.57945]],[[104.52147,-1.71485],[104.52534,-1.71408],[104.52726,-1.71137],[104.51096,-1.68971],[104.49325,-1.66957],[104.49789,-1.6689]],[[104.50473,-1.80331],[104.51147,-1.80676],[104.52538,-1.79931],[104.52927,-1.79992],[104.53548,-1.79277],[104.53953,-1.7852],[104.54532,-1.78276],[104.54467,-1.77081],[104.54197,-1.76376],[104.54317,-1.7624],[104.54223,-1.75371],[104.53037,-1.72516],[104.52475,-1.7168],[104.52188,-1.71544]],[[104.52941,-1.71897],[104.52902,-1.71706],[104.52754,-1.71653],[104.52829,-1.71816],[104.52941,-1.71897]],[[104.5039,-1.80904],[104.50321,-1.80446]]]}},{"id":"177","type":"Feature","properties":{"year":2014,"certainty":"good"},"geometry":{"type":"MultiLineString","coordinates":[[[104.52147,-1.71484],[104.52579,-1.71392],[104.5269,-1.71164],[104.51447,-1.69321],[104.50983,-1.68911],[104.50773,-1.68357],[104.50098,-1.67944],[104.49116,-1.66794],[104.46829,-1.62152],[104.4578,-1.59031],[104.45865,-1.58732],[104.45419,-1.56805],[104.45267,-1.56669],[104.45449,-1.56588],[104.45113,-1.54715],[104.44265,-1.52598],[104.44281,-1.52245],[104.43973,-1.51485],[104.44011,-1.51078],[104.43853,-1.50888],[104.44019,-1.48907],[104.44146,-1.48744],[104.44033,-1.48554],[104.44246,-1.48174],[104.44331,-1.47251],[104.45246,-1.44157],[104.45304,-1.44021],[104.45708,-1.43905],[104.45752,-1.43615],[104.45738,-1.40928],[104.45195,-1.39245],[104.45214,-1.38431],[104.45632,-1.37155],[104.45715,-1.35669]],[[104.45502,-1.44483],[104.456,-1.44361],[104.4556,-1.44212],[104.45645,-1.44103],[104.45681,-1.43935],[104.45442,-1.44103],[104.45502,-1.44483]],[[104.45657,-1.44266],[104.45654,-1.44208],[104.456,-1.4421],[104.45631,-1.44266],[104.45657,-1.44266]],[[104.45468,-1.44646],[104.45472,-1.44619],[104.45439,-1.4452],[104.45439,-1.44613],[104.45468,-1.44646]],[[104.4407,-1.51485],[104.44061,-1.51394],[104.44034,-1.51383],[104.44016,-1.51458],[104.4407,-1.51485]],[[104.45925,-1.57945],[104.45938,-1.57891],[104.45921,-1.57839],[104.45918,-1.57945],[104.45925,-1.57945]],[[104.45926,-1.59166],[104.45921,-1.59058],[104.45866,-1.59054],[104.45893,-1.59145],[104.45926,-1.59166]],[[104.50473,-1.80331],[104.51147,-1.80675],[104.52523,-1.79935],[104.52927,-1.79992],[104.53937,-1.78737],[104.53953,-1.78502],[104.5447,-1.78058],[104.54192,-1.76511],[104.5423,-1.75507],[104.54034,-1.75362],[104.53576,-1.73626],[104.52686,-1.71951],[104.52185,-1.71544]],[[104.54278,-1.76349],[104.5426,-1.76294],[104.5425,-1.76196],[104.5425,-1.76359],[104.54278,-1.76349]],[[104.54385,-1.78357],[104.54397,-1.7833],[104.54384,-1.78302],[104.54346,-1.78357],[104.54385,-1.78357]],[[104.50397,-1.80904],[104.50311,-1.80448]]]}},{"id":"178","type":"Feature","properties":{"year":2015,"certainty":"unstable data"},"geometry":{"type":"MultiLineString","coordinates":[[[104.44103,-1.47913],[104.44126,-1.47889]],[[104.4413,-1.47874],[104.44211,-1.47418]],[[104.45371,-1.43953],[104.45389,-1.43954]],[[104.45398,-1.43961],[104.45393,-1.43927]],[[104.45398,-1.43907],[104.45641,-1.4333]],[[104.45641,-1.43327],[104.45663,-1.43248]],[[104.45668,-1.43233],[104.45677,-1.43194]],[[104.45405,-1.37956],[104.45521,-1.37682],[104.45276,-1.37725],[104.45442,-1.37345],[104.45604,-1.37318],[104.45628,-1.36083]]]}},{"id":"179","type":"Feature","properties":{"year":2015,"certainty":"good"},"geometry":{"type":"MultiLineString","coordinates":[[[104.52147,-1.71479],[104.5266,-1.71346],[104.52518,-1.71001],[104.51339,-1.6932],[104.49058,-1.66767],[104.46592,-1.61555],[104.45543,-1.58167],[104.45492,-1.57266],[104.45219,-1.56615],[104.45051,-1.54661],[104.44366,-1.52734],[104.44245,-1.52734],[104.43873,-1.51203],[104.43791,-1.50454],[104.44068,-1.49341],[104.43935,-1.49151],[104.44103,-1.47913]],[[104.44126,-1.47889],[104.4413,-1.47874]],[[104.44211,-1.47418],[104.44305,-1.46699],[104.44737,-1.45572],[104.44774,-1.45704],[104.44934,-1.44673],[104.45371,-1.43953]],[[104.45389,-1.43954],[104.45398,-1.43961]],[[104.45393,-1.43927],[104.45398,-1.43907]],[[104.45641,-1.4333],[104.45641,-1.43327]],[[104.45663,-1.43248],[104.45668,-1.43233]],[[104.45677,-1.43194],[104.45693,-1.41254],[104.45087,-1.38648],[104.45236,-1.38078],[104.45405,-1.37956]],[[104.45628,-1.36083],[104.45728,-1.35669]],[[104.45257,-1.38512],[104.45342,-1.38431],[104.45332,-1.38403],[104.45264,-1.38431],[104.45257,-1.38512]],[[104.43951,-1.51078],[104.43954,-1.51051],[104.43896,-1.51078],[104.43927,-1.51091],[104.43951,-1.51078]],[[104.45372,-1.56534],[104.45382,-1.56503],[104.45315,-1.56534],[104.45328,-1.56549],[104.45372,-1.56534]],[[104.50473,-1.80331],[104.51147,-1.80672],[104.5255,-1.79923],[104.52927,-1.79984],[104.53908,-1.78493],[104.54184,-1.7852],[104.54143,-1.78411],[104.54457,-1.78221],[104.54115,-1.75534],[104.53483,-1.7358],[104.52698,-1.71978],[104.52201,-1.7155]],[[104.50394,-1.80904],[104.50311,-1.8045]]]}},{"id":"180","type":"Feature","properties":{"year":2016,"certainty":"good"},"geometry":{"type":"MultiLineString","coordinates":[[[104.52147,-1.71481],[104.52658,-1.71327],[104.52042,-1.70214],[104.4904,-1.66767],[104.46863,-1.62267],[104.46084,-1.5975]],[[104.45772,-1.58999],[104.45772,-1.58943]],[[104.45745,-1.58827],[104.45689,-1.58135],[104.4554,-1.57972],[104.45633,-1.57877]],[[104.45584,-1.57721],[104.45255,-1.56493]],[[104.44959,-1.54539],[104.44052,-1.51933]],[[104.44048,-1.51906],[104.44048,-1.51906]],[[104.43887,-1.49407],[104.43887,-1.49384]],[[104.43888,-1.49382],[104.43914,-1.49016]],[[104.43921,-1.48975],[104.43995,-1.48412]],[[104.44004,-1.48323],[104.44039,-1.48079]],[[104.44147,-1.47346],[104.44157,-1.47303]],[[104.44209,-1.47156],[104.44211,-1.47088]],[[104.4422,-1.47048],[104.44238,-1.46993]],[[104.44246,-1.46966],[104.44265,-1.46932]],[[104.44306,-1.46776],[104.44319,-1.46747]],[[104.44337,-1.46668],[104.44346,-1.46656]],[[104.44361,-1.46613],[104.44373,-1.4659]],[[104.44379,-1.46559],[104.44388,-1.46532]],[[104.44399,-1.46505],[104.444,-1.46498]],[[104.44543,-1.46044],[104.4529,-1.44108]],[[104.45688,-1.43248],[104.45669,-1.41294]],[[104.45507,-1.40317],[104.45246,-1.3953]],[[104.45306,-1.38472],[104.4537,-1.37902]],[[104.4568,-1.35812],[104.45688,-1.35669]],[[104.50473,-1.80326],[104.51147,-1.80673],[104.5255,-1.79919],[104.52927,-1.79982],[104.53669,-1.78932]],[[104.54371,-1.78445],[104.54548,-1.78357],[104.54035,-1.75154],[104.53179,-1.72847],[104.52701,-1.71978],[104.52201,-1.71549]],[[104.50391,-1.80904],[104.50311,-1.80452]]]}},{"id":"181","type":"Feature","properties":{"year":2016,"certainty":"unstable data"},"geometry":{"type":"MultiLineString","coordinates":[[[104.46084,-1.5975],[104.45979,-1.59004],[104.45772,-1.58999]],[[104.45772,-1.58943],[104.45745,-1.58827]],[[104.45633,-1.57877],[104.45584,-1.57721]],[[104.45255,-1.56493],[104.44959,-1.54539]],[[104.44052,-1.51933],[104.44048,-1.51906]],[[104.44048,-1.51906],[104.43788,-1.50508],[104.43887,-1.49407]],[[104.43887,-1.49384],[104.43888,-1.49382]],[[104.43914,-1.49016],[104.43921,-1.48975]],[[104.43995,-1.48412],[104.44004,-1.48323]],[[104.44039,-1.48079],[104.44147,-1.47346]],[[104.44157,-1.47303],[104.44209,-1.47156]],[[104.44211,-1.47088],[104.4422,-1.47048]],[[104.44238,-1.46993],[104.44246,-1.46966]],[[104.44265,-1.46932],[104.44306,-1.46776]],[[104.44319,-1.46747],[104.44337,-1.46668]],[[104.44346,-1.46656],[104.44361,-1.46613]],[[104.44373,-1.4659],[104.44379,-1.46559]],[[104.44388,-1.46532],[104.44399,-1.46505]],[[104.444,-1.46498],[104.44543,-1.46044]],[[104.4529,-1.44108],[104.45601,-1.43794],[104.45688,-1.43248]],[[104.45669,-1.41294],[104.45507,-1.40317]],[[104.45246,-1.3953],[104.45191,-1.38539],[104.45306,-1.38472]],[[104.4537,-1.37902],[104.45614,-1.37264],[104.4568,-1.35812]],[[104.46224,-1.59302],[104.46244,-1.59196],[104.4619,-1.59241],[104.46082,-1.59011],[104.46105,-1.59166],[104.46224,-1.59302]],[[104.46252,-1.59166],[104.46248,-1.59112],[104.46217,-1.59029],[104.46187,-1.59139],[104.46252,-1.59166]],[[104.53669,-1.78932],[104.54007,-1.78549],[104.54371,-1.78445]]]}},{"id":"182","type":"Feature","properties":{"year":2017,"certainty":"good"},"geometry":{"type":"MultiLineString","coordinates":[[[104.52147,-1.71482],[104.52775,-1.713],[104.51114,-1.69074],[104.49022,-1.66767],[104.48682,-1.65817],[104.46889,-1.62342],[104.46167,-1.60225],[104.46272,-1.60144],[104.4616,-1.59696]],[[104.45772,-1.58773],[104.45542,-1.58216],[104.45652,-1.57836],[104.45365,-1.57321],[104.45302,-1.56493]],[[104.45124,-1.55244],[104.44847,-1.54145],[104.44219,-1.52679],[104.43899,-1.51254]],[[104.43999,-1.49273],[104.4389,-1.49124],[104.44076,-1.4871]],[[104.44015,-1.48296],[104.44023,-1.48052]],[[104.44022,-1.48022],[104.44022,-1.47973]],[[104.44031,-1.47943],[104.44049,-1.47894]],[[104.4405,-1.47889],[104.44076,-1.47775]],[[104.44616,-1.4584],[104.44643,-1.45736]],[[104.44647,-1.45718],[104.45182,-1.44018]],[[104.45674,-1.4333],[104.45616,-1.40684],[104.45155,-1.39354],[104.45337,-1.37942],[104.45615,-1.37264],[104.45685,-1.35669]],[[104.45247,-1.56516],[104.45233,-1.56448]],[[104.45265,-1.56466],[104.45247,-1.56516]],[[104.50473,-1.80324],[104.51147,-1.80674],[104.52523,-1.79921],[104.52927,-1.79978],[104.53642,-1.78887]],[[104.54317,-1.78464],[104.54515,-1.78357],[104.54174,-1.75589],[104.53211,-1.72929],[104.52691,-1.71951],[104.52201,-1.71548]],[[104.50389,-1.80904],[104.50311,-1.80451]]]}},{"id":"183","type":"Feature","properties":{"year":2017,"certainty":"unstable data"},"geometry":{"type":"MultiLineString","coordinates":[[[104.4616,-1.59696],[104.4603,-1.59031],[104.45772,-1.58773]],[[104.45302,-1.56493],[104.45124,-1.55244]],[[104.43899,-1.51254],[104.43999,-1.49273]],[[104.44076,-1.4871],[104.44015,-1.48296]],[[104.44023,-1.48052],[104.44022,-1.48022]],[[104.44022,-1.47973],[104.44031,-1.47943]],[[104.44049,-1.47894],[104.4405,-1.47889]],[[104.44076,-1.47775],[104.44281,-1.47658],[104.44142,-1.47577],[104.44175,-1.47278],[104.44312,-1.46817],[104.44453,-1.46817],[104.44467,-1.46392],[104.4448,-1.46546],[104.44581,-1.46519],[104.44724,-1.45867],[104.44616,-1.4584]],[[104.44643,-1.45736],[104.44647,-1.45718]],[[104.45182,-1.44018],[104.45426,-1.44022],[104.45674,-1.4333]],[[104.45442,-1.44402],[104.45494,-1.44266],[104.45466,-1.44254],[104.45423,-1.44266],[104.45442,-1.44402]],[[104.45233,-1.56448],[104.45265,-1.56466]],[[104.462,-1.59302],[104.46195,-1.59112],[104.46082,-1.5894],[104.46072,-1.59085],[104.462,-1.59302]],[[104.53642,-1.78887],[104.5398,-1.78502],[104.54317,-1.78464]]]}},{"id":"184","type":"Feature","properties":{"year":2018,"certainty":"unstable data"},"geometry":{"type":"MultiLineString","coordinates":[[[104.4407,-1.4835],[104.44049,-1.48232]],[[104.44049,-1.48181],[104.44054,-1.4816]],[[104.44067,-1.48079],[104.44481,-1.46563]]]}},{"id":"185","type":"Feature","properties":{"year":2018,"certainty":"good"},"geometry":{"type":"MultiLineString","coordinates":[[[104.52147,-1.71482],[104.52676,-1.713],[104.51974,-1.70133],[104.49006,-1.66767],[104.46538,-1.61473],[104.46044,-1.60035],[104.46086,-1.59682],[104.45812,-1.59221],[104.45637,-1.57836],[104.45282,-1.56968],[104.44874,-1.54308],[104.44458,-1.53439],[104.439,-1.514],[104.43802,-1.50427],[104.4407,-1.4835]],[[104.44049,-1.48232],[104.44049,-1.48181]],[[104.44054,-1.4816],[104.44067,-1.48079]],[[104.44481,-1.46563],[104.45223,-1.44347],[104.45574,-1.43929],[104.45681,-1.43316],[104.45564,-1.40602],[104.45115,-1.38974],[104.45272,-1.37779],[104.45577,-1.37291],[104.45669,-1.35669]],[[104.45359,-1.44402],[104.45397,-1.4432],[104.45385,-1.44291],[104.45347,-1.44347],[104.45359,-1.44402]],[[104.50473,-1.80323],[104.51147,-1.80669],[104.5255,-1.79906],[104.52927,-1.79974],[104.53764,-1.78672],[104.53953,-1.78488],[104.54499,-1.78384],[104.54172,-1.75589],[104.5322,-1.72956],[104.52661,-1.71924],[104.52201,-1.71548]],[[104.50385,-1.80904],[104.50311,-1.80453]]]}},{"id":"186","type":"Feature","properties":{"year":2019,"certainty":"good"},"geometry":{"type":"MultiLineString","coordinates":[[[104.52147,-1.71482],[104.5269,-1.713],[104.51129,-1.69101],[104.48993,-1.66771],[104.4866,-1.65817],[104.46756,-1.62067],[104.45943,-1.59791],[104.45257,-1.56886],[104.44858,-1.54281],[104.44223,-1.52733],[104.43846,-1.51184],[104.43781,-1.50345],[104.44225,-1.47387],[104.45184,-1.4432],[104.45476,-1.44103],[104.45678,-1.43316],[104.45558,-1.40629],[104.45113,-1.39082],[104.45659,-1.35669]],[[104.45311,-1.44402],[104.45369,-1.44348],[104.45358,-1.44323],[104.45304,-1.44406],[104.45311,-1.44402]],[[104.50473,-1.80322],[104.51066,-1.80677],[104.52523,-1.7991],[104.52927,-1.79969],[104.539,-1.78493],[104.5449,-1.78357],[104.54034,-1.75275],[104.53211,-1.72956],[104.5266,-1.71951],[104.52201,-1.71547]],[[104.5038,-1.80904],[104.50311,-1.80453]]]}},{"id":"187","type":"Feature","properties":{"year":2020,"certainty":"good"},"geometry":{"type":"MultiLineString","coordinates":[[[104.52147,-1.71483],[104.52659,-1.713],[104.51127,-1.69101],[104.48963,-1.66794],[104.48642,-1.65789],[104.4679,-1.62152],[104.45727,-1.59085],[104.44855,-1.54308],[104.44434,-1.53412],[104.43846,-1.51216],[104.43815,-1.50155],[104.44215,-1.47414],[104.4501,-1.44673],[104.45175,-1.44266],[104.45507,-1.44076],[104.4569,-1.43289],[104.45547,-1.40629],[104.45112,-1.39082],[104.4566,-1.35669]],[[104.45442,-1.44266],[104.45453,-1.44212],[104.45466,-1.44182],[104.45431,-1.44212],[104.45442,-1.44266]],[[104.45265,-1.4451],[104.45369,-1.44375],[104.45385,-1.44286],[104.45331,-1.4432],[104.45265,-1.4451]],[[104.50473,-1.80323],[104.51147,-1.80662],[104.52523,-1.799],[104.52927,-1.79966],[104.53899,-1.78433],[104.54408,-1.78357],[104.53953,-1.75046],[104.53024,-1.72576],[104.52579,-1.71859],[104.52174,-1.7154]],[[104.50377,-1.80904],[104.50311,-1.80452]]]}},{"id":"188","type":"Feature","properties":{"year":2021,"certainty":"good"},"geometry":{"type":"MultiLineString","coordinates":[[[104.52147,-1.71484],[104.52641,-1.71381],[104.52217,-1.7054],[104.51126,-1.69101],[104.48976,-1.66767],[104.48659,-1.65817],[104.46767,-1.62071],[104.46417,-1.60714],[104.4596,-1.59709],[104.45824,-1.59085],[104.45866,-1.58899],[104.46136,-1.59819],[104.46161,-1.59411],[104.45815,-1.58271],[104.45651,-1.57996],[104.45624,-1.58214],[104.45489,-1.57893],[104.4484,-1.54308],[104.44419,-1.53412],[104.43862,-1.51295],[104.4379,-1.50698],[104.44233,-1.4736],[104.45043,-1.4432],[104.45271,-1.44347],[104.45223,-1.44683],[104.45509,-1.44266],[104.45393,-1.44158],[104.45585,-1.4413],[104.45691,-1.43343],[104.45537,-1.40629],[104.45159,-1.39489],[104.45085,-1.38648],[104.45521,-1.37223],[104.45676,-1.35669]],[[104.45331,-1.44475],[104.45315,-1.44429],[104.45358,-1.44383],[104.4538,-1.44402],[104.45331,-1.44475]],[[104.45468,-1.56696],[104.45447,-1.56534],[104.45409,-1.56469],[104.4542,-1.56642],[104.45468,-1.56696]],[[104.45782,-1.57456],[104.4576,-1.57294],[104.45732,-1.57242],[104.45748,-1.57456],[104.45782,-1.57456]],[[104.50473,-1.80331],[104.51147,-1.80661],[104.52523,-1.79899],[104.52927,-1.79965],[104.53922,-1.78411],[104.54407,-1.78384],[104.54188,-1.75887],[104.53985,-1.75154],[104.53165,-1.7282],[104.52611,-1.71897],[104.52174,-1.7154]],[[104.5038,-1.80904],[104.50311,-1.80449]]]}},{"id":"189","type":"Feature","properties":{"year":2022,"certainty":"unstable data"},"geometry":{"type":"MultiLineString","coordinates":[[[104.458,-1.57986],[104.45799,-1.57985]],[[104.45776,-1.57959],[104.45799,-1.57364]],[[104.45634,-1.56927],[104.45611,-1.56905]],[[104.45598,-1.56873],[104.45646,-1.56737]],[[104.4415,-1.48948],[104.44147,-1.4892]],[[104.44156,-1.48889],[104.44157,-1.48796]],[[104.44155,-1.48676],[104.44165,-1.48595]],[[104.44161,-1.48513],[104.44167,-1.48486]],[[104.44879,-1.45392],[104.45203,-1.44863],[104.45064,-1.44687]],[[104.45639,-1.41539],[104.456,-1.41159]],[[104.45593,-1.41077],[104.45595,-1.41023]],[[104.45524,-1.40724],[104.45461,-1.40399]],[[104.45453,-1.40346],[104.45453,-1.40344]],[[104.45444,-1.40317],[104.45291,-1.3991]],[[104.45291,-1.3985],[104.45286,-1.39829]],[[104.45264,-1.39749],[104.45264,-1.39657]],[[104.45184,-1.39501],[104.45161,-1.39421]],[[104.45157,-1.39393],[104.4513,-1.38797]],[[104.4513,-1.3874],[104.4513,-1.38539]],[[104.45157,-1.38409],[104.45184,-1.38275]],[[104.4567,-1.35778],[104.4567,-1.3573]]]}},{"id":"190","type":"Feature","properties":{"year":2022,"certainty":"good"},"geometry":{"type":"MultiLineString","coordinates":[[[104.49051,-1.66685],[104.47083,-1.62722],[104.46077,-1.60225],[104.45936,-1.59194],[104.46082,-1.59683],[104.46138,-1.59329],[104.46055,-1.58834],[104.45849,-1.58705],[104.458,-1.57986]],[[104.45799,-1.57985],[104.45776,-1.57959]],[[104.45799,-1.57364],[104.45651,-1.57061],[104.45505,-1.57158],[104.45394,-1.56832],[104.45634,-1.56927]],[[104.45611,-1.56905],[104.45598,-1.56873]],[[104.45646,-1.56737],[104.45154,-1.55909],[104.44725,-1.53928],[104.44492,-1.53634],[104.43903,-1.51322],[104.43952,-1.49748],[104.4415,-1.48948]],[[104.44147,-1.4892],[104.44156,-1.48889]],[[104.44157,-1.48796],[104.44155,-1.48676]],[[104.44165,-1.48595],[104.44161,-1.48513]],[[104.44167,-1.48486],[104.44879,-1.45392]],[[104.45064,-1.44687],[104.45385,-1.44572],[104.45627,-1.43914],[104.45639,-1.41539]],[[104.456,-1.41159],[104.45593,-1.41077]],[[104.45595,-1.41023],[104.45524,-1.40724]],[[104.45461,-1.40399],[104.45453,-1.40346]],[[104.45453,-1.40344],[104.45444,-1.40317]],[[104.45291,-1.3991],[104.45291,-1.3985]],[[104.45286,-1.39829],[104.45264,-1.39749]],[[104.45264,-1.39657],[104.45184,-1.39501]],[[104.45161,-1.39421],[104.45157,-1.39393]],[[104.4513,-1.38797],[104.45197,-1.38883],[104.4513,-1.3874]],[[104.4513,-1.38539],[104.45157,-1.38409]],[[104.45184,-1.38275],[104.45416,-1.37942],[104.4532,-1.37834],[104.45551,-1.3721],[104.4567,-1.35778]],[[104.4567,-1.3573],[104.45684,-1.35669]],[[104.49285,-1.66414],[104.49329,-1.66332],[104.4929,-1.66268],[104.49224,-1.66414],[104.49285,-1.66414]],[[104.52147,-1.71477],[104.52646,-1.71409],[104.52112,-1.70377],[104.49532,-1.67406],[104.49435,-1.67065],[104.49177,-1.66957],[104.49236,-1.66631],[104.49074,-1.66719]],[[104.50457,-1.80337],[104.51066,-1.80673],[104.52523,-1.79904],[104.52927,-1.79963],[104.53791,-1.78544],[104.54088,-1.78383],[104.54195,-1.78472],[104.54384,-1.78471],[104.54454,-1.78411],[104.54116,-1.7548],[104.53125,-1.72739],[104.52606,-1.71874],[104.52201,-1.71545]],[[104.54357,-1.78456],[104.5432,-1.78438],[104.54384,-1.78393],[104.54405,-1.78411],[104.54357,-1.78456]],[[104.50388,-1.80904],[104.50311,-1.80449]]]}},{"id":"191","type":"Feature","properties":{"year":2023,"certainty":"good"},"geometry":{"type":"MultiLineString","coordinates":[[[104.52147,-1.71479],[104.52602,-1.71354],[104.52242,-1.70594],[104.49763,-1.67391],[104.48958,-1.66794],[104.48594,-1.65735],[104.46774,-1.62098],[104.45866,-1.59557],[104.45866,-1.5929],[104.46074,-1.59356],[104.45817,-1.58624],[104.45858,-1.58325],[104.45514,-1.58189],[104.45495,-1.57565],[104.45283,-1.57131],[104.4534,-1.56751],[104.45488,-1.56751],[104.45353,-1.56235],[104.45207,-1.56344],[104.45214,-1.55529],[104.45139,-1.5564],[104.44723,-1.53955],[104.44406,-1.53466],[104.44183,-1.52625],[104.44331,-1.52558],[104.44086,-1.52354],[104.4379,-1.51078],[104.43887,-1.50128],[104.43783,-1.50019],[104.43908,-1.49911],[104.44533,-1.46383],[104.45142,-1.44795],[104.45152,-1.44402],[104.45331,-1.445],[104.45633,-1.43886],[104.45608,-1.41118],[104.45095,-1.38919],[104.45178,-1.38241],[104.45515,-1.37562],[104.45673,-1.35669]],[[104.45331,-1.44459],[104.45286,-1.44456],[104.45358,-1.44399],[104.45345,-1.44456],[104.45331,-1.44459]],[[104.45844,-1.57918],[104.45844,-1.57782],[104.45651,-1.57387],[104.45671,-1.57701],[104.45844,-1.57918]],[[104.46058,-1.58976],[104.46059,-1.58841],[104.46001,-1.58785],[104.46025,-1.58814],[104.46058,-1.58976]],[[104.50473,-1.80323],[104.51066,-1.80671],[104.52523,-1.79898],[104.52927,-1.79951],[104.53764,-1.7855],[104.54061,-1.78421],[104.54298,-1.7852],[104.54454,-1.78303],[104.54121,-1.75561],[104.53124,-1.72739],[104.52606,-1.71892],[104.52174,-1.71542]],[[104.52962,-1.71626],[104.52929,-1.71577],[104.52889,-1.71626],[104.52929,-1.71649],[104.52962,-1.71626]],[[104.53165,-1.72521],[104.53134,-1.7244],[104.53051,-1.72413],[104.53118,-1.72498],[104.53165,-1.72521]],[[104.50379,-1.80904],[104.50311,-1.80452]]]}},{"id":"192","type":"Feature","properties":{"year":2024,"certainty":"unstable data"},"geometry":{"type":"LineString","coordinates":[[104.45162,-1.3915],[104.45201,-1.38377],[104.45437,-1.38241],[104.45716,-1.37535],[104.45664,-1.36626]]}},{"id":"193","type":"Feature","properties":{"year":2024,"certainty":"good"},"geometry":{"type":"MultiLineString","coordinates":[[[104.52147,-1.71477],[104.52912,-1.71436],[104.52552,-1.71245],[104.52,-1.70214],[104.50071,-1.67898],[104.49559,-1.67014],[104.48943,-1.66794],[104.48596,-1.65735],[104.46968,-1.62478],[104.46039,-1.59791],[104.46352,-1.60247],[104.46246,-1.59519],[104.46017,-1.59302],[104.45829,-1.58596],[104.4592,-1.58471],[104.46078,-1.59058],[104.46221,-1.59302],[104.4576,-1.57077],[104.45489,-1.57208],[104.45332,-1.56696],[104.45597,-1.56971],[104.45739,-1.56887],[104.45193,-1.55844],[104.45139,-1.55977],[104.44718,-1.53955],[104.44385,-1.53439],[104.43843,-1.51404],[104.43764,-1.49829],[104.43865,-1.49042],[104.44044,-1.49015],[104.43919,-1.48581],[104.44355,-1.46546],[104.44872,-1.44935],[104.45034,-1.44821],[104.45015,-1.44483],[104.45277,-1.44477],[104.45493,-1.44266],[104.45723,-1.43018],[104.45589,-1.41091],[104.45162,-1.3915]],[[104.45664,-1.36626],[104.45707,-1.35669]],[[104.44384,-1.47061],[104.44406,-1.47007],[104.44386,-1.46974],[104.44359,-1.47088],[104.44384,-1.47061]],[[104.50473,-1.80322],[104.51147,-1.80659],[104.52523,-1.79893],[104.52927,-1.79935],[104.53764,-1.78559],[104.54478,-1.78276],[104.54145,-1.75534],[104.53045,-1.72603],[104.53334,-1.72768],[104.53334,-1.72641],[104.52956,-1.72456],[104.528,-1.7206],[104.52174,-1.71538]],[[104.52991,-1.7206],[104.5296,-1.71761],[104.5286,-1.71707],[104.52902,-1.71902],[104.52991,-1.7206]],[[104.54395,-1.7852],[104.54465,-1.78466],[104.54465,-1.78415],[104.54345,-1.7852],[104.54395,-1.7852]],[[104.50377,-1.80904],[104.50311,-1.80454]]]}},{"id":"194","type":"Feature","properties":{"year":2025,"certainty":"good"},"geometry":{"type":"MultiLineString","coordinates":[[[104.48932,-1.66604],[104.47052,-1.62721],[104.46358,-1.60578],[104.46163,-1.6039],[104.46012,-1.59791],[104.46136,-1.59784],[104.46325,-1.6023],[104.46321,-1.60116],[104.46255,-1.59601],[104.46085,-1.59519],[104.45817,-1.58624],[104.45894,-1.58411],[104.46136,-1.5915],[104.45921,-1.57965],[104.4584,-1.58133],[104.45574,-1.57104],[104.4557,-1.57519],[104.45428,-1.57321],[104.45486,-1.57022],[104.45361,-1.56859],[104.45509,-1.56778],[104.45313,-1.56344],[104.45468,-1.56371],[104.45434,-1.56235],[104.45133,-1.55991],[104.44717,-1.53955],[104.44383,-1.53439],[104.43813,-1.51268],[104.43707,-1.50372],[104.43932,-1.48608],[104.44548,-1.45841],[104.45082,-1.44578]],[[104.45486,-1.44063],[104.45498,-1.44063]],[[104.45552,-1.44035],[104.45711,-1.43018],[104.45637,-1.41552],[104.45187,-1.39516],[104.45179,-1.38689]],[[104.45574,-1.36979],[104.45589,-1.36911]],[[104.45598,-1.36843],[104.45694,-1.35669]],[[104.45519,-1.56615],[104.45489,-1.56529],[104.45463,-1.56536],[104.45484,-1.56615],[104.45519,-1.56615]],[[104.45599,-1.56886],[104.4557,-1.56871],[104.45539,-1.56805],[104.45519,-1.56886],[104.45599,-1.56886]],[[104.45847,-1.57619],[104.4584,-1.57395],[104.45732,-1.57099],[104.45784,-1.57592],[104.45847,-1.57619]],[[104.45666,-1.57728],[104.45705,-1.57811]],[[104.52147,-1.71478],[104.52581,-1.71354],[104.52232,-1.70594],[104.50144,-1.68042],[104.4969,-1.67133]],[[104.49681,-1.67119],[104.49675,-1.67106]],[[104.49573,-1.66978],[104.4929,-1.66788],[104.48939,-1.66803],[104.48993,-1.66615]],[[104.50473,-1.80323],[104.51066,-1.80671],[104.52523,-1.79893],[104.529,-1.79943],[104.53764,-1.78552],[104.54474,-1.78276],[104.54104,-1.75643],[104.53495,-1.73725],[104.528,-1.7206],[104.52174,-1.71539]],[[104.5299,-1.7206],[104.52983,-1.71873],[104.52902,-1.71815],[104.52902,-1.719],[104.5299,-1.7206]],[[104.50378,-1.80904],[104.50311,-1.80454]]]}},{"id":"195","type":"Feature","properties":{"year":2025,"certainty":"unstable data"},"geometry":{"type":"MultiLineString","coordinates":[[[104.45082,-1.44578],[104.45196,-1.44689],[104.45486,-1.44063]],[[104.45498,-1.44063],[104.45552,-1.44035]],[[104.45179,-1.38689],[104.45189,-1.38377],[104.45278,-1.38221],[104.45413,-1.38436],[104.45438,-1.37969],[104.45609,-1.37752],[104.45494,-1.37345],[104.45664,-1.37372],[104.45711,-1.37128],[104.45574,-1.36979]],[[104.45589,-1.36911],[104.45598,-1.36843]],[[104.457,-1.37508],[104.4571,-1.3741],[104.45629,-1.37438],[104.45669,-1.37508],[104.457,-1.37508]],[[104.45386,-1.37949],[104.45353,-1.38105]],[[104.4969,-1.67133],[104.49681,-1.67119]],[[104.49675,-1.67106],[104.49573,-1.66978]]]}}]}