{"type":"FeatureCollection","features":[{"type":"Feature","geometry":{"type":"MultiLineString","coordinates":[[[110.04363,-6.90551],[110.04362,-6.90551]],[[110.04362,-6.90828],[110.04363,-6.90829]],[[110.04363,-6.91286],[110.04362,-6.91285]],[[110.04362,-6.91103],[110.04363,-6.91102]],[[110.04363,-6.90993],[110.04362,-6.90992]]]},"properties":{"year":1987,"certainty":"insufficient data"}},{"type":"Feature","geometry":{"type":"MultiLineString","coordinates":[[[110.04363,-6.90546],[110.04362,-6.90546]],[[110.04362,-6.90825],[110.04363,-6.90826]],[[110.04363,-6.91296],[110.04362,-6.91295]],[[110.04362,-6.91084],[110.04363,-6.91083]],[[110.04363,-6.90998],[110.04362,-6.90997]]]},"properties":{"year":1988,"certainty":"good"}},{"type":"Feature","geometry":{"type":"MultiLineString","coordinates":[[[110.04363,-6.90545],[110.04362,-6.90545]],[[110.04362,-6.90819],[110.04363,-6.9082]],[[110.04363,-6.91327],[110.04362,-6.91326]],[[110.04362,-6.9108],[110.04363,-6.91078]],[[110.04363,-6.91002],[110.04362,-6.91]]]},"properties":{"year":1989,"certainty":"good"}},{"type":"Feature","geometry":{"type":"MultiLineString","coordinates":[[[110.04363,-6.90542],[110.04362,-6.90542]],[[110.04362,-6.90817],[110.04363,-6.90818]],[[110.04363,-6.91332],[110.04362,-6.91331]],[[110.04362,-6.91078],[110.04363,-6.91076]],[[110.04363,-6.90999],[110.04362,-6.90998]]]},"properties":{"year":1990,"certainty":"good"}},{"type":"Feature","geometry":{"type":"MultiLineString","coordinates":[[[110.04363,-6.90534],[110.04362,-6.90534]],[[110.04362,-6.90815],[110.04363,-6.90816]],[[110.04363,-6.91175],[110.04362,-6.91176]],[[110.04362,-6.91252],[110.04363,-6.91254]],[[110.04363,-6.91361],[110.04362,-6.91361]],[[110.04362,-6.91043],[110.04363,-6.91041]],[[110.04363,-6.90992],[110.04362,-6.90991]]]},"properties":{"year":1991,"certainty":"good"}},{"type":"Feature","geometry":{"type":"MultiLineString","coordinates":[[[110.04363,-6.90528],[110.04362,-6.90528]],[[110.04362,-6.90678],[110.04363,-6.90678]],[[110.04363,-6.91151],[110.04362,-6.91152]],[[110.04362,-6.91291],[110.04363,-6.91292]],[[110.04363,-6.91387],[110.04362,-6.91387]]]},"properties":{"year":1992,"certainty":"good"}},{"type":"Feature","geometry":{"type":"MultiLineString","coordinates":[[[110.04363,-6.90515],[110.04362,-6.90515]],[[110.04362,-6.90675],[110.04363,-6.90675]],[[110.04363,-6.91137],[110.04362,-6.91137]],[[110.04362,-6.91345],[110.04363,-6.91346]],[[110.04363,-6.91403],[110.04362,-6.91402]]]},"properties":{"year":1993,"certainty":"good"}},{"type":"Feature","geometry":{"type":"MultiLineString","coordinates":[[[110.04363,-6.90508],[110.04362,-6.90508]],[[110.04362,-6.90673],[110.04363,-6.90672]],[[110.04363,-6.9112],[110.04362,-6.9112]],[[110.04362,-6.91355],[110.04363,-6.91356]],[[110.04363,-6.91411],[110.04362,-6.91411]]]},"properties":{"year":1994,"certainty":"good"}},{"type":"Feature","geometry":{"type":"MultiLineString","coordinates":[[[110.04363,-6.90515],[110.04362,-6.90515]],[[110.04362,-6.908],[110.04363,-6.90803]],[[110.04363,-6.91131],[110.04362,-6.91131]],[[110.04362,-6.91061],[110.04363,-6.91061]],[[110.04363,-6.91049],[110.04362,-6.91048]],[[110.04362,-6.91367],[110.04363,-6.91368]],[[110.04363,-6.91416],[110.04362,-6.91416]]]},"properties":{"year":1995,"certainty":"good"}},{"type":"Feature","geometry":{"type":"MultiLineString","coordinates":[[[110.04363,-6.90497],[110.04362,-6.90497]],[[110.04362,-6.90673],[110.04363,-6.90673]],[[110.04363,-6.91425],[110.04362,-6.91424]],[[110.04363,-6.91029],[110.04362,-6.91029]],[[110.04362,-6.91367],[110.04363,-6.91368]]]},"properties":{"year":1996,"certainty":"good"}},{"type":"Feature","geometry":{"type":"MultiLineString","coordinates":[[[110.04363,-6.90478],[110.04362,-6.90478]],[[110.04362,-6.90683],[110.04363,-6.90683]],[[110.04363,-6.91423],[110.04362,-6.91422]],[[110.04363,-6.91003],[110.04362,-6.91003]],[[110.04362,-6.91362],[110.04363,-6.91362]]]},"properties":{"year":1997,"certainty":"good"}},{"type":"Feature","geometry":{"type":"MultiLineString","coordinates":[[[110.04363,-6.90482],[110.04362,-6.90482]],[[110.04362,-6.90685],[110.04363,-6.90685]],[[110.04363,-6.90998],[110.04362,-6.90999]],[[110.04362,-6.91359],[110.04363,-6.9136]],[[110.04363,-6.91426],[110.04362,-6.91425]]]},"properties":{"year":1998,"certainty":"good"}},{"type":"Feature","geometry":{"type":"MultiLineString","coordinates":[[[110.04363,-6.90491],[110.04362,-6.90492]],[[110.04362,-6.90686],[110.04363,-6.90686]],[[110.04363,-6.90982],[110.04362,-6.90983]],[[110.04362,-6.91354],[110.04363,-6.91355]],[[110.04363,-6.91436],[110.04362,-6.91435]],[[110.04362,-6.9101],[110.04363,-6.91009]]]},"properties":{"year":1999,"certainty":"good"}},{"type":"Feature","geometry":{"type":"MultiLineString","coordinates":[[[110.04363,-6.90491],[110.04362,-6.90491]],[[110.04362,-6.90687],[110.04363,-6.90687]],[[110.04363,-6.90981],[110.04362,-6.90982]],[[110.04362,-6.91352],[110.04362,-6.91352],[110.04363,-6.91353]],[[110.04363,-6.91438],[110.04362,-6.91437]],[[110.04362,-6.91003],[110.04363,-6.91003]]]},"properties":{"year":2000,"certainty":"good"}},{"type":"Feature","geometry":{"type":"MultiLineString","coordinates":[[[110.04363,-6.90483],[110.04362,-6.90483]],[[110.04362,-6.90692],[110.04363,-6.90692]],[[110.04363,-6.90966],[110.04362,-6.90967]],[[110.04362,-6.90978],[110.04363,-6.90979]],[[110.04363,-6.91447],[110.04362,-6.91446]],[[110.04363,-6.91105],[110.04362,-6.91105]],[[110.04362,-6.91351],[110.04363,-6.91352]]]},"properties":{"year":2001,"certainty":"insufficient data"}},{"type":"Feature","geometry":{"type":"MultiLineString","coordinates":[[[110.04362,-6.91362],[110.04363,-6.91364]],[[110.04363,-6.91444],[110.04362,-6.91443]]]},"properties":{"year":2006,"certainty":"good"}},{"type":"Feature","geometry":{"type":"MultiLineString","coordinates":[[[110.04363,-6.90458],[110.04362,-6.90458]],[[110.04362,-6.90639],[110.04363,-6.90639]],[[110.04363,-6.90989],[110.04362,-6.90993]]]},"properties":{"year":2006,"certainty":"insufficient data"}},{"type":"Feature","geometry":{"type":"MultiLineString","coordinates":[[[110.04363,-6.90461],[110.04362,-6.90461]],[[110.04362,-6.90642],[110.04363,-6.90642]],[[110.04363,-6.90975],[110.04362,-6.90979]],[[110.04362,-6.9137],[110.04363,-6.91372]],[[110.04363,-6.91443],[110.04362,-6.91443]]]},"properties":{"year":2007,"certainty":"good"}},{"type":"Feature","geometry":{"type":"MultiLineString","coordinates":[[[110.04363,-6.90463],[110.04362,-6.90463]],[[110.04362,-6.90642],[110.04363,-6.90642]],[[110.04363,-6.90971],[110.04363,-6.90972],[110.04362,-6.90975]],[[110.04362,-6.9137],[110.04363,-6.91371]],[[110.04363,-6.91444],[110.04362,-6.91443]]]},"properties":{"year":2008,"certainty":"good"}},{"type":"Feature","geometry":{"type":"MultiLineString","coordinates":[[[110.04363,-6.90464],[110.04362,-6.90464]],[[110.04362,-6.90643],[110.04363,-6.90644]],[[110.04363,-6.90951],[110.04362,-6.90954]],[[110.04362,-6.91375],[110.04363,-6.91377]],[[110.04363,-6.91441],[110.04362,-6.91441]]]},"properties":{"year":2009,"certainty":"good"}},{"type":"Feature","geometry":{"type":"MultiLineString","coordinates":[[[110.04363,-6.90464],[110.04362,-6.90464]],[[110.04362,-6.90642],[110.04363,-6.90642]],[[110.04363,-6.90952],[110.04362,-6.90955]],[[110.04362,-6.91365],[110.04363,-6.91367]],[[110.04363,-6.91442],[110.04362,-6.91441]]]},"properties":{"year":2010,"certainty":"good"}},{"type":"Feature","geometry":{"type":"MultiLineString","coordinates":[[[110.04363,-6.90483],[110.04362,-6.90483]],[[110.04362,-6.90637],[110.04363,-6.90638]],[[110.04363,-6.9099],[110.04362,-6.90992]]]},"properties":{"year":2012,"certainty":"good"}},{"type":"Feature","geometry":{"type":"MultiLineString","coordinates":[[[110.04363,-6.90483],[110.04362,-6.90483]],[[110.04362,-6.90637],[110.04363,-6.90637]],[[110.04363,-6.90991],[110.04362,-6.90992]],[[110.04362,-6.91376],[110.04363,-6.91377]],[[110.04363,-6.91452],[110.04362,-6.91451]]]},"properties":{"year":2013,"certainty":"good"}},{"type":"Feature","geometry":{"type":"MultiLineString","coordinates":[[[110.04363,-6.9048],[110.04362,-6.9048]],[[110.04362,-6.90644],[110.04363,-6.90644]],[[110.04363,-6.90796],[110.04362,-6.90796]],[[110.04362,-6.9086],[110.04363,-6.9086]],[[110.04363,-6.90991],[110.04362,-6.90993]],[[110.04362,-6.9137],[110.04363,-6.91373]],[[110.04363,-6.91447],[110.04362,-6.91446]]]},"properties":{"year":2014,"certainty":"good"}},{"type":"Feature","geometry":{"type":"MultiLineString","coordinates":[[[110.04363,-6.90479],[110.04362,-6.90478]],[[110.04362,-6.90641],[110.04363,-6.90642]],[[110.04363,-6.90993],[110.04362,-6.90994]],[[110.04362,-6.9136],[110.04363,-6.91363]],[[110.04363,-6.9145],[110.04362,-6.9145]]]},"properties":{"year":2015,"certainty":"good"}},{"type":"Feature","geometry":{"type":"MultiLineString","coordinates":[[[110.04363,-6.9048],[110.04362,-6.9048]],[[110.04362,-6.90645],[110.04363,-6.90646]],[[110.04363,-6.90979],[110.04362,-6.90981]],[[110.04362,-6.91365],[110.04363,-6.91367]],[[110.04363,-6.91447],[110.04362,-6.91447]]]},"properties":{"year":2016,"certainty":"good"}},{"type":"Feature","geometry":{"type":"MultiLineString","coordinates":[[[110.04363,-6.90495],[110.04362,-6.90495]],[[110.04362,-6.90646],[110.04362,-6.90647],[110.04363,-6.90648]],[[110.04363,-6.90771],[110.04362,-6.90771]],[[110.04362,-6.908],[110.04363,-6.908]],[[110.04363,-6.90953],[110.04362,-6.90953]],[[110.04362,-6.91378],[110.04363,-6.91379],[110.04363,-6.91381]],[[110.04363,-6.91448],[110.04362,-6.91448]]]},"properties":{"year":2017,"certainty":"good"}},{"type":"Feature","geometry":{"type":"MultiLineString","coordinates":[[[110.04363,-6.91452],[110.04362,-6.91451]],[[110.04363,-6.90515],[110.04362,-6.90515]],[[110.04362,-6.90645],[110.04363,-6.90645]],[[110.04363,-6.90769],[110.04362,-6.90769]],[[110.04362,-6.90806],[110.04363,-6.90807]],[[110.04363,-6.9096],[110.04362,-6.9096]],[[110.04362,-6.91368],[110.04363,-6.9137]]]},"properties":{"year":2018,"certainty":"good"}},{"type":"Feature","geometry":{"type":"MultiLineString","coordinates":[[[110.04363,-6.91451],[110.04362,-6.91451]],[[110.04363,-6.90508],[110.04362,-6.90508]],[[110.04362,-6.90645],[110.04363,-6.90646]],[[110.04363,-6.90756],[110.04362,-6.90757]],[[110.04362,-6.90805],[110.04363,-6.90805]],[[110.04363,-6.90954],[110.04362,-6.90954]],[[110.04362,-6.91377],[110.04363,-6.91378]]]},"properties":{"year":2019,"certainty":"good"}},{"type":"Feature","geometry":{"type":"MultiLineString","coordinates":[[[110.04363,-6.9145],[110.04362,-6.91449]],[[110.04363,-6.90504],[110.04362,-6.90504]],[[110.04362,-6.90674],[110.04363,-6.90677]],[[110.04363,-6.9074],[110.04362,-6.90743]],[[110.04362,-6.90805],[110.04363,-6.90805]],[[110.04363,-6.90831],[110.04362,-6.90835]],[[110.04362,-6.90837],[110.04363,-6.90838]],[[110.04363,-6.90958],[110.04362,-6.90958]],[[110.04362,-6.91376],[110.04363,-6.91378]]]},"properties":{"year":2020,"certainty":"good"}},{"type":"Feature","geometry":{"type":"MultiLineString","coordinates":[[[110.04363,-6.90536],[110.04362,-6.90536]],[[110.04362,-6.90659],[110.04363,-6.9066]],[[110.04363,-6.90693],[110.04362,-6.90694]],[[110.04362,-6.9086],[110.04363,-6.9086]],[[110.04363,-6.90953],[110.04362,-6.90953]],[[110.04362,-6.91386],[110.04363,-6.91389]],[[110.04363,-6.91449],[110.04362,-6.91449]]]},"properties":{"year":2021,"certainty":"good"}},{"type":"Feature","geometry":{"type":"MultiLineString","coordinates":[[[110.04363,-6.91447],[110.04362,-6.91446]],[[110.04363,-6.90535],[110.04362,-6.90535]],[[110.04362,-6.90809],[110.04363,-6.90809]],[[110.04363,-6.90815],[110.04362,-6.90834]],[[110.04362,-6.90837],[110.04363,-6.90837]],[[110.04363,-6.90955],[110.04362,-6.90955]],[[110.04362,-6.91389],[110.04363,-6.91391]]]},"properties":{"year":2022,"certainty":"good"}},{"type":"Feature","geometry":{"type":"MultiLineString","coordinates":[[[110.04363,-6.90537],[110.04362,-6.90537]],[[110.04362,-6.90641],[110.04363,-6.90642]],[[110.04363,-6.90702],[110.04362,-6.90701]],[[110.04362,-6.90856],[110.04363,-6.90857]],[[110.04363,-6.90955],[110.04362,-6.90955]],[[110.04362,-6.91386],[110.04363,-6.91388]],[[110.04363,-6.91448],[110.04362,-6.91448]]]},"properties":{"year":2023,"certainty":"good"}},{"type":"Feature","geometry":{"type":"MultiLineString","coordinates":[[[110.04363,-6.90528],[110.04362,-6.90528]],[[110.04362,-6.90636],[110.04363,-6.90637]],[[110.04363,-6.90694],[110.04362,-6.90694]],[[110.04362,-6.90873],[110.04363,-6.90873]],[[110.04363,-6.90954],[110.04362,-6.90955]]]},"properties":{"year":2024,"certainty":"good"}},{"type":"Feature","geometry":{"type":"MultiLineString","coordinates":[[[110.04363,-6.90515],[110.04362,-6.90515]],[[110.04362,-6.9064],[110.04363,-6.90641]],[[110.04363,-6.90657],[110.04362,-6.90658]],[[110.04362,-6.90876],[110.04363,-6.90876]],[[110.04363,-6.90952],[110.04362,-6.90952]]]},"properties":{"year":2025,"certainty":"good"}}]}